{"starred_restaurants":[{"name":"\n      Le Jardin des Remparts    ","address":"10 rue Hôtel-Dieu","zipcode":"21200","city":"Beaune","description":"\n          Cuisine Moderne, Créative; Végétarien; Végétalien        ","chef":"Christophe Bocquillon","url":"https://restaurant.michelin.fr/28u6ql7/le-jardin-des-remparts-beaune"},{"name":"\n      Auberge de l'Île Barbe    ","address":"1 Place Notre-Dame","zipcode":"69009","city":"Lyon 09","description":"\n          Traditionnel, Classique; Cuisine Moderne, Créative; Gastronomique        ","chef":"Jean-Christophe Ansanay-Alex","url":"https://restaurant.michelin.fr/29tj1pj/auberge-de-lile-barbe-lyon-09"},{"name":"\n      Le Saint-Estève    ","address":"2250 route cézanne D17","zipcode":"13100","city":"Le Tholonet","description":"\n          Cuisine Moderne, Créative; Gastronomique; Végétarien; Végétalien        ","chef":"Mathias Dandine","url":"https://restaurant.michelin.fr/2x1lce26/le-saint-esteve-le-tholonet"},{"name":"\n      Les Pêcheurs    ","address":"10 boulevard du Maréchal-Juin","zipcode":"06600","city":"Antibes","description":"\n          Méditerranéen; Poissons, Fruits de Mer; Gastronomique; Végétarien; Végétalien; Traditionnel, Classique        ","chef":"Nicolas RONDELLI","url":"https://restaurant.michelin.fr/29ol879/les-pecheurs-antibes"},{"name":"\n      Agapé    ","address":"51 rue Jouffroy-d'Abbans","zipcode":"75017","city":"Paris 17","description":"\n          Cuisine Moderne, Créative; Gastronomique        ","chef":"Yoshitaka Takayanagi","url":"https://restaurant.michelin.fr/2eo1t6h/agape-paris-17"},{"name":"\n      Christophe Bacquié    ","address":"Hotel du Castellet Route des Hauts du Camp","zipcode":"83330","city":"Le Castellet","description":"\n          Cuisine Moderne, Créative; Gastronomique; Provençal        ","chef":"Christophe Bacquié","url":"https://restaurant.michelin.fr/2bmu0gi/christophe-bacquie-le-castellet"},{"name":"\n      JY'S    ","address":"17 r. de la Poissonnerie","zipcode":"68000","city":"Colmar","description":"\n          Cuisine Moderne, Créative; Gastronomique        ","chef":"Jean-Yves Schillinger","url":"https://restaurant.michelin.fr/298563e/jys-colmar"},{"name":"\n      La Tour des Vents    ","address":"Le Moulin de Malfourat","zipcode":"24240","city":"Monbazillac","description":"\n          Cuisine Moderne, Créative; Traditionnel, Classique; Végétarien; Végétalien        ","chef":"Damien Fagette","url":"https://restaurant.michelin.fr/28vws7k/la-tour-des-vents-monbazillac"},{"name":"\n      Fanny Rey & Jonathan Wahid    ","address":"12, boulevard Mirabeau","zipcode":"13210","city":"SAINT REMY DE PROVENCE","description":"\n          Cuisine Moderne, Créative; Gastronomique; Végétarien; Végétalien; Provençal        ","chef":"Fanny Rey & Jonathan Wahid","url":"https://restaurant.michelin.fr/389tiwsv/fanny-rey-jonathan-wahid-saint-remy-de-provence"},{"name":"\n      La Liégeoise    ","address":"digue de mer","zipcode":"62930","city":"Wimereux","description":"\n          Cuisine Moderne, Créative        ","chef":"Benjamin Delpierre","url":"https://restaurant.michelin.fr/2fa1zgi202/la-liegeoise-wimereux"},{"name":"\n      Frédéric Doucet    ","address":"2 avenue de la Libération","zipcode":"71120","city":"Charolles","description":"\n          Cuisine Moderne, Créative; Gastronomique; Cuisine Régionale Française; Végétarien        ","chef":"Frédéric Doucet","url":"https://restaurant.michelin.fr/295q5w8/frederic-doucet-charolles"},{"name":"\n      Le Restaurant    ","address":"13 rue des Beaux-Arts","zipcode":"75006","city":"Paris 06","description":"\n          Cuisine Moderne, Créative; Gastronomique        ","chef":"Julien Montbabut","url":"https://restaurant.michelin.fr/2cfem9h/le-restaurant-paris-06"},{"name":"\n      Le Pré Catelan    ","address":"Route de Suresnes","zipcode":"75016","city":"Paris","description":"\n          Cuisine Moderne, Créative        ","chef":"Chef Frédéric Anton","url":"https://restaurant.michelin.fr/2af46v7/le-pre-catelan-paris-16"},{"name":"\n      Le 39V    ","address":"39 Avenue George V","zipcode":"75008","city":"Paris 08","description":"\n          Cuisine Moderne, Créative; Traditionnel, Classique; Gastronomique        ","chef":"Frédéric Vardon","url":"https://restaurant.michelin.fr/2fd19do/le-39v-paris-08"},{"name":"\n      La Table de Franck Putelat    ","address":"80 chemin des Anglais","zipcode":"11000","city":"Carcassonne","description":"\n          Cuisine Moderne, Créative; Gastronomique; Végétarien; Végétalien        ","chef":"Mr Franck PUTELAT","url":"https://restaurant.michelin.fr/2e06z2s/la-table-de-franck-putelat-carcassonne"},{"name":"\n      Emporio Armani Caffè    ","address":"149 bd St-Germain","zipcode":"75006","city":"Paris 06","description":"\n          Italien; Gastronomique        ","chef":"Massimo Mori","url":"https://restaurant.michelin.fr/2a9obdn/emporio-armani-caffe-paris-06"},{"name":"\n      Paul Bocuse    ","address":"40 Rue de la Plage","zipcode":"69660","city":"Collonges-au-Mont-d'Or","description":"\n          Traditionnel, Classique; Gastronomique; Lyonnais; Végétarien; Végétalien        ","chef":"Paul BOCUSE","url":"https://restaurant.michelin.fr/29tbf1t/paul-bocuse-collonges-au-mont-dor"},{"name":"\n      Les Tablettes de Jean-Louis Nomicos    ","address":"16 avenue Bugeaud","zipcode":"75116","city":"Paris 16","description":"\n          Cuisine Moderne, Créative; Gastronomique; Traditionnel, Classique        ","chef":"Jean-Louis Nomicos","url":"https://restaurant.michelin.fr/2fdwgd3/les-tablettes-de-jean-louis-nomicos-paris-16"},{"name":"\n      Les Pêcheurs    ","address":"10 boulevard du Maréchal-Juin","zipcode":"06600","city":"Antibes","description":"\n          Méditerranéen; Poissons, Fruits de Mer; Gastronomique; Végétarien; Végétalien; Traditionnel, Classique        ","chef":"Nicolas RONDELLI","url":"https://restaurant.michelin.fr/29ol879/les-pecheurs-antibes"},{"name":"\n      Le Pré Catelan    ","address":"Route de Suresnes","zipcode":"75016","city":"Paris","description":"\n          Cuisine Moderne, Créative        ","chef":"Chef Frédéric Anton","url":"https://restaurant.michelin.fr/2af46v7/le-pre-catelan-paris-16"},{"name":"\n      Les Tablettes de Jean-Louis Nomicos    ","address":"16 avenue Bugeaud","zipcode":"75116","city":"Paris 16","description":"\n          Cuisine Moderne, Créative; Gastronomique; Traditionnel, Classique        ","chef":"Jean-Louis Nomicos","url":"https://restaurant.michelin.fr/2fdwgd3/les-tablettes-de-jean-louis-nomicos-paris-16"},{"name":"\n      La Liégeoise    ","address":"digue de mer","zipcode":"62930","city":"Wimereux","description":"\n          Cuisine Moderne, Créative        ","chef":"Benjamin Delpierre","url":"https://restaurant.michelin.fr/2fa1zgi202/la-liegeoise-wimereux"},{"name":"\n      Fanny Rey & Jonathan Wahid    ","address":"12, boulevard Mirabeau","zipcode":"13210","city":"SAINT REMY DE PROVENCE","description":"\n          Cuisine Moderne, Créative; Gastronomique; Végétarien; Végétalien; Provençal        ","chef":"Fanny Rey & Jonathan Wahid","url":"https://restaurant.michelin.fr/389tiwsv/fanny-rey-jonathan-wahid-saint-remy-de-provence"},{"name":"\n      Le Restaurant    ","address":"13 rue des Beaux-Arts","zipcode":"75006","city":"Paris 06","description":"\n          Cuisine Moderne, Créative; Gastronomique        ","chef":"Julien Montbabut","url":"https://restaurant.michelin.fr/2cfem9h/le-restaurant-paris-06"},{"name":"\n      La Tour des Vents    ","address":"Le Moulin de Malfourat","zipcode":"24240","city":"Monbazillac","description":"\n          Cuisine Moderne, Créative; Traditionnel, Classique; Végétarien; Végétalien        ","chef":"Damien Fagette","url":"https://restaurant.michelin.fr/28vws7k/la-tour-des-vents-monbazillac"},{"name":"\n      JY'S    ","address":"17 r. de la Poissonnerie","zipcode":"68000","city":"Colmar","description":"\n          Cuisine Moderne, Créative; Gastronomique        ","chef":"Jean-Yves Schillinger","url":"https://restaurant.michelin.fr/298563e/jys-colmar"},{"name":"\n      Le Saint-Estève    ","address":"2250 route cézanne D17","zipcode":"13100","city":"Le Tholonet","description":"\n          Cuisine Moderne, Créative; Gastronomique; Végétarien; Végétalien        ","chef":"Mathias Dandine","url":"https://restaurant.michelin.fr/2x1lce26/le-saint-esteve-le-tholonet"},{"name":"\n      La Liégeoise    ","address":"digue de mer","zipcode":"62930","city":"Wimereux","description":"\n          Cuisine Moderne, Créative        ","chef":"Benjamin Delpierre","url":"https://restaurant.michelin.fr/2fa1zgi202/la-liegeoise-wimereux"},{"name":"\n      Le Pré Catelan    ","address":"Route de Suresnes","zipcode":"75016","city":"Paris","description":"\n          Cuisine Moderne, Créative        ","chef":"Chef Frédéric Anton","url":"https://restaurant.michelin.fr/2af46v7/le-pre-catelan-paris-16"},{"name":"\n      La Table de Franck Putelat    ","address":"80 chemin des Anglais","zipcode":"11000","city":"Carcassonne","description":"\n          Cuisine Moderne, Créative; Gastronomique; Végétarien; Végétalien        ","chef":"Mr Franck PUTELAT","url":"https://restaurant.michelin.fr/2e06z2s/la-table-de-franck-putelat-carcassonne"},{"name":"\n      Le 39V    ","address":"39 Avenue George V","zipcode":"75008","city":"Paris 08","description":"\n          Cuisine Moderne, Créative; Traditionnel, Classique; Gastronomique        ","chef":"Frédéric Vardon","url":"https://restaurant.michelin.fr/2fd19do/le-39v-paris-08"},{"name":"\n      Le 39V    ","address":"39 Avenue George V","zipcode":"75008","city":"Paris 08","description":"\n          Cuisine Moderne, Créative; Traditionnel, Classique; Gastronomique        ","chef":"Frédéric Vardon","url":"https://restaurant.michelin.fr/2fd19do/le-39v-paris-08"},{"name":"\n      Emporio Armani Caffè    ","address":"149 bd St-Germain","zipcode":"75006","city":"Paris 06","description":"\n          Italien; Gastronomique        ","chef":"Massimo Mori","url":"https://restaurant.michelin.fr/2a9obdn/emporio-armani-caffe-paris-06"},{"name":"\n      Auberge de l'Île Barbe    ","address":"1 Place Notre-Dame","zipcode":"69009","city":"Lyon 09","description":"\n          Traditionnel, Classique; Cuisine Moderne, Créative; Gastronomique        ","chef":"Jean-Christophe Ansanay-Alex","url":"https://restaurant.michelin.fr/29tj1pj/auberge-de-lile-barbe-lyon-09"},{"name":"\n      Le Saint-Estève    ","address":"2250 route cézanne D17","zipcode":"13100","city":"Le Tholonet","description":"\n          Cuisine Moderne, Créative; Gastronomique; Végétarien; Végétalien        ","chef":"Mathias Dandine","url":"https://restaurant.michelin.fr/2x1lce26/le-saint-esteve-le-tholonet"},{"name":"\n      Le Jardin des Remparts    ","address":"10 rue Hôtel-Dieu","zipcode":"21200","city":"Beaune","description":"\n          Cuisine Moderne, Créative; Végétarien; Végétalien        ","chef":"Christophe Bocquillon","url":"https://restaurant.michelin.fr/28u6ql7/le-jardin-des-remparts-beaune"},{"name":"\n      La Liégeoise    ","address":"digue de mer","zipcode":"62930","city":"Wimereux","description":"\n          Cuisine Moderne, Créative        ","chef":"Benjamin Delpierre","url":"https://restaurant.michelin.fr/2fa1zgi202/la-liegeoise-wimereux"},{"name":"\n      La Liégeoise    ","address":"digue de mer","zipcode":"62930","city":"Wimereux","description":"\n          Cuisine Moderne, Créative        ","chef":"Benjamin Delpierre","url":"https://restaurant.michelin.fr/2fa1zgi202/la-liegeoise-wimereux"},{"name":"\n      Paul Bocuse    ","address":"40 Rue de la Plage","zipcode":"69660","city":"Collonges-au-Mont-d'Or","description":"\n          Traditionnel, Classique; Gastronomique; Lyonnais; Végétarien; Végétalien        ","chef":"Paul BOCUSE","url":"https://restaurant.michelin.fr/29tbf1t/paul-bocuse-collonges-au-mont-dor"},{"name":"\n      La Liégeoise    ","address":"digue de mer","zipcode":"62930","city":"Wimereux","description":"\n          Cuisine Moderne, Créative        ","chef":"Benjamin Delpierre","url":"https://restaurant.michelin.fr/2fa1zgi202/la-liegeoise-wimereux"},{"name":"\n      Auberge de l'Île Barbe    ","address":"1 Place Notre-Dame","zipcode":"69009","city":"Lyon 09","description":"\n          Traditionnel, Classique; Cuisine Moderne, Créative; Gastronomique        ","chef":"Jean-Christophe Ansanay-Alex","url":"https://restaurant.michelin.fr/29tj1pj/auberge-de-lile-barbe-lyon-09"},{"name":"\n      Les Pêcheurs    ","address":"10 boulevard du Maréchal-Juin","zipcode":"06600","city":"Antibes","description":"\n          Méditerranéen; Poissons, Fruits de Mer; Gastronomique; Végétarien; Végétalien; Traditionnel, Classique        ","chef":"Nicolas RONDELLI","url":"https://restaurant.michelin.fr/29ol879/les-pecheurs-antibes"},{"name":"\n      Auberge de l'Île Barbe    ","address":"1 Place Notre-Dame","zipcode":"69009","city":"Lyon 09","description":"\n          Traditionnel, Classique; Cuisine Moderne, Créative; Gastronomique        ","chef":"Jean-Christophe Ansanay-Alex","url":"https://restaurant.michelin.fr/29tj1pj/auberge-de-lile-barbe-lyon-09"},{"name":"\n      Le Restaurant    ","address":"13 rue des Beaux-Arts","zipcode":"75006","city":"Paris 06","description":"\n          Cuisine Moderne, Créative; Gastronomique        ","chef":"Julien Montbabut","url":"https://restaurant.michelin.fr/2cfem9h/le-restaurant-paris-06"},{"name":"\n      Frédéric Doucet    ","address":"2 avenue de la Libération","zipcode":"71120","city":"Charolles","description":"\n          Cuisine Moderne, Créative; Gastronomique; Cuisine Régionale Française; Végétarien        ","chef":"Frédéric Doucet","url":"https://restaurant.michelin.fr/295q5w8/frederic-doucet-charolles"},{"name":"\n      JY'S    ","address":"17 r. de la Poissonnerie","zipcode":"68000","city":"Colmar","description":"\n          Cuisine Moderne, Créative; Gastronomique        ","chef":"Jean-Yves Schillinger","url":"https://restaurant.michelin.fr/298563e/jys-colmar"},{"name":"\n      JY'S    ","address":"17 r. de la Poissonnerie","zipcode":"68000","city":"Colmar","description":"\n          Cuisine Moderne, Créative; Gastronomique        ","chef":"Jean-Yves Schillinger","url":"https://restaurant.michelin.fr/298563e/jys-colmar"},{"name":"\n      Fanny Rey & Jonathan Wahid    ","address":"12, boulevard Mirabeau","zipcode":"13210","city":"SAINT REMY DE PROVENCE","description":"\n          Cuisine Moderne, Créative; Gastronomique; Végétarien; Végétalien; Provençal        ","chef":"Fanny Rey & Jonathan Wahid","url":"https://restaurant.michelin.fr/389tiwsv/fanny-rey-jonathan-wahid-saint-remy-de-provence"},{"name":"\n      JY'S    ","address":"17 r. de la Poissonnerie","zipcode":"68000","city":"Colmar","description":"\n          Cuisine Moderne, Créative; Gastronomique        ","chef":"Jean-Yves Schillinger","url":"https://restaurant.michelin.fr/298563e/jys-colmar"},{"name":"\n      La Tour des Vents    ","address":"Le Moulin de Malfourat","zipcode":"24240","city":"Monbazillac","description":"\n          Cuisine Moderne, Créative; Traditionnel, Classique; Végétarien; Végétalien        ","chef":"Damien Fagette","url":"https://restaurant.michelin.fr/28vws7k/la-tour-des-vents-monbazillac"},{"name":"\n      Christophe Bacquié    ","address":"Hotel du Castellet Route des Hauts du Camp","zipcode":"83330","city":"Le Castellet","description":"\n          Cuisine Moderne, Créative; Gastronomique; Provençal        ","chef":"Christophe Bacquié","url":"https://restaurant.michelin.fr/2bmu0gi/christophe-bacquie-le-castellet"},{"name":"\n      La Tour des Vents    ","address":"Le Moulin de Malfourat","zipcode":"24240","city":"Monbazillac","description":"\n          Cuisine Moderne, Créative; Traditionnel, Classique; Végétarien; Végétalien        ","chef":"Damien Fagette","url":"https://restaurant.michelin.fr/28vws7k/la-tour-des-vents-monbazillac"},{"name":"\n      Le Jardin des Remparts    ","address":"10 rue Hôtel-Dieu","zipcode":"21200","city":"Beaune","description":"\n          Cuisine Moderne, Créative; Végétarien; Végétalien        ","chef":"Christophe Bocquillon","url":"https://restaurant.michelin.fr/28u6ql7/le-jardin-des-remparts-beaune"},{"name":"\n      Le Jardin des Remparts    ","address":"10 rue Hôtel-Dieu","zipcode":"21200","city":"Beaune","description":"\n          Cuisine Moderne, Créative; Végétarien; Végétalien        ","chef":"Christophe Bocquillon","url":"https://restaurant.michelin.fr/28u6ql7/le-jardin-des-remparts-beaune"},{"name":"\n      Fanny Rey & Jonathan Wahid    ","address":"12, boulevard Mirabeau","zipcode":"13210","city":"SAINT REMY DE PROVENCE","description":"\n          Cuisine Moderne, Créative; Gastronomique; Végétarien; Végétalien; Provençal        ","chef":"Fanny Rey & Jonathan Wahid","url":"https://restaurant.michelin.fr/389tiwsv/fanny-rey-jonathan-wahid-saint-remy-de-provence"},{"name":"\n      Auberge de l'Île Barbe    ","address":"1 Place Notre-Dame","zipcode":"69009","city":"Lyon 09","description":"\n          Traditionnel, Classique; Cuisine Moderne, Créative; Gastronomique        ","chef":"Jean-Christophe Ansanay-Alex","url":"https://restaurant.michelin.fr/29tj1pj/auberge-de-lile-barbe-lyon-09"},{"name":"\n      Agapé    ","address":"51 rue Jouffroy-d'Abbans","zipcode":"75017","city":"Paris 17","description":"\n          Cuisine Moderne, Créative; Gastronomique        ","chef":"Yoshitaka Takayanagi","url":"https://restaurant.michelin.fr/2eo1t6h/agape-paris-17"},{"name":"\n      Le Jardin des Remparts    ","address":"10 rue Hôtel-Dieu","zipcode":"21200","city":"Beaune","description":"\n          Cuisine Moderne, Créative; Végétarien; Végétalien        ","chef":"Christophe Bocquillon","url":"https://restaurant.michelin.fr/28u6ql7/le-jardin-des-remparts-beaune"},{"name":"\n      Auberge de l'Île Barbe    ","address":"1 Place Notre-Dame","zipcode":"69009","city":"Lyon 09","description":"\n          Traditionnel, Classique; Cuisine Moderne, Créative; Gastronomique        ","chef":"Jean-Christophe Ansanay-Alex","url":"https://restaurant.michelin.fr/29tj1pj/auberge-de-lile-barbe-lyon-09"},{"name":"\n      Le Saint-Estève    ","address":"2250 route cézanne D17","zipcode":"13100","city":"Le Tholonet","description":"\n          Cuisine Moderne, Créative; Gastronomique; Végétarien; Végétalien        ","chef":"Mathias Dandine","url":"https://restaurant.michelin.fr/2x1lce26/le-saint-esteve-le-tholonet"},{"name":"\n      Christophe Bacquié    ","address":"Hotel du Castellet Route des Hauts du Camp","zipcode":"83330","city":"Le Castellet","description":"\n          Cuisine Moderne, Créative; Gastronomique; Provençal        ","chef":"Christophe Bacquié","url":"https://restaurant.michelin.fr/2bmu0gi/christophe-bacquie-le-castellet"},{"name":"\n      Emporio Armani Caffè    ","address":"149 bd St-Germain","zipcode":"75006","city":"Paris 06","description":"\n          Italien; Gastronomique        ","chef":"Massimo Mori","url":"https://restaurant.michelin.fr/2a9obdn/emporio-armani-caffe-paris-06"},{"name":"\n      Fanny Rey & Jonathan Wahid    ","address":"12, boulevard Mirabeau","zipcode":"13210","city":"SAINT REMY DE PROVENCE","description":"\n          Cuisine Moderne, Créative; Gastronomique; Végétarien; Végétalien; Provençal        ","chef":"Fanny Rey & Jonathan Wahid","url":"https://restaurant.michelin.fr/389tiwsv/fanny-rey-jonathan-wahid-saint-remy-de-provence"},{"name":"\n      Le Jardin des Remparts    ","address":"10 rue Hôtel-Dieu","zipcode":"21200","city":"Beaune","description":"\n          Cuisine Moderne, Créative; Végétarien; Végétalien        ","chef":"Christophe Bocquillon","url":"https://restaurant.michelin.fr/28u6ql7/le-jardin-des-remparts-beaune"},{"name":"\n      Paul Bocuse    ","address":"40 Rue de la Plage","zipcode":"69660","city":"Collonges-au-Mont-d'Or","description":"\n          Traditionnel, Classique; Gastronomique; Lyonnais; Végétarien; Végétalien        ","chef":"Paul BOCUSE","url":"https://restaurant.michelin.fr/29tbf1t/paul-bocuse-collonges-au-mont-dor"},{"name":"\n      Christophe Bacquié    ","address":"Hotel du Castellet Route des Hauts du Camp","zipcode":"83330","city":"Le Castellet","description":"\n          Cuisine Moderne, Créative; Gastronomique; Provençal        ","chef":"Christophe Bacquié","url":"https://restaurant.michelin.fr/2bmu0gi/christophe-bacquie-le-castellet"},{"name":"\n      Les Tablettes de Jean-Louis Nomicos    ","address":"16 avenue Bugeaud","zipcode":"75116","city":"Paris 16","description":"\n          Cuisine Moderne, Créative; Gastronomique; Traditionnel, Classique        ","chef":"Jean-Louis Nomicos","url":"https://restaurant.michelin.fr/2fdwgd3/les-tablettes-de-jean-louis-nomicos-paris-16"},{"name":"\n      Christophe Bacquié    ","address":"Hotel du Castellet Route des Hauts du Camp","zipcode":"83330","city":"Le Castellet","description":"\n          Cuisine Moderne, Créative; Gastronomique; Provençal        ","chef":"Christophe Bacquié","url":"https://restaurant.michelin.fr/2bmu0gi/christophe-bacquie-le-castellet"},{"name":"\n      Christophe Bacquié    ","address":"Hotel du Castellet Route des Hauts du Camp","zipcode":"83330","city":"Le Castellet","description":"\n          Cuisine Moderne, Créative; Gastronomique; Provençal        ","chef":"Christophe Bacquié","url":"https://restaurant.michelin.fr/2bmu0gi/christophe-bacquie-le-castellet"},{"name":"\n      Les Tablettes de Jean-Louis Nomicos    ","address":"16 avenue Bugeaud","zipcode":"75116","city":"Paris 16","description":"\n          Cuisine Moderne, Créative; Gastronomique; Traditionnel, Classique        ","chef":"Jean-Louis Nomicos","url":"https://restaurant.michelin.fr/2fdwgd3/les-tablettes-de-jean-louis-nomicos-paris-16"},{"name":"\n      Le Pré Catelan    ","address":"Route de Suresnes","zipcode":"75016","city":"Paris","description":"\n          Cuisine Moderne, Créative        ","chef":"Chef Frédéric Anton","url":"https://restaurant.michelin.fr/2af46v7/le-pre-catelan-paris-16"},{"name":"\n      Le Jardin des Remparts    ","address":"10 rue Hôtel-Dieu","zipcode":"21200","city":"Beaune","description":"\n          Cuisine Moderne, Créative; Végétarien; Végétalien        ","chef":"Christophe Bocquillon","url":"https://restaurant.michelin.fr/28u6ql7/le-jardin-des-remparts-beaune"},{"name":"\n      Christophe Bacquié    ","address":"Hotel du Castellet Route des Hauts du Camp","zipcode":"83330","city":"Le Castellet","description":"\n          Cuisine Moderne, Créative; Gastronomique; Provençal        ","chef":"Christophe Bacquié","url":"https://restaurant.michelin.fr/2bmu0gi/christophe-bacquie-le-castellet"},{"name":"\n      Agapé    ","address":"51 rue Jouffroy-d'Abbans","zipcode":"75017","city":"Paris 17","description":"\n          Cuisine Moderne, Créative; Gastronomique        ","chef":"Yoshitaka Takayanagi","url":"https://restaurant.michelin.fr/2eo1t6h/agape-paris-17"},{"name":"\n      JY'S    ","address":"17 r. de la Poissonnerie","zipcode":"68000","city":"Colmar","description":"\n          Cuisine Moderne, Créative; Gastronomique        ","chef":"Jean-Yves Schillinger","url":"https://restaurant.michelin.fr/298563e/jys-colmar"},{"name":"\n      Emporio Armani Caffè    ","address":"149 bd St-Germain","zipcode":"75006","city":"Paris 06","description":"\n          Italien; Gastronomique        ","chef":"Massimo Mori","url":"https://restaurant.michelin.fr/2a9obdn/emporio-armani-caffe-paris-06"},{"name":"\n      Le Pré Catelan    ","address":"Route de Suresnes","zipcode":"75016","city":"Paris","description":"\n          Cuisine Moderne, Créative        ","chef":"Chef Frédéric Anton","url":"https://restaurant.michelin.fr/2af46v7/le-pre-catelan-paris-16"},{"name":"\n      Emporio Armani Caffè    ","address":"149 bd St-Germain","zipcode":"75006","city":"Paris 06","description":"\n          Italien; Gastronomique        ","chef":"Massimo Mori","url":"https://restaurant.michelin.fr/2a9obdn/emporio-armani-caffe-paris-06"},{"name":"\n      JY'S    ","address":"17 r. de la Poissonnerie","zipcode":"68000","city":"Colmar","description":"\n          Cuisine Moderne, Créative; Gastronomique        ","chef":"Jean-Yves Schillinger","url":"https://restaurant.michelin.fr/298563e/jys-colmar"},{"name":"\n      JY'S    ","address":"17 r. de la Poissonnerie","zipcode":"68000","city":"Colmar","description":"\n          Cuisine Moderne, Créative; Gastronomique        ","chef":"Jean-Yves Schillinger","url":"https://restaurant.michelin.fr/298563e/jys-colmar"},{"name":"\n      Fanny Rey & Jonathan Wahid    ","address":"12, boulevard Mirabeau","zipcode":"13210","city":"SAINT REMY DE PROVENCE","description":"\n          Cuisine Moderne, Créative; Gastronomique; Végétarien; Végétalien; Provençal        ","chef":"Fanny Rey & Jonathan Wahid","url":"https://restaurant.michelin.fr/389tiwsv/fanny-rey-jonathan-wahid-saint-remy-de-provence"},{"name":"\n      Paul Bocuse    ","address":"40 Rue de la Plage","zipcode":"69660","city":"Collonges-au-Mont-d'Or","description":"\n          Traditionnel, Classique; Gastronomique; Lyonnais; Végétarien; Végétalien        ","chef":"Paul BOCUSE","url":"https://restaurant.michelin.fr/29tbf1t/paul-bocuse-collonges-au-mont-dor"},{"name":"\n      Le Pré Catelan    ","address":"Route de Suresnes","zipcode":"75016","city":"Paris","description":"\n          Cuisine Moderne, Créative        ","chef":"Chef Frédéric Anton","url":"https://restaurant.michelin.fr/2af46v7/le-pre-catelan-paris-16"},{"name":"\n      Christophe Bacquié    ","address":"Hotel du Castellet Route des Hauts du Camp","zipcode":"83330","city":"Le Castellet","description":"\n          Cuisine Moderne, Créative; Gastronomique; Provençal        ","chef":"Christophe Bacquié","url":"https://restaurant.michelin.fr/2bmu0gi/christophe-bacquie-le-castellet"},{"name":"\n      Le 39V    ","address":"39 Avenue George V","zipcode":"75008","city":"Paris 08","description":"\n          Cuisine Moderne, Créative; Traditionnel, Classique; Gastronomique        ","chef":"Frédéric Vardon","url":"https://restaurant.michelin.fr/2fd19do/le-39v-paris-08"},{"name":"\n      JY'S    ","address":"17 r. de la Poissonnerie","zipcode":"68000","city":"Colmar","description":"\n          Cuisine Moderne, Créative; Gastronomique        ","chef":"Jean-Yves Schillinger","url":"https://restaurant.michelin.fr/298563e/jys-colmar"},{"name":"\n      Le 39V    ","address":"39 Avenue George V","zipcode":"75008","city":"Paris 08","description":"\n          Cuisine Moderne, Créative; Traditionnel, Classique; Gastronomique        ","chef":"Frédéric Vardon","url":"https://restaurant.michelin.fr/2fd19do/le-39v-paris-08"},{"name":"\n      La Liégeoise    ","address":"digue de mer","zipcode":"62930","city":"Wimereux","description":"\n          Cuisine Moderne, Créative        ","chef":"Benjamin Delpierre","url":"https://restaurant.michelin.fr/2fa1zgi202/la-liegeoise-wimereux"},{"name":"\n      La Liégeoise    ","address":"digue de mer","zipcode":"62930","city":"Wimereux","description":"\n          Cuisine Moderne, Créative        ","chef":"Benjamin Delpierre","url":"https://restaurant.michelin.fr/2fa1zgi202/la-liegeoise-wimereux"},{"name":"\n      Fanny Rey & Jonathan Wahid    ","address":"12, boulevard Mirabeau","zipcode":"13210","city":"SAINT REMY DE PROVENCE","description":"\n          Cuisine Moderne, Créative; Gastronomique; Végétarien; Végétalien; Provençal        ","chef":"Fanny Rey & Jonathan Wahid","url":"https://restaurant.michelin.fr/389tiwsv/fanny-rey-jonathan-wahid-saint-remy-de-provence"},{"name":"\n      Les Pêcheurs    ","address":"10 boulevard du Maréchal-Juin","zipcode":"06600","city":"Antibes","description":"\n          Méditerranéen; Poissons, Fruits de Mer; Gastronomique; Végétarien; Végétalien; Traditionnel, Classique        ","chef":"Nicolas RONDELLI","url":"https://restaurant.michelin.fr/29ol879/les-pecheurs-antibes"},{"name":"\n      Le Pré Catelan    ","address":"Route de Suresnes","zipcode":"75016","city":"Paris","description":"\n          Cuisine Moderne, Créative        ","chef":"Chef Frédéric Anton","url":"https://restaurant.michelin.fr/2af46v7/le-pre-catelan-paris-16"},{"name":"\n      Le Jardin des Remparts    ","address":"10 rue Hôtel-Dieu","zipcode":"21200","city":"Beaune","description":"\n          Cuisine Moderne, Créative; Végétarien; Végétalien        ","chef":"Christophe Bocquillon","url":"https://restaurant.michelin.fr/28u6ql7/le-jardin-des-remparts-beaune"},{"name":"\n      Les Pêcheurs    ","address":"10 boulevard du Maréchal-Juin","zipcode":"06600","city":"Antibes","description":"\n          Méditerranéen; Poissons, Fruits de Mer; Gastronomique; Végétarien; Végétalien; Traditionnel, Classique        ","chef":"Nicolas RONDELLI","url":"https://restaurant.michelin.fr/29ol879/les-pecheurs-antibes"},{"name":"\n      Le 39V    ","address":"39 Avenue George V","zipcode":"75008","city":"Paris 08","description":"\n          Cuisine Moderne, Créative; Traditionnel, Classique; Gastronomique        ","chef":"Frédéric Vardon","url":"https://restaurant.michelin.fr/2fd19do/le-39v-paris-08"},{"name":"\n      Fanny Rey & Jonathan Wahid    ","address":"12, boulevard Mirabeau","zipcode":"13210","city":"SAINT REMY DE PROVENCE","description":"\n          Cuisine Moderne, Créative; Gastronomique; Végétarien; Végétalien; Provençal        ","chef":"Fanny Rey & Jonathan Wahid","url":"https://restaurant.michelin.fr/389tiwsv/fanny-rey-jonathan-wahid-saint-remy-de-provence"},{"name":"\n      Christophe Bacquié    ","address":"Hotel du Castellet Route des Hauts du Camp","zipcode":"83330","city":"Le Castellet","description":"\n          Cuisine Moderne, Créative; Gastronomique; Provençal        ","chef":"Christophe Bacquié","url":"https://restaurant.michelin.fr/2bmu0gi/christophe-bacquie-le-castellet"},{"name":"\n      Emporio Armani Caffè    ","address":"149 bd St-Germain","zipcode":"75006","city":"Paris 06","description":"\n          Italien; Gastronomique        ","chef":"Massimo Mori","url":"https://restaurant.michelin.fr/2a9obdn/emporio-armani-caffe-paris-06"},{"name":"\n      Frédéric Doucet    ","address":"2 avenue de la Libération","zipcode":"71120","city":"Charolles","description":"\n          Cuisine Moderne, Créative; Gastronomique; Cuisine Régionale Française; Végétarien        ","chef":"Frédéric Doucet","url":"https://restaurant.michelin.fr/295q5w8/frederic-doucet-charolles"},{"name":"\n      La Liégeoise    ","address":"digue de mer","zipcode":"62930","city":"Wimereux","description":"\n          Cuisine Moderne, Créative        ","chef":"Benjamin Delpierre","url":"https://restaurant.michelin.fr/2fa1zgi202/la-liegeoise-wimereux"},{"name":"\n      La Table de Franck Putelat    ","address":"80 chemin des Anglais","zipcode":"11000","city":"Carcassonne","description":"\n          Cuisine Moderne, Créative; Gastronomique; Végétarien; Végétalien        ","chef":"Mr Franck PUTELAT","url":"https://restaurant.michelin.fr/2e06z2s/la-table-de-franck-putelat-carcassonne"},{"name":"\n      Le 39V    ","address":"39 Avenue George V","zipcode":"75008","city":"Paris 08","description":"\n          Cuisine Moderne, Créative; Traditionnel, Classique; Gastronomique        ","chef":"Frédéric Vardon","url":"https://restaurant.michelin.fr/2fd19do/le-39v-paris-08"},{"name":"\n      Agapé    ","address":"51 rue Jouffroy-d'Abbans","zipcode":"75017","city":"Paris 17","description":"\n          Cuisine Moderne, Créative; Gastronomique        ","chef":"Yoshitaka Takayanagi","url":"https://restaurant.michelin.fr/2eo1t6h/agape-paris-17"},{"name":"\n      Christophe Bacquié    ","address":"Hotel du Castellet Route des Hauts du Camp","zipcode":"83330","city":"Le Castellet","description":"\n          Cuisine Moderne, Créative; Gastronomique; Provençal        ","chef":"Christophe Bacquié","url":"https://restaurant.michelin.fr/2bmu0gi/christophe-bacquie-le-castellet"},{"name":"\n      Le Jardin des Remparts    ","address":"10 rue Hôtel-Dieu","zipcode":"21200","city":"Beaune","description":"\n          Cuisine Moderne, Créative; Végétarien; Végétalien        ","chef":"Christophe Bocquillon","url":"https://restaurant.michelin.fr/28u6ql7/le-jardin-des-remparts-beaune"},{"name":"\n      JY'S    ","address":"17 r. de la Poissonnerie","zipcode":"68000","city":"Colmar","description":"\n          Cuisine Moderne, Créative; Gastronomique        ","chef":"Jean-Yves Schillinger","url":"https://restaurant.michelin.fr/298563e/jys-colmar"},{"name":"\n      La Tour des Vents    ","address":"Le Moulin de Malfourat","zipcode":"24240","city":"Monbazillac","description":"\n          Cuisine Moderne, Créative; Traditionnel, Classique; Végétarien; Végétalien        ","chef":"Damien Fagette","url":"https://restaurant.michelin.fr/28vws7k/la-tour-des-vents-monbazillac"},{"name":"\n      Les Tablettes de Jean-Louis Nomicos    ","address":"16 avenue Bugeaud","zipcode":"75116","city":"Paris 16","description":"\n          Cuisine Moderne, Créative; Gastronomique; Traditionnel, Classique        ","chef":"Jean-Louis Nomicos","url":"https://restaurant.michelin.fr/2fdwgd3/les-tablettes-de-jean-louis-nomicos-paris-16"},{"name":"\n      Le Saint-Estève    ","address":"2250 route cézanne D17","zipcode":"13100","city":"Le Tholonet","description":"\n          Cuisine Moderne, Créative; Gastronomique; Végétarien; Végétalien        ","chef":"Mathias Dandine","url":"https://restaurant.michelin.fr/2x1lce26/le-saint-esteve-le-tholonet"},{"name":"\n      Fanny Rey & Jonathan Wahid    ","address":"12, boulevard Mirabeau","zipcode":"13210","city":"SAINT REMY DE PROVENCE","description":"\n          Cuisine Moderne, Créative; Gastronomique; Végétarien; Végétalien; Provençal        ","chef":"Fanny Rey & Jonathan Wahid","url":"https://restaurant.michelin.fr/389tiwsv/fanny-rey-jonathan-wahid-saint-remy-de-provence"},{"name":"\n      La Table de Franck Putelat    ","address":"80 chemin des Anglais","zipcode":"11000","city":"Carcassonne","description":"\n          Cuisine Moderne, Créative; Gastronomique; Végétarien; Végétalien        ","chef":"Mr Franck PUTELAT","url":"https://restaurant.michelin.fr/2e06z2s/la-table-de-franck-putelat-carcassonne"},{"name":"\n      Fanny Rey & Jonathan Wahid    ","address":"12, boulevard Mirabeau","zipcode":"13210","city":"SAINT REMY DE PROVENCE","description":"\n          Cuisine Moderne, Créative; Gastronomique; Végétarien; Végétalien; Provençal        ","chef":"Fanny Rey & Jonathan Wahid","url":"https://restaurant.michelin.fr/389tiwsv/fanny-rey-jonathan-wahid-saint-remy-de-provence"},{"name":"\n      La Table de Franck Putelat    ","address":"80 chemin des Anglais","zipcode":"11000","city":"Carcassonne","description":"\n          Cuisine Moderne, Créative; Gastronomique; Végétarien; Végétalien        ","chef":"Mr Franck PUTELAT","url":"https://restaurant.michelin.fr/2e06z2s/la-table-de-franck-putelat-carcassonne"},{"name":"\n      Le Jardin des Remparts    ","address":"10 rue Hôtel-Dieu","zipcode":"21200","city":"Beaune","description":"\n          Cuisine Moderne, Créative; Végétarien; Végétalien        ","chef":"Christophe Bocquillon","url":"https://restaurant.michelin.fr/28u6ql7/le-jardin-des-remparts-beaune"},{"name":"\n      Le Restaurant    ","address":"13 rue des Beaux-Arts","zipcode":"75006","city":"Paris 06","description":"\n          Cuisine Moderne, Créative; Gastronomique        ","chef":"Julien Montbabut","url":"https://restaurant.michelin.fr/2cfem9h/le-restaurant-paris-06"},{"name":"\n      Le Restaurant    ","address":"13 rue des Beaux-Arts","zipcode":"75006","city":"Paris 06","description":"\n          Cuisine Moderne, Créative; Gastronomique        ","chef":"Julien Montbabut","url":"https://restaurant.michelin.fr/2cfem9h/le-restaurant-paris-06"},{"name":"\n      La Liégeoise    ","address":"digue de mer","zipcode":"62930","city":"Wimereux","description":"\n          Cuisine Moderne, Créative        ","chef":"Benjamin Delpierre","url":"https://restaurant.michelin.fr/2fa1zgi202/la-liegeoise-wimereux"},{"name":"\n      Le Pré Catelan    ","address":"Route de Suresnes","zipcode":"75016","city":"Paris","description":"\n          Cuisine Moderne, Créative        ","chef":"Chef Frédéric Anton","url":"https://restaurant.michelin.fr/2af46v7/le-pre-catelan-paris-16"},{"name":"\n      La Table de Franck Putelat    ","address":"80 chemin des Anglais","zipcode":"11000","city":"Carcassonne","description":"\n          Cuisine Moderne, Créative; Gastronomique; Végétarien; Végétalien        ","chef":"Mr Franck PUTELAT","url":"https://restaurant.michelin.fr/2e06z2s/la-table-de-franck-putelat-carcassonne"},{"name":"\n      Les Pêcheurs    ","address":"10 boulevard du Maréchal-Juin","zipcode":"06600","city":"Antibes","description":"\n          Méditerranéen; Poissons, Fruits de Mer; Gastronomique; Végétarien; Végétalien; Traditionnel, Classique        ","chef":"Nicolas RONDELLI","url":"https://restaurant.michelin.fr/29ol879/les-pecheurs-antibes"},{"name":"\n      La Table de Franck Putelat    ","address":"80 chemin des Anglais","zipcode":"11000","city":"Carcassonne","description":"\n          Cuisine Moderne, Créative; Gastronomique; Végétarien; Végétalien        ","chef":"Mr Franck PUTELAT","url":"https://restaurant.michelin.fr/2e06z2s/la-table-de-franck-putelat-carcassonne"},{"name":"\n      Paul Bocuse    ","address":"40 Rue de la Plage","zipcode":"69660","city":"Collonges-au-Mont-d'Or","description":"\n          Traditionnel, Classique; Gastronomique; Lyonnais; Végétarien; Végétalien        ","chef":"Paul BOCUSE","url":"https://restaurant.michelin.fr/29tbf1t/paul-bocuse-collonges-au-mont-dor"},{"name":"\n      Agapé    ","address":"51 rue Jouffroy-d'Abbans","zipcode":"75017","city":"Paris 17","description":"\n          Cuisine Moderne, Créative; Gastronomique        ","chef":"Yoshitaka Takayanagi","url":"https://restaurant.michelin.fr/2eo1t6h/agape-paris-17"},{"name":"\n      Le Jardin des Remparts    ","address":"10 rue Hôtel-Dieu","zipcode":"21200","city":"Beaune","description":"\n          Cuisine Moderne, Créative; Végétarien; Végétalien        ","chef":"Christophe Bocquillon","url":"https://restaurant.michelin.fr/28u6ql7/le-jardin-des-remparts-beaune"},{"name":"\n      La Tour des Vents    ","address":"Le Moulin de Malfourat","zipcode":"24240","city":"Monbazillac","description":"\n          Cuisine Moderne, Créative; Traditionnel, Classique; Végétarien; Végétalien        ","chef":"Damien Fagette","url":"https://restaurant.michelin.fr/28vws7k/la-tour-des-vents-monbazillac"},{"name":"\n      Le Restaurant    ","address":"13 rue des Beaux-Arts","zipcode":"75006","city":"Paris 06","description":"\n          Cuisine Moderne, Créative; Gastronomique        ","chef":"Julien Montbabut","url":"https://restaurant.michelin.fr/2cfem9h/le-restaurant-paris-06"},{"name":"\n      Emporio Armani Caffè    ","address":"149 bd St-Germain","zipcode":"75006","city":"Paris 06","description":"\n          Italien; Gastronomique        ","chef":"Massimo Mori","url":"https://restaurant.michelin.fr/2a9obdn/emporio-armani-caffe-paris-06"},{"name":"\n      Emporio Armani Caffè    ","address":"149 bd St-Germain","zipcode":"75006","city":"Paris 06","description":"\n          Italien; Gastronomique        ","chef":"Massimo Mori","url":"https://restaurant.michelin.fr/2a9obdn/emporio-armani-caffe-paris-06"},{"name":"\n      Le Jardin des Remparts    ","address":"10 rue Hôtel-Dieu","zipcode":"21200","city":"Beaune","description":"\n          Cuisine Moderne, Créative; Végétarien; Végétalien        ","chef":"Christophe Bocquillon","url":"https://restaurant.michelin.fr/28u6ql7/le-jardin-des-remparts-beaune"},{"name":"\n      Le 39V    ","address":"39 Avenue George V","zipcode":"75008","city":"Paris 08","description":"\n          Cuisine Moderne, Créative; Traditionnel, Classique; Gastronomique        ","chef":"Frédéric Vardon","url":"https://restaurant.michelin.fr/2fd19do/le-39v-paris-08"},{"name":"\n      Les Tablettes de Jean-Louis Nomicos    ","address":"16 avenue Bugeaud","zipcode":"75116","city":"Paris 16","description":"\n          Cuisine Moderne, Créative; Gastronomique; Traditionnel, Classique        ","chef":"Jean-Louis Nomicos","url":"https://restaurant.michelin.fr/2fdwgd3/les-tablettes-de-jean-louis-nomicos-paris-16"},{"name":"\n      Frédéric Doucet    ","address":"2 avenue de la Libération","zipcode":"71120","city":"Charolles","description":"\n          Cuisine Moderne, Créative; Gastronomique; Cuisine Régionale Française; Végétarien        ","chef":"Frédéric Doucet","url":"https://restaurant.michelin.fr/295q5w8/frederic-doucet-charolles"},{"name":"\n      Les Pêcheurs    ","address":"10 boulevard du Maréchal-Juin","zipcode":"06600","city":"Antibes","description":"\n          Méditerranéen; Poissons, Fruits de Mer; Gastronomique; Végétarien; Végétalien; Traditionnel, Classique        ","chef":"Nicolas RONDELLI","url":"https://restaurant.michelin.fr/29ol879/les-pecheurs-antibes"},{"name":"\n      Les Pêcheurs    ","address":"10 boulevard du Maréchal-Juin","zipcode":"06600","city":"Antibes","description":"\n          Méditerranéen; Poissons, Fruits de Mer; Gastronomique; Végétarien; Végétalien; Traditionnel, Classique        ","chef":"Nicolas RONDELLI","url":"https://restaurant.michelin.fr/29ol879/les-pecheurs-antibes"},{"name":"\n      Les Pêcheurs    ","address":"10 boulevard du Maréchal-Juin","zipcode":"06600","city":"Antibes","description":"\n          Méditerranéen; Poissons, Fruits de Mer; Gastronomique; Végétarien; Végétalien; Traditionnel, Classique        ","chef":"Nicolas RONDELLI","url":"https://restaurant.michelin.fr/29ol879/les-pecheurs-antibes"},{"name":"\n      JY'S    ","address":"17 r. de la Poissonnerie","zipcode":"68000","city":"Colmar","description":"\n          Cuisine Moderne, Créative; Gastronomique        ","chef":"Jean-Yves Schillinger","url":"https://restaurant.michelin.fr/298563e/jys-colmar"},{"name":"\n      Fanny Rey & Jonathan Wahid    ","address":"12, boulevard Mirabeau","zipcode":"13210","city":"SAINT REMY DE PROVENCE","description":"\n          Cuisine Moderne, Créative; Gastronomique; Végétarien; Végétalien; Provençal        ","chef":"Fanny Rey & Jonathan Wahid","url":"https://restaurant.michelin.fr/389tiwsv/fanny-rey-jonathan-wahid-saint-remy-de-provence"},{"name":"\n      Agapé    ","address":"51 rue Jouffroy-d'Abbans","zipcode":"75017","city":"Paris 17","description":"\n          Cuisine Moderne, Créative; Gastronomique        ","chef":"Yoshitaka Takayanagi","url":"https://restaurant.michelin.fr/2eo1t6h/agape-paris-17"},{"name":"\n      JY'S    ","address":"17 r. de la Poissonnerie","zipcode":"68000","city":"Colmar","description":"\n          Cuisine Moderne, Créative; Gastronomique        ","chef":"Jean-Yves Schillinger","url":"https://restaurant.michelin.fr/298563e/jys-colmar"},{"name":"\n      Auberge de l'Île Barbe    ","address":"1 Place Notre-Dame","zipcode":"69009","city":"Lyon 09","description":"\n          Traditionnel, Classique; Cuisine Moderne, Créative; Gastronomique        ","chef":"Jean-Christophe Ansanay-Alex","url":"https://restaurant.michelin.fr/29tj1pj/auberge-de-lile-barbe-lyon-09"},{"name":"\n      Les Tablettes de Jean-Louis Nomicos    ","address":"16 avenue Bugeaud","zipcode":"75116","city":"Paris 16","description":"\n          Cuisine Moderne, Créative; Gastronomique; Traditionnel, Classique        ","chef":"Jean-Louis Nomicos","url":"https://restaurant.michelin.fr/2fdwgd3/les-tablettes-de-jean-louis-nomicos-paris-16"},{"name":"\n      Agapé    ","address":"51 rue Jouffroy-d'Abbans","zipcode":"75017","city":"Paris 17","description":"\n          Cuisine Moderne, Créative; Gastronomique        ","chef":"Yoshitaka Takayanagi","url":"https://restaurant.michelin.fr/2eo1t6h/agape-paris-17"},{"name":"\n      La Table de Franck Putelat    ","address":"80 chemin des Anglais","zipcode":"11000","city":"Carcassonne","description":"\n          Cuisine Moderne, Créative; Gastronomique; Végétarien; Végétalien        ","chef":"Mr Franck PUTELAT","url":"https://restaurant.michelin.fr/2e06z2s/la-table-de-franck-putelat-carcassonne"},{"name":"\n      Le Restaurant    ","address":"13 rue des Beaux-Arts","zipcode":"75006","city":"Paris 06","description":"\n          Cuisine Moderne, Créative; Gastronomique        ","chef":"Julien Montbabut","url":"https://restaurant.michelin.fr/2cfem9h/le-restaurant-paris-06"},{"name":"\n      Les Pêcheurs    ","address":"10 boulevard du Maréchal-Juin","zipcode":"06600","city":"Antibes","description":"\n          Méditerranéen; Poissons, Fruits de Mer; Gastronomique; Végétarien; Végétalien; Traditionnel, Classique        ","chef":"Nicolas RONDELLI","url":"https://restaurant.michelin.fr/29ol879/les-pecheurs-antibes"},{"name":"\n      Le Saint-Estève    ","address":"2250 route cézanne D17","zipcode":"13100","city":"Le Tholonet","description":"\n          Cuisine Moderne, Créative; Gastronomique; Végétarien; Végétalien        ","chef":"Mathias Dandine","url":"https://restaurant.michelin.fr/2x1lce26/le-saint-esteve-le-tholonet"},{"name":"\n      La Table de Franck Putelat    ","address":"80 chemin des Anglais","zipcode":"11000","city":"Carcassonne","description":"\n          Cuisine Moderne, Créative; Gastronomique; Végétarien; Végétalien        ","chef":"Mr Franck PUTELAT","url":"https://restaurant.michelin.fr/2e06z2s/la-table-de-franck-putelat-carcassonne"},{"name":"\n      Emporio Armani Caffè    ","address":"149 bd St-Germain","zipcode":"75006","city":"Paris 06","description":"\n          Italien; Gastronomique        ","chef":"Massimo Mori","url":"https://restaurant.michelin.fr/2a9obdn/emporio-armani-caffe-paris-06"},{"name":"\n      Frédéric Doucet    ","address":"2 avenue de la Libération","zipcode":"71120","city":"Charolles","description":"\n          Cuisine Moderne, Créative; Gastronomique; Cuisine Régionale Française; Végétarien        ","chef":"Frédéric Doucet","url":"https://restaurant.michelin.fr/295q5w8/frederic-doucet-charolles"},{"name":"\n      La Liégeoise    ","address":"digue de mer","zipcode":"62930","city":"Wimereux","description":"\n          Cuisine Moderne, Créative        ","chef":"Benjamin Delpierre","url":"https://restaurant.michelin.fr/2fa1zgi202/la-liegeoise-wimereux"},{"name":"\n      Le Pré Catelan    ","address":"Route de Suresnes","zipcode":"75016","city":"Paris","description":"\n          Cuisine Moderne, Créative        ","chef":"Chef Frédéric Anton","url":"https://restaurant.michelin.fr/2af46v7/le-pre-catelan-paris-16"},{"name":"\n      Le Restaurant    ","address":"13 rue des Beaux-Arts","zipcode":"75006","city":"Paris 06","description":"\n          Cuisine Moderne, Créative; Gastronomique        ","chef":"Julien Montbabut","url":"https://restaurant.michelin.fr/2cfem9h/le-restaurant-paris-06"},{"name":"\n      Le 39V    ","address":"39 Avenue George V","zipcode":"75008","city":"Paris 08","description":"\n          Cuisine Moderne, Créative; Traditionnel, Classique; Gastronomique        ","chef":"Frédéric Vardon","url":"https://restaurant.michelin.fr/2fd19do/le-39v-paris-08"},{"name":"\n      Le Jardin des Remparts    ","address":"10 rue Hôtel-Dieu","zipcode":"21200","city":"Beaune","description":"\n          Cuisine Moderne, Créative; Végétarien; Végétalien        ","chef":"Christophe Bocquillon","url":"https://restaurant.michelin.fr/28u6ql7/le-jardin-des-remparts-beaune"},{"name":"\n      Le Pré Catelan    ","address":"Route de Suresnes","zipcode":"75016","city":"Paris","description":"\n          Cuisine Moderne, Créative        ","chef":"Chef Frédéric Anton","url":"https://restaurant.michelin.fr/2af46v7/le-pre-catelan-paris-16"},{"name":"\n      Paul Bocuse    ","address":"40 Rue de la Plage","zipcode":"69660","city":"Collonges-au-Mont-d'Or","description":"\n          Traditionnel, Classique; Gastronomique; Lyonnais; Végétarien; Végétalien        ","chef":"Paul BOCUSE","url":"https://restaurant.michelin.fr/29tbf1t/paul-bocuse-collonges-au-mont-dor"},{"name":"\n      Christophe Bacquié    ","address":"Hotel du Castellet Route des Hauts du Camp","zipcode":"83330","city":"Le Castellet","description":"\n          Cuisine Moderne, Créative; Gastronomique; Provençal        ","chef":"Christophe Bacquié","url":"https://restaurant.michelin.fr/2bmu0gi/christophe-bacquie-le-castellet"},{"name":"\n      La Tour des Vents    ","address":"Le Moulin de Malfourat","zipcode":"24240","city":"Monbazillac","description":"\n          Cuisine Moderne, Créative; Traditionnel, Classique; Végétarien; Végétalien        ","chef":"Damien Fagette","url":"https://restaurant.michelin.fr/28vws7k/la-tour-des-vents-monbazillac"},{"name":"\n      La Table de Franck Putelat    ","address":"80 chemin des Anglais","zipcode":"11000","city":"Carcassonne","description":"\n          Cuisine Moderne, Créative; Gastronomique; Végétarien; Végétalien        ","chef":"Mr Franck PUTELAT","url":"https://restaurant.michelin.fr/2e06z2s/la-table-de-franck-putelat-carcassonne"},{"name":"\n      La Liégeoise    ","address":"digue de mer","zipcode":"62930","city":"Wimereux","description":"\n          Cuisine Moderne, Créative        ","chef":"Benjamin Delpierre","url":"https://restaurant.michelin.fr/2fa1zgi202/la-liegeoise-wimereux"},{"name":"\n      JY'S    ","address":"17 r. de la Poissonnerie","zipcode":"68000","city":"Colmar","description":"\n          Cuisine Moderne, Créative; Gastronomique        ","chef":"Jean-Yves Schillinger","url":"https://restaurant.michelin.fr/298563e/jys-colmar"},{"name":"\n      JY'S    ","address":"17 r. de la Poissonnerie","zipcode":"68000","city":"Colmar","description":"\n          Cuisine Moderne, Créative; Gastronomique        ","chef":"Jean-Yves Schillinger","url":"https://restaurant.michelin.fr/298563e/jys-colmar"},{"name":"\n      Les Tablettes de Jean-Louis Nomicos    ","address":"16 avenue Bugeaud","zipcode":"75116","city":"Paris 16","description":"\n          Cuisine Moderne, Créative; Gastronomique; Traditionnel, Classique        ","chef":"Jean-Louis Nomicos","url":"https://restaurant.michelin.fr/2fdwgd3/les-tablettes-de-jean-louis-nomicos-paris-16"},{"name":"\n      Le 39V    ","address":"39 Avenue George V","zipcode":"75008","city":"Paris 08","description":"\n          Cuisine Moderne, Créative; Traditionnel, Classique; Gastronomique        ","chef":"Frédéric Vardon","url":"https://restaurant.michelin.fr/2fd19do/le-39v-paris-08"},{"name":"\n      Christophe Bacquié    ","address":"Hotel du Castellet Route des Hauts du Camp","zipcode":"83330","city":"Le Castellet","description":"\n          Cuisine Moderne, Créative; Gastronomique; Provençal        ","chef":"Christophe Bacquié","url":"https://restaurant.michelin.fr/2bmu0gi/christophe-bacquie-le-castellet"},{"name":"\n      Paul Bocuse    ","address":"40 Rue de la Plage","zipcode":"69660","city":"Collonges-au-Mont-d'Or","description":"\n          Traditionnel, Classique; Gastronomique; Lyonnais; Végétarien; Végétalien        ","chef":"Paul BOCUSE","url":"https://restaurant.michelin.fr/29tbf1t/paul-bocuse-collonges-au-mont-dor"},{"name":"\n      Christophe Bacquié    ","address":"Hotel du Castellet Route des Hauts du Camp","zipcode":"83330","city":"Le Castellet","description":"\n          Cuisine Moderne, Créative; Gastronomique; Provençal        ","chef":"Christophe Bacquié","url":"https://restaurant.michelin.fr/2bmu0gi/christophe-bacquie-le-castellet"},{"name":"\n      Les Tablettes de Jean-Louis Nomicos    ","address":"16 avenue Bugeaud","zipcode":"75116","city":"Paris 16","description":"\n          Cuisine Moderne, Créative; Gastronomique; Traditionnel, Classique        ","chef":"Jean-Louis Nomicos","url":"https://restaurant.michelin.fr/2fdwgd3/les-tablettes-de-jean-louis-nomicos-paris-16"},{"name":"\n      Emporio Armani Caffè    ","address":"149 bd St-Germain","zipcode":"75006","city":"Paris 06","description":"\n          Italien; Gastronomique        ","chef":"Massimo Mori","url":"https://restaurant.michelin.fr/2a9obdn/emporio-armani-caffe-paris-06"},{"name":"\n      Paul Bocuse    ","address":"40 Rue de la Plage","zipcode":"69660","city":"Collonges-au-Mont-d'Or","description":"\n          Traditionnel, Classique; Gastronomique; Lyonnais; Végétarien; Végétalien        ","chef":"Paul BOCUSE","url":"https://restaurant.michelin.fr/29tbf1t/paul-bocuse-collonges-au-mont-dor"},{"name":"\n      Auberge de l'Île Barbe    ","address":"1 Place Notre-Dame","zipcode":"69009","city":"Lyon 09","description":"\n          Traditionnel, Classique; Cuisine Moderne, Créative; Gastronomique        ","chef":"Jean-Christophe Ansanay-Alex","url":"https://restaurant.michelin.fr/29tj1pj/auberge-de-lile-barbe-lyon-09"},{"name":"\n      La Table de Franck Putelat    ","address":"80 chemin des Anglais","zipcode":"11000","city":"Carcassonne","description":"\n          Cuisine Moderne, Créative; Gastronomique; Végétarien; Végétalien        ","chef":"Mr Franck PUTELAT","url":"https://restaurant.michelin.fr/2e06z2s/la-table-de-franck-putelat-carcassonne"},{"name":"\n      Frédéric Doucet    ","address":"2 avenue de la Libération","zipcode":"71120","city":"Charolles","description":"\n          Cuisine Moderne, Créative; Gastronomique; Cuisine Régionale Française; Végétarien        ","chef":"Frédéric Doucet","url":"https://restaurant.michelin.fr/295q5w8/frederic-doucet-charolles"},{"name":"\n      Le Restaurant    ","address":"13 rue des Beaux-Arts","zipcode":"75006","city":"Paris 06","description":"\n          Cuisine Moderne, Créative; Gastronomique        ","chef":"Julien Montbabut","url":"https://restaurant.michelin.fr/2cfem9h/le-restaurant-paris-06"},{"name":"\n      Auberge de l'Île Barbe    ","address":"1 Place Notre-Dame","zipcode":"69009","city":"Lyon 09","description":"\n          Traditionnel, Classique; Cuisine Moderne, Créative; Gastronomique        ","chef":"Jean-Christophe Ansanay-Alex","url":"https://restaurant.michelin.fr/29tj1pj/auberge-de-lile-barbe-lyon-09"},{"name":"\n      Paul Bocuse    ","address":"40 Rue de la Plage","zipcode":"69660","city":"Collonges-au-Mont-d'Or","description":"\n          Traditionnel, Classique; Gastronomique; Lyonnais; Végétarien; Végétalien        ","chef":"Paul BOCUSE","url":"https://restaurant.michelin.fr/29tbf1t/paul-bocuse-collonges-au-mont-dor"},{"name":"\n      Le Restaurant    ","address":"13 rue des Beaux-Arts","zipcode":"75006","city":"Paris 06","description":"\n          Cuisine Moderne, Créative; Gastronomique        ","chef":"Julien Montbabut","url":"https://restaurant.michelin.fr/2cfem9h/le-restaurant-paris-06"},{"name":"\n      Auberge de l'Île Barbe    ","address":"1 Place Notre-Dame","zipcode":"69009","city":"Lyon 09","description":"\n          Traditionnel, Classique; Cuisine Moderne, Créative; Gastronomique        ","chef":"Jean-Christophe Ansanay-Alex","url":"https://restaurant.michelin.fr/29tj1pj/auberge-de-lile-barbe-lyon-09"},{"name":"\n      La Liégeoise    ","address":"digue de mer","zipcode":"62930","city":"Wimereux","description":"\n          Cuisine Moderne, Créative        ","chef":"Benjamin Delpierre","url":"https://restaurant.michelin.fr/2fa1zgi202/la-liegeoise-wimereux"},{"name":"\n      Le 39V    ","address":"39 Avenue George V","zipcode":"75008","city":"Paris 08","description":"\n          Cuisine Moderne, Créative; Traditionnel, Classique; Gastronomique        ","chef":"Frédéric Vardon","url":"https://restaurant.michelin.fr/2fd19do/le-39v-paris-08"},{"name":"\n      Agapé    ","address":"51 rue Jouffroy-d'Abbans","zipcode":"75017","city":"Paris 17","description":"\n          Cuisine Moderne, Créative; Gastronomique        ","chef":"Yoshitaka Takayanagi","url":"https://restaurant.michelin.fr/2eo1t6h/agape-paris-17"},{"name":"\n      La Table de Franck Putelat    ","address":"80 chemin des Anglais","zipcode":"11000","city":"Carcassonne","description":"\n          Cuisine Moderne, Créative; Gastronomique; Végétarien; Végétalien        ","chef":"Mr Franck PUTELAT","url":"https://restaurant.michelin.fr/2e06z2s/la-table-de-franck-putelat-carcassonne"},{"name":"\n      Emporio Armani Caffè    ","address":"149 bd St-Germain","zipcode":"75006","city":"Paris 06","description":"\n          Italien; Gastronomique        ","chef":"Massimo Mori","url":"https://restaurant.michelin.fr/2a9obdn/emporio-armani-caffe-paris-06"},{"name":"\n      Paul Bocuse    ","address":"40 Rue de la Plage","zipcode":"69660","city":"Collonges-au-Mont-d'Or","description":"\n          Traditionnel, Classique; Gastronomique; Lyonnais; Végétarien; Végétalien        ","chef":"Paul BOCUSE","url":"https://restaurant.michelin.fr/29tbf1t/paul-bocuse-collonges-au-mont-dor"},{"name":"\n      La Tour des Vents    ","address":"Le Moulin de Malfourat","zipcode":"24240","city":"Monbazillac","description":"\n          Cuisine Moderne, Créative; Traditionnel, Classique; Végétarien; Végétalien        ","chef":"Damien Fagette","url":"https://restaurant.michelin.fr/28vws7k/la-tour-des-vents-monbazillac"},{"name":"\n      La Table de Franck Putelat    ","address":"80 chemin des Anglais","zipcode":"11000","city":"Carcassonne","description":"\n          Cuisine Moderne, Créative; Gastronomique; Végétarien; Végétalien        ","chef":"Mr Franck PUTELAT","url":"https://restaurant.michelin.fr/2e06z2s/la-table-de-franck-putelat-carcassonne"},{"name":"\n      Paul Bocuse    ","address":"40 Rue de la Plage","zipcode":"69660","city":"Collonges-au-Mont-d'Or","description":"\n          Traditionnel, Classique; Gastronomique; Lyonnais; Végétarien; Végétalien        ","chef":"Paul BOCUSE","url":"https://restaurant.michelin.fr/29tbf1t/paul-bocuse-collonges-au-mont-dor"},{"name":"\n      La Table de Franck Putelat    ","address":"80 chemin des Anglais","zipcode":"11000","city":"Carcassonne","description":"\n          Cuisine Moderne, Créative; Gastronomique; Végétarien; Végétalien        ","chef":"Mr Franck PUTELAT","url":"https://restaurant.michelin.fr/2e06z2s/la-table-de-franck-putelat-carcassonne"},{"name":"\n      Frédéric Doucet    ","address":"2 avenue de la Libération","zipcode":"71120","city":"Charolles","description":"\n          Cuisine Moderne, Créative; Gastronomique; Cuisine Régionale Française; Végétarien        ","chef":"Frédéric Doucet","url":"https://restaurant.michelin.fr/295q5w8/frederic-doucet-charolles"},{"name":"\n      Les Pêcheurs    ","address":"10 boulevard du Maréchal-Juin","zipcode":"06600","city":"Antibes","description":"\n          Méditerranéen; Poissons, Fruits de Mer; Gastronomique; Végétarien; Végétalien; Traditionnel, Classique        ","chef":"Nicolas RONDELLI","url":"https://restaurant.michelin.fr/29ol879/les-pecheurs-antibes"},{"name":"\n      La Table de Franck Putelat    ","address":"80 chemin des Anglais","zipcode":"11000","city":"Carcassonne","description":"\n          Cuisine Moderne, Créative; Gastronomique; Végétarien; Végétalien        ","chef":"Mr Franck PUTELAT","url":"https://restaurant.michelin.fr/2e06z2s/la-table-de-franck-putelat-carcassonne"},{"name":"\n      La Tour des Vents    ","address":"Le Moulin de Malfourat","zipcode":"24240","city":"Monbazillac","description":"\n          Cuisine Moderne, Créative; Traditionnel, Classique; Végétarien; Végétalien        ","chef":"Damien Fagette","url":"https://restaurant.michelin.fr/28vws7k/la-tour-des-vents-monbazillac"},{"name":"\n      Paul Bocuse    ","address":"40 Rue de la Plage","zipcode":"69660","city":"Collonges-au-Mont-d'Or","description":"\n          Traditionnel, Classique; Gastronomique; Lyonnais; Végétarien; Végétalien        ","chef":"Paul BOCUSE","url":"https://restaurant.michelin.fr/29tbf1t/paul-bocuse-collonges-au-mont-dor"},{"name":"\n      Les Pêcheurs    ","address":"10 boulevard du Maréchal-Juin","zipcode":"06600","city":"Antibes","description":"\n          Méditerranéen; Poissons, Fruits de Mer; Gastronomique; Végétarien; Végétalien; Traditionnel, Classique        ","chef":"Nicolas RONDELLI","url":"https://restaurant.michelin.fr/29ol879/les-pecheurs-antibes"},{"name":"\n      Le Jardin des Remparts    ","address":"10 rue Hôtel-Dieu","zipcode":"21200","city":"Beaune","description":"\n          Cuisine Moderne, Créative; Végétarien; Végétalien        ","chef":"Christophe Bocquillon","url":"https://restaurant.michelin.fr/28u6ql7/le-jardin-des-remparts-beaune"},{"name":"\n      Auberge de l'Île Barbe    ","address":"1 Place Notre-Dame","zipcode":"69009","city":"Lyon 09","description":"\n          Traditionnel, Classique; Cuisine Moderne, Créative; Gastronomique        ","chef":"Jean-Christophe Ansanay-Alex","url":"https://restaurant.michelin.fr/29tj1pj/auberge-de-lile-barbe-lyon-09"},{"name":"\n      Le Pré Catelan    ","address":"Route de Suresnes","zipcode":"75016","city":"Paris","description":"\n          Cuisine Moderne, Créative        ","chef":"Chef Frédéric Anton","url":"https://restaurant.michelin.fr/2af46v7/le-pre-catelan-paris-16"},{"name":"\n      Christophe Bacquié    ","address":"Hotel du Castellet Route des Hauts du Camp","zipcode":"83330","city":"Le Castellet","description":"\n          Cuisine Moderne, Créative; Gastronomique; Provençal        ","chef":"Christophe Bacquié","url":"https://restaurant.michelin.fr/2bmu0gi/christophe-bacquie-le-castellet"},{"name":"\n      Frédéric Doucet    ","address":"2 avenue de la Libération","zipcode":"71120","city":"Charolles","description":"\n          Cuisine Moderne, Créative; Gastronomique; Cuisine Régionale Française; Végétarien        ","chef":"Frédéric Doucet","url":"https://restaurant.michelin.fr/295q5w8/frederic-doucet-charolles"},{"name":"\n      Auberge de l'Île Barbe    ","address":"1 Place Notre-Dame","zipcode":"69009","city":"Lyon 09","description":"\n          Traditionnel, Classique; Cuisine Moderne, Créative; Gastronomique        ","chef":"Jean-Christophe Ansanay-Alex","url":"https://restaurant.michelin.fr/29tj1pj/auberge-de-lile-barbe-lyon-09"},{"name":"\n      Agapé    ","address":"51 rue Jouffroy-d'Abbans","zipcode":"75017","city":"Paris 17","description":"\n          Cuisine Moderne, Créative; Gastronomique        ","chef":"Yoshitaka Takayanagi","url":"https://restaurant.michelin.fr/2eo1t6h/agape-paris-17"},{"name":"\n      Agapé    ","address":"51 rue Jouffroy-d'Abbans","zipcode":"75017","city":"Paris 17","description":"\n          Cuisine Moderne, Créative; Gastronomique        ","chef":"Yoshitaka Takayanagi","url":"https://restaurant.michelin.fr/2eo1t6h/agape-paris-17"},{"name":"\n      Auberge de l'Île Barbe    ","address":"1 Place Notre-Dame","zipcode":"69009","city":"Lyon 09","description":"\n          Traditionnel, Classique; Cuisine Moderne, Créative; Gastronomique        ","chef":"Jean-Christophe Ansanay-Alex","url":"https://restaurant.michelin.fr/29tj1pj/auberge-de-lile-barbe-lyon-09"},{"name":"\n      Le Jardin des Remparts    ","address":"10 rue Hôtel-Dieu","zipcode":"21200","city":"Beaune","description":"\n          Cuisine Moderne, Créative; Végétarien; Végétalien        ","chef":"Christophe Bocquillon","url":"https://restaurant.michelin.fr/28u6ql7/le-jardin-des-remparts-beaune"},{"name":"\n      La Tour des Vents    ","address":"Le Moulin de Malfourat","zipcode":"24240","city":"Monbazillac","description":"\n          Cuisine Moderne, Créative; Traditionnel, Classique; Végétarien; Végétalien        ","chef":"Damien Fagette","url":"https://restaurant.michelin.fr/28vws7k/la-tour-des-vents-monbazillac"},{"name":"\n      La Tour des Vents    ","address":"Le Moulin de Malfourat","zipcode":"24240","city":"Monbazillac","description":"\n          Cuisine Moderne, Créative; Traditionnel, Classique; Végétarien; Végétalien        ","chef":"Damien Fagette","url":"https://restaurant.michelin.fr/28vws7k/la-tour-des-vents-monbazillac"},{"name":"\n      Agapé    ","address":"51 rue Jouffroy-d'Abbans","zipcode":"75017","city":"Paris 17","description":"\n          Cuisine Moderne, Créative; Gastronomique        ","chef":"Yoshitaka Takayanagi","url":"https://restaurant.michelin.fr/2eo1t6h/agape-paris-17"},{"name":"\n      Le 39V    ","address":"39 Avenue George V","zipcode":"75008","city":"Paris 08","description":"\n          Cuisine Moderne, Créative; Traditionnel, Classique; Gastronomique        ","chef":"Frédéric Vardon","url":"https://restaurant.michelin.fr/2fd19do/le-39v-paris-08"},{"name":"\n      Le Restaurant    ","address":"13 rue des Beaux-Arts","zipcode":"75006","city":"Paris 06","description":"\n          Cuisine Moderne, Créative; Gastronomique        ","chef":"Julien Montbabut","url":"https://restaurant.michelin.fr/2cfem9h/le-restaurant-paris-06"},{"name":"\n      La Liégeoise    ","address":"digue de mer","zipcode":"62930","city":"Wimereux","description":"\n          Cuisine Moderne, Créative        ","chef":"Benjamin Delpierre","url":"https://restaurant.michelin.fr/2fa1zgi202/la-liegeoise-wimereux"},{"name":"\n      La Tour des Vents    ","address":"Le Moulin de Malfourat","zipcode":"24240","city":"Monbazillac","description":"\n          Cuisine Moderne, Créative; Traditionnel, Classique; Végétarien; Végétalien        ","chef":"Damien Fagette","url":"https://restaurant.michelin.fr/28vws7k/la-tour-des-vents-monbazillac"},{"name":"\n      Agapé    ","address":"51 rue Jouffroy-d'Abbans","zipcode":"75017","city":"Paris 17","description":"\n          Cuisine Moderne, Créative; Gastronomique        ","chef":"Yoshitaka Takayanagi","url":"https://restaurant.michelin.fr/2eo1t6h/agape-paris-17"},{"name":"\n      Le Jardin des Remparts    ","address":"10 rue Hôtel-Dieu","zipcode":"21200","city":"Beaune","description":"\n          Cuisine Moderne, Créative; Végétarien; Végétalien        ","chef":"Christophe Bocquillon","url":"https://restaurant.michelin.fr/28u6ql7/le-jardin-des-remparts-beaune"},{"name":"\n      Les Pêcheurs    ","address":"10 boulevard du Maréchal-Juin","zipcode":"06600","city":"Antibes","description":"\n          Méditerranéen; Poissons, Fruits de Mer; Gastronomique; Végétarien; Végétalien; Traditionnel, Classique        ","chef":"Nicolas RONDELLI","url":"https://restaurant.michelin.fr/29ol879/les-pecheurs-antibes"},{"name":"\n      Les Pêcheurs    ","address":"10 boulevard du Maréchal-Juin","zipcode":"06600","city":"Antibes","description":"\n          Méditerranéen; Poissons, Fruits de Mer; Gastronomique; Végétarien; Végétalien; Traditionnel, Classique        ","chef":"Nicolas RONDELLI","url":"https://restaurant.michelin.fr/29ol879/les-pecheurs-antibes"},{"name":"\n      Paul Bocuse    ","address":"40 Rue de la Plage","zipcode":"69660","city":"Collonges-au-Mont-d'Or","description":"\n          Traditionnel, Classique; Gastronomique; Lyonnais; Végétarien; Végétalien        ","chef":"Paul BOCUSE","url":"https://restaurant.michelin.fr/29tbf1t/paul-bocuse-collonges-au-mont-dor"},{"name":"\n      Les Pêcheurs    ","address":"10 boulevard du Maréchal-Juin","zipcode":"06600","city":"Antibes","description":"\n          Méditerranéen; Poissons, Fruits de Mer; Gastronomique; Végétarien; Végétalien; Traditionnel, Classique        ","chef":"Nicolas RONDELLI","url":"https://restaurant.michelin.fr/29ol879/les-pecheurs-antibes"},{"name":"\n      Christophe Bacquié    ","address":"Hotel du Castellet Route des Hauts du Camp","zipcode":"83330","city":"Le Castellet","description":"\n          Cuisine Moderne, Créative; Gastronomique; Provençal        ","chef":"Christophe Bacquié","url":"https://restaurant.michelin.fr/2bmu0gi/christophe-bacquie-le-castellet"},{"name":"\n      Les Tablettes de Jean-Louis Nomicos    ","address":"16 avenue Bugeaud","zipcode":"75116","city":"Paris 16","description":"\n          Cuisine Moderne, Créative; Gastronomique; Traditionnel, Classique        ","chef":"Jean-Louis Nomicos","url":"https://restaurant.michelin.fr/2fdwgd3/les-tablettes-de-jean-louis-nomicos-paris-16"},{"name":"\n      Frédéric Doucet    ","address":"2 avenue de la Libération","zipcode":"71120","city":"Charolles","description":"\n          Cuisine Moderne, Créative; Gastronomique; Cuisine Régionale Française; Végétarien        ","chef":"Frédéric Doucet","url":"https://restaurant.michelin.fr/295q5w8/frederic-doucet-charolles"},{"name":"\n      Fanny Rey & Jonathan Wahid    ","address":"12, boulevard Mirabeau","zipcode":"13210","city":"SAINT REMY DE PROVENCE","description":"\n          Cuisine Moderne, Créative; Gastronomique; Végétarien; Végétalien; Provençal        ","chef":"Fanny Rey & Jonathan Wahid","url":"https://restaurant.michelin.fr/389tiwsv/fanny-rey-jonathan-wahid-saint-remy-de-provence"},{"name":"\n      La Table de Franck Putelat    ","address":"80 chemin des Anglais","zipcode":"11000","city":"Carcassonne","description":"\n          Cuisine Moderne, Créative; Gastronomique; Végétarien; Végétalien        ","chef":"Mr Franck PUTELAT","url":"https://restaurant.michelin.fr/2e06z2s/la-table-de-franck-putelat-carcassonne"},{"name":"\n      Paul Bocuse    ","address":"40 Rue de la Plage","zipcode":"69660","city":"Collonges-au-Mont-d'Or","description":"\n          Traditionnel, Classique; Gastronomique; Lyonnais; Végétarien; Végétalien        ","chef":"Paul BOCUSE","url":"https://restaurant.michelin.fr/29tbf1t/paul-bocuse-collonges-au-mont-dor"},{"name":"\n      Le Saint-Estève    ","address":"2250 route cézanne D17","zipcode":"13100","city":"Le Tholonet","description":"\n          Cuisine Moderne, Créative; Gastronomique; Végétarien; Végétalien        ","chef":"Mathias Dandine","url":"https://restaurant.michelin.fr/2x1lce26/le-saint-esteve-le-tholonet"},{"name":"\n      Les Tablettes de Jean-Louis Nomicos    ","address":"16 avenue Bugeaud","zipcode":"75116","city":"Paris 16","description":"\n          Cuisine Moderne, Créative; Gastronomique; Traditionnel, Classique        ","chef":"Jean-Louis Nomicos","url":"https://restaurant.michelin.fr/2fdwgd3/les-tablettes-de-jean-louis-nomicos-paris-16"},{"name":"\n      Christophe Bacquié    ","address":"Hotel du Castellet Route des Hauts du Camp","zipcode":"83330","city":"Le Castellet","description":"\n          Cuisine Moderne, Créative; Gastronomique; Provençal        ","chef":"Christophe Bacquié","url":"https://restaurant.michelin.fr/2bmu0gi/christophe-bacquie-le-castellet"},{"name":"\n      La Table de Franck Putelat    ","address":"80 chemin des Anglais","zipcode":"11000","city":"Carcassonne","description":"\n          Cuisine Moderne, Créative; Gastronomique; Végétarien; Végétalien        ","chef":"Mr Franck PUTELAT","url":"https://restaurant.michelin.fr/2e06z2s/la-table-de-franck-putelat-carcassonne"},{"name":"\n      La Table de Franck Putelat    ","address":"80 chemin des Anglais","zipcode":"11000","city":"Carcassonne","description":"\n          Cuisine Moderne, Créative; Gastronomique; Végétarien; Végétalien        ","chef":"Mr Franck PUTELAT","url":"https://restaurant.michelin.fr/2e06z2s/la-table-de-franck-putelat-carcassonne"},{"name":"\n      Le Restaurant    ","address":"13 rue des Beaux-Arts","zipcode":"75006","city":"Paris 06","description":"\n          Cuisine Moderne, Créative; Gastronomique        ","chef":"Julien Montbabut","url":"https://restaurant.michelin.fr/2cfem9h/le-restaurant-paris-06"},{"name":"\n      Fanny Rey & Jonathan Wahid    ","address":"12, boulevard Mirabeau","zipcode":"13210","city":"SAINT REMY DE PROVENCE","description":"\n          Cuisine Moderne, Créative; Gastronomique; Végétarien; Végétalien; Provençal        ","chef":"Fanny Rey & Jonathan Wahid","url":"https://restaurant.michelin.fr/389tiwsv/fanny-rey-jonathan-wahid-saint-remy-de-provence"},{"name":"\n      Le Saint-Estève    ","address":"2250 route cézanne D17","zipcode":"13100","city":"Le Tholonet","description":"\n          Cuisine Moderne, Créative; Gastronomique; Végétarien; Végétalien        ","chef":"Mathias Dandine","url":"https://restaurant.michelin.fr/2x1lce26/le-saint-esteve-le-tholonet"},{"name":"\n      La Liégeoise    ","address":"digue de mer","zipcode":"62930","city":"Wimereux","description":"\n          Cuisine Moderne, Créative        ","chef":"Benjamin Delpierre","url":"https://restaurant.michelin.fr/2fa1zgi202/la-liegeoise-wimereux"},{"name":"\n      Le Pré Catelan    ","address":"Route de Suresnes","zipcode":"75016","city":"Paris","description":"\n          Cuisine Moderne, Créative        ","chef":"Chef Frédéric Anton","url":"https://restaurant.michelin.fr/2af46v7/le-pre-catelan-paris-16"},{"name":"\n      Le Pré Catelan    ","address":"Route de Suresnes","zipcode":"75016","city":"Paris","description":"\n          Cuisine Moderne, Créative        ","chef":"Chef Frédéric Anton","url":"https://restaurant.michelin.fr/2af46v7/le-pre-catelan-paris-16"},{"name":"\n      Frédéric Doucet    ","address":"2 avenue de la Libération","zipcode":"71120","city":"Charolles","description":"\n          Cuisine Moderne, Créative; Gastronomique; Cuisine Régionale Française; Végétarien        ","chef":"Frédéric Doucet","url":"https://restaurant.michelin.fr/295q5w8/frederic-doucet-charolles"},{"name":"\n      Emporio Armani Caffè    ","address":"149 bd St-Germain","zipcode":"75006","city":"Paris 06","description":"\n          Italien; Gastronomique        ","chef":"Massimo Mori","url":"https://restaurant.michelin.fr/2a9obdn/emporio-armani-caffe-paris-06"},{"name":"\n      Les Tablettes de Jean-Louis Nomicos    ","address":"16 avenue Bugeaud","zipcode":"75116","city":"Paris 16","description":"\n          Cuisine Moderne, Créative; Gastronomique; Traditionnel, Classique        ","chef":"Jean-Louis Nomicos","url":"https://restaurant.michelin.fr/2fdwgd3/les-tablettes-de-jean-louis-nomicos-paris-16"},{"name":"\n      Emporio Armani Caffè    ","address":"149 bd St-Germain","zipcode":"75006","city":"Paris 06","description":"\n          Italien; Gastronomique        ","chef":"Massimo Mori","url":"https://restaurant.michelin.fr/2a9obdn/emporio-armani-caffe-paris-06"},{"name":"\n      Le Saint-Estève    ","address":"2250 route cézanne D17","zipcode":"13100","city":"Le Tholonet","description":"\n          Cuisine Moderne, Créative; Gastronomique; Végétarien; Végétalien        ","chef":"Mathias Dandine","url":"https://restaurant.michelin.fr/2x1lce26/le-saint-esteve-le-tholonet"},{"name":"\n      Agapé    ","address":"51 rue Jouffroy-d'Abbans","zipcode":"75017","city":"Paris 17","description":"\n          Cuisine Moderne, Créative; Gastronomique        ","chef":"Yoshitaka Takayanagi","url":"https://restaurant.michelin.fr/2eo1t6h/agape-paris-17"},{"name":"\n      Agapé    ","address":"51 rue Jouffroy-d'Abbans","zipcode":"75017","city":"Paris 17","description":"\n          Cuisine Moderne, Créative; Gastronomique        ","chef":"Yoshitaka Takayanagi","url":"https://restaurant.michelin.fr/2eo1t6h/agape-paris-17"},{"name":"\n      La Table de Franck Putelat    ","address":"80 chemin des Anglais","zipcode":"11000","city":"Carcassonne","description":"\n          Cuisine Moderne, Créative; Gastronomique; Végétarien; Végétalien        ","chef":"Mr Franck PUTELAT","url":"https://restaurant.michelin.fr/2e06z2s/la-table-de-franck-putelat-carcassonne"},{"name":"\n      Les Pêcheurs    ","address":"10 boulevard du Maréchal-Juin","zipcode":"06600","city":"Antibes","description":"\n          Méditerranéen; Poissons, Fruits de Mer; Gastronomique; Végétarien; Végétalien; Traditionnel, Classique        ","chef":"Nicolas RONDELLI","url":"https://restaurant.michelin.fr/29ol879/les-pecheurs-antibes"},{"name":"\n      Le Saint-Estève    ","address":"2250 route cézanne D17","zipcode":"13100","city":"Le Tholonet","description":"\n          Cuisine Moderne, Créative; Gastronomique; Végétarien; Végétalien        ","chef":"Mathias Dandine","url":"https://restaurant.michelin.fr/2x1lce26/le-saint-esteve-le-tholonet"},{"name":"\n      Emporio Armani Caffè    ","address":"149 bd St-Germain","zipcode":"75006","city":"Paris 06","description":"\n          Italien; Gastronomique        ","chef":"Massimo Mori","url":"https://restaurant.michelin.fr/2a9obdn/emporio-armani-caffe-paris-06"},{"name":"\n      Fanny Rey & Jonathan Wahid    ","address":"12, boulevard Mirabeau","zipcode":"13210","city":"SAINT REMY DE PROVENCE","description":"\n          Cuisine Moderne, Créative; Gastronomique; Végétarien; Végétalien; Provençal        ","chef":"Fanny Rey & Jonathan Wahid","url":"https://restaurant.michelin.fr/389tiwsv/fanny-rey-jonathan-wahid-saint-remy-de-provence"},{"name":"\n      La Table de Franck Putelat    ","address":"80 chemin des Anglais","zipcode":"11000","city":"Carcassonne","description":"\n          Cuisine Moderne, Créative; Gastronomique; Végétarien; Végétalien        ","chef":"Mr Franck PUTELAT","url":"https://restaurant.michelin.fr/2e06z2s/la-table-de-franck-putelat-carcassonne"},{"name":"\n      La Tour des Vents    ","address":"Le Moulin de Malfourat","zipcode":"24240","city":"Monbazillac","description":"\n          Cuisine Moderne, Créative; Traditionnel, Classique; Végétarien; Végétalien        ","chef":"Damien Fagette","url":"https://restaurant.michelin.fr/28vws7k/la-tour-des-vents-monbazillac"},{"name":"\n      Le Jardin des Remparts    ","address":"10 rue Hôtel-Dieu","zipcode":"21200","city":"Beaune","description":"\n          Cuisine Moderne, Créative; Végétarien; Végétalien        ","chef":"Christophe Bocquillon","url":"https://restaurant.michelin.fr/28u6ql7/le-jardin-des-remparts-beaune"},{"name":"\n      Auberge de l'Île Barbe    ","address":"1 Place Notre-Dame","zipcode":"69009","city":"Lyon 09","description":"\n          Traditionnel, Classique; Cuisine Moderne, Créative; Gastronomique        ","chef":"Jean-Christophe Ansanay-Alex","url":"https://restaurant.michelin.fr/29tj1pj/auberge-de-lile-barbe-lyon-09"},{"name":"\n      Agapé    ","address":"51 rue Jouffroy-d'Abbans","zipcode":"75017","city":"Paris 17","description":"\n          Cuisine Moderne, Créative; Gastronomique        ","chef":"Yoshitaka Takayanagi","url":"https://restaurant.michelin.fr/2eo1t6h/agape-paris-17"},{"name":"\n      Frédéric Doucet    ","address":"2 avenue de la Libération","zipcode":"71120","city":"Charolles","description":"\n          Cuisine Moderne, Créative; Gastronomique; Cuisine Régionale Française; Végétarien        ","chef":"Frédéric Doucet","url":"https://restaurant.michelin.fr/295q5w8/frederic-doucet-charolles"},{"name":"\n      La Tour des Vents    ","address":"Le Moulin de Malfourat","zipcode":"24240","city":"Monbazillac","description":"\n          Cuisine Moderne, Créative; Traditionnel, Classique; Végétarien; Végétalien        ","chef":"Damien Fagette","url":"https://restaurant.michelin.fr/28vws7k/la-tour-des-vents-monbazillac"},{"name":"\n      Le Restaurant    ","address":"13 rue des Beaux-Arts","zipcode":"75006","city":"Paris 06","description":"\n          Cuisine Moderne, Créative; Gastronomique        ","chef":"Julien Montbabut","url":"https://restaurant.michelin.fr/2cfem9h/le-restaurant-paris-06"},{"name":"\n      Le Saint-Estève    ","address":"2250 route cézanne D17","zipcode":"13100","city":"Le Tholonet","description":"\n          Cuisine Moderne, Créative; Gastronomique; Végétarien; Végétalien        ","chef":"Mathias Dandine","url":"https://restaurant.michelin.fr/2x1lce26/le-saint-esteve-le-tholonet"},{"name":"\n      Le Pré Catelan    ","address":"Route de Suresnes","zipcode":"75016","city":"Paris","description":"\n          Cuisine Moderne, Créative        ","chef":"Chef Frédéric Anton","url":"https://restaurant.michelin.fr/2af46v7/le-pre-catelan-paris-16"},{"name":"\n      Le Jardin des Remparts    ","address":"10 rue Hôtel-Dieu","zipcode":"21200","city":"Beaune","description":"\n          Cuisine Moderne, Créative; Végétarien; Végétalien        ","chef":"Christophe Bocquillon","url":"https://restaurant.michelin.fr/28u6ql7/le-jardin-des-remparts-beaune"},{"name":"\n      Le Jardin des Remparts    ","address":"10 rue Hôtel-Dieu","zipcode":"21200","city":"Beaune","description":"\n          Cuisine Moderne, Créative; Végétarien; Végétalien        ","chef":"Christophe Bocquillon","url":"https://restaurant.michelin.fr/28u6ql7/le-jardin-des-remparts-beaune"},{"name":"\n      Les Tablettes de Jean-Louis Nomicos    ","address":"16 avenue Bugeaud","zipcode":"75116","city":"Paris 16","description":"\n          Cuisine Moderne, Créative; Gastronomique; Traditionnel, Classique        ","chef":"Jean-Louis Nomicos","url":"https://restaurant.michelin.fr/2fdwgd3/les-tablettes-de-jean-louis-nomicos-paris-16"},{"name":"\n      Le Jardin des Remparts    ","address":"10 rue Hôtel-Dieu","zipcode":"21200","city":"Beaune","description":"\n          Cuisine Moderne, Créative; Végétarien; Végétalien        ","chef":"Christophe Bocquillon","url":"https://restaurant.michelin.fr/28u6ql7/le-jardin-des-remparts-beaune"},{"name":"\n      Le Jardin des Remparts    ","address":"10 rue Hôtel-Dieu","zipcode":"21200","city":"Beaune","description":"\n          Cuisine Moderne, Créative; Végétarien; Végétalien        ","chef":"Christophe Bocquillon","url":"https://restaurant.michelin.fr/28u6ql7/le-jardin-des-remparts-beaune"},{"name":"\n      Le Saint-Estève    ","address":"2250 route cézanne D17","zipcode":"13100","city":"Le Tholonet","description":"\n          Cuisine Moderne, Créative; Gastronomique; Végétarien; Végétalien        ","chef":"Mathias Dandine","url":"https://restaurant.michelin.fr/2x1lce26/le-saint-esteve-le-tholonet"},{"name":"\n      La Table de Franck Putelat    ","address":"80 chemin des Anglais","zipcode":"11000","city":"Carcassonne","description":"\n          Cuisine Moderne, Créative; Gastronomique; Végétarien; Végétalien        ","chef":"Mr Franck PUTELAT","url":"https://restaurant.michelin.fr/2e06z2s/la-table-de-franck-putelat-carcassonne"},{"name":"\n      Le Jardin des Remparts    ","address":"10 rue Hôtel-Dieu","zipcode":"21200","city":"Beaune","description":"\n          Cuisine Moderne, Créative; Végétarien; Végétalien        ","chef":"Christophe Bocquillon","url":"https://restaurant.michelin.fr/28u6ql7/le-jardin-des-remparts-beaune"},{"name":"\n      Paul Bocuse    ","address":"40 Rue de la Plage","zipcode":"69660","city":"Collonges-au-Mont-d'Or","description":"\n          Traditionnel, Classique; Gastronomique; Lyonnais; Végétarien; Végétalien        ","chef":"Paul BOCUSE","url":"https://restaurant.michelin.fr/29tbf1t/paul-bocuse-collonges-au-mont-dor"},{"name":"\n      Les Pêcheurs    ","address":"10 boulevard du Maréchal-Juin","zipcode":"06600","city":"Antibes","description":"\n          Méditerranéen; Poissons, Fruits de Mer; Gastronomique; Végétarien; Végétalien; Traditionnel, Classique        ","chef":"Nicolas RONDELLI","url":"https://restaurant.michelin.fr/29ol879/les-pecheurs-antibes"},{"name":"\n      Paul Bocuse    ","address":"40 Rue de la Plage","zipcode":"69660","city":"Collonges-au-Mont-d'Or","description":"\n          Traditionnel, Classique; Gastronomique; Lyonnais; Végétarien; Végétalien        ","chef":"Paul BOCUSE","url":"https://restaurant.michelin.fr/29tbf1t/paul-bocuse-collonges-au-mont-dor"},{"name":"\n      Le Saint-Estève    ","address":"2250 route cézanne D17","zipcode":"13100","city":"Le Tholonet","description":"\n          Cuisine Moderne, Créative; Gastronomique; Végétarien; Végétalien        ","chef":"Mathias Dandine","url":"https://restaurant.michelin.fr/2x1lce26/le-saint-esteve-le-tholonet"},{"name":"\n      Le Pré Catelan    ","address":"Route de Suresnes","zipcode":"75016","city":"Paris","description":"\n          Cuisine Moderne, Créative        ","chef":"Chef Frédéric Anton","url":"https://restaurant.michelin.fr/2af46v7/le-pre-catelan-paris-16"},{"name":"\n      Fanny Rey & Jonathan Wahid    ","address":"12, boulevard Mirabeau","zipcode":"13210","city":"SAINT REMY DE PROVENCE","description":"\n          Cuisine Moderne, Créative; Gastronomique; Végétarien; Végétalien; Provençal        ","chef":"Fanny Rey & Jonathan Wahid","url":"https://restaurant.michelin.fr/389tiwsv/fanny-rey-jonathan-wahid-saint-remy-de-provence"},{"name":"\n      La Tour des Vents    ","address":"Le Moulin de Malfourat","zipcode":"24240","city":"Monbazillac","description":"\n          Cuisine Moderne, Créative; Traditionnel, Classique; Végétarien; Végétalien        ","chef":"Damien Fagette","url":"https://restaurant.michelin.fr/28vws7k/la-tour-des-vents-monbazillac"},{"name":"\n      La Tour des Vents    ","address":"Le Moulin de Malfourat","zipcode":"24240","city":"Monbazillac","description":"\n          Cuisine Moderne, Créative; Traditionnel, Classique; Végétarien; Végétalien        ","chef":"Damien Fagette","url":"https://restaurant.michelin.fr/28vws7k/la-tour-des-vents-monbazillac"},{"name":"\n      Le Pré Catelan    ","address":"Route de Suresnes","zipcode":"75016","city":"Paris","description":"\n          Cuisine Moderne, Créative        ","chef":"Chef Frédéric Anton","url":"https://restaurant.michelin.fr/2af46v7/le-pre-catelan-paris-16"},{"name":"\n      Auberge de l'Île Barbe    ","address":"1 Place Notre-Dame","zipcode":"69009","city":"Lyon 09","description":"\n          Traditionnel, Classique; Cuisine Moderne, Créative; Gastronomique        ","chef":"Jean-Christophe Ansanay-Alex","url":"https://restaurant.michelin.fr/29tj1pj/auberge-de-lile-barbe-lyon-09"},{"name":"\n      Fanny Rey & Jonathan Wahid    ","address":"12, boulevard Mirabeau","zipcode":"13210","city":"SAINT REMY DE PROVENCE","description":"\n          Cuisine Moderne, Créative; Gastronomique; Végétarien; Végétalien; Provençal        ","chef":"Fanny Rey & Jonathan Wahid","url":"https://restaurant.michelin.fr/389tiwsv/fanny-rey-jonathan-wahid-saint-remy-de-provence"},{"name":"\n      Emporio Armani Caffè    ","address":"149 bd St-Germain","zipcode":"75006","city":"Paris 06","description":"\n          Italien; Gastronomique        ","chef":"Massimo Mori","url":"https://restaurant.michelin.fr/2a9obdn/emporio-armani-caffe-paris-06"},{"name":"\n      Le Restaurant    ","address":"13 rue des Beaux-Arts","zipcode":"75006","city":"Paris 06","description":"\n          Cuisine Moderne, Créative; Gastronomique        ","chef":"Julien Montbabut","url":"https://restaurant.michelin.fr/2cfem9h/le-restaurant-paris-06"},{"name":"\n      Le Pré Catelan    ","address":"Route de Suresnes","zipcode":"75016","city":"Paris","description":"\n          Cuisine Moderne, Créative        ","chef":"Chef Frédéric Anton","url":"https://restaurant.michelin.fr/2af46v7/le-pre-catelan-paris-16"},{"name":"\n      Le Pré Catelan    ","address":"Route de Suresnes","zipcode":"75016","city":"Paris","description":"\n          Cuisine Moderne, Créative        ","chef":"Chef Frédéric Anton","url":"https://restaurant.michelin.fr/2af46v7/le-pre-catelan-paris-16"},{"name":"\n      Frédéric Doucet    ","address":"2 avenue de la Libération","zipcode":"71120","city":"Charolles","description":"\n          Cuisine Moderne, Créative; Gastronomique; Cuisine Régionale Française; Végétarien        ","chef":"Frédéric Doucet","url":"https://restaurant.michelin.fr/295q5w8/frederic-doucet-charolles"},{"name":"\n      Auberge de l'Île Barbe    ","address":"1 Place Notre-Dame","zipcode":"69009","city":"Lyon 09","description":"\n          Traditionnel, Classique; Cuisine Moderne, Créative; Gastronomique        ","chef":"Jean-Christophe Ansanay-Alex","url":"https://restaurant.michelin.fr/29tj1pj/auberge-de-lile-barbe-lyon-09"},{"name":"\n      Christophe Bacquié    ","address":"Hotel du Castellet Route des Hauts du Camp","zipcode":"83330","city":"Le Castellet","description":"\n          Cuisine Moderne, Créative; Gastronomique; Provençal        ","chef":"Christophe Bacquié","url":"https://restaurant.michelin.fr/2bmu0gi/christophe-bacquie-le-castellet"},{"name":"\n      Le 39V    ","address":"39 Avenue George V","zipcode":"75008","city":"Paris 08","description":"\n          Cuisine Moderne, Créative; Traditionnel, Classique; Gastronomique        ","chef":"Frédéric Vardon","url":"https://restaurant.michelin.fr/2fd19do/le-39v-paris-08"},{"name":"\n      La Liégeoise    ","address":"digue de mer","zipcode":"62930","city":"Wimereux","description":"\n          Cuisine Moderne, Créative        ","chef":"Benjamin Delpierre","url":"https://restaurant.michelin.fr/2fa1zgi202/la-liegeoise-wimereux"},{"name":"\n      Le Jardin des Remparts    ","address":"10 rue Hôtel-Dieu","zipcode":"21200","city":"Beaune","description":"\n          Cuisine Moderne, Créative; Végétarien; Végétalien        ","chef":"Christophe Bocquillon","url":"https://restaurant.michelin.fr/28u6ql7/le-jardin-des-remparts-beaune"},{"name":"\n      La Liégeoise    ","address":"digue de mer","zipcode":"62930","city":"Wimereux","description":"\n          Cuisine Moderne, Créative        ","chef":"Benjamin Delpierre","url":"https://restaurant.michelin.fr/2fa1zgi202/la-liegeoise-wimereux"},{"name":"\n      Auberge de l'Île Barbe    ","address":"1 Place Notre-Dame","zipcode":"69009","city":"Lyon 09","description":"\n          Traditionnel, Classique; Cuisine Moderne, Créative; Gastronomique        ","chef":"Jean-Christophe Ansanay-Alex","url":"https://restaurant.michelin.fr/29tj1pj/auberge-de-lile-barbe-lyon-09"},{"name":"\n      Frédéric Doucet    ","address":"2 avenue de la Libération","zipcode":"71120","city":"Charolles","description":"\n          Cuisine Moderne, Créative; Gastronomique; Cuisine Régionale Française; Végétarien        ","chef":"Frédéric Doucet","url":"https://restaurant.michelin.fr/295q5w8/frederic-doucet-charolles"},{"name":"\n      Paul Bocuse    ","address":"40 Rue de la Plage","zipcode":"69660","city":"Collonges-au-Mont-d'Or","description":"\n          Traditionnel, Classique; Gastronomique; Lyonnais; Végétarien; Végétalien        ","chef":"Paul BOCUSE","url":"https://restaurant.michelin.fr/29tbf1t/paul-bocuse-collonges-au-mont-dor"},{"name":"\n      Le Pré Catelan    ","address":"Route de Suresnes","zipcode":"75016","city":"Paris","description":"\n          Cuisine Moderne, Créative        ","chef":"Chef Frédéric Anton","url":"https://restaurant.michelin.fr/2af46v7/le-pre-catelan-paris-16"},{"name":"\n      Emporio Armani Caffè    ","address":"149 bd St-Germain","zipcode":"75006","city":"Paris 06","description":"\n          Italien; Gastronomique        ","chef":"Massimo Mori","url":"https://restaurant.michelin.fr/2a9obdn/emporio-armani-caffe-paris-06"},{"name":"\n      La Table de Franck Putelat    ","address":"80 chemin des Anglais","zipcode":"11000","city":"Carcassonne","description":"\n          Cuisine Moderne, Créative; Gastronomique; Végétarien; Végétalien        ","chef":"Mr Franck PUTELAT","url":"https://restaurant.michelin.fr/2e06z2s/la-table-de-franck-putelat-carcassonne"},{"name":"\n      Le Saint-Estève    ","address":"2250 route cézanne D17","zipcode":"13100","city":"Le Tholonet","description":"\n          Cuisine Moderne, Créative; Gastronomique; Végétarien; Végétalien        ","chef":"Mathias Dandine","url":"https://restaurant.michelin.fr/2x1lce26/le-saint-esteve-le-tholonet"},{"name":"\n      Les Pêcheurs    ","address":"10 boulevard du Maréchal-Juin","zipcode":"06600","city":"Antibes","description":"\n          Méditerranéen; Poissons, Fruits de Mer; Gastronomique; Végétarien; Végétalien; Traditionnel, Classique        ","chef":"Nicolas RONDELLI","url":"https://restaurant.michelin.fr/29ol879/les-pecheurs-antibes"},{"name":"\n      Le Saint-Estève    ","address":"2250 route cézanne D17","zipcode":"13100","city":"Le Tholonet","description":"\n          Cuisine Moderne, Créative; Gastronomique; Végétarien; Végétalien        ","chef":"Mathias Dandine","url":"https://restaurant.michelin.fr/2x1lce26/le-saint-esteve-le-tholonet"},{"name":"\n      Le 39V    ","address":"39 Avenue George V","zipcode":"75008","city":"Paris 08","description":"\n          Cuisine Moderne, Créative; Traditionnel, Classique; Gastronomique        ","chef":"Frédéric Vardon","url":"https://restaurant.michelin.fr/2fd19do/le-39v-paris-08"},{"name":"\n      Le Restaurant    ","address":"13 rue des Beaux-Arts","zipcode":"75006","city":"Paris 06","description":"\n          Cuisine Moderne, Créative; Gastronomique        ","chef":"Julien Montbabut","url":"https://restaurant.michelin.fr/2cfem9h/le-restaurant-paris-06"},{"name":"\n      JY'S    ","address":"17 r. de la Poissonnerie","zipcode":"68000","city":"Colmar","description":"\n          Cuisine Moderne, Créative; Gastronomique        ","chef":"Jean-Yves Schillinger","url":"https://restaurant.michelin.fr/298563e/jys-colmar"},{"name":"\n      Le 39V    ","address":"39 Avenue George V","zipcode":"75008","city":"Paris 08","description":"\n          Cuisine Moderne, Créative; Traditionnel, Classique; Gastronomique        ","chef":"Frédéric Vardon","url":"https://restaurant.michelin.fr/2fd19do/le-39v-paris-08"},{"name":"\n      Les Pêcheurs    ","address":"10 boulevard du Maréchal-Juin","zipcode":"06600","city":"Antibes","description":"\n          Méditerranéen; Poissons, Fruits de Mer; Gastronomique; Végétarien; Végétalien; Traditionnel, Classique        ","chef":"Nicolas RONDELLI","url":"https://restaurant.michelin.fr/29ol879/les-pecheurs-antibes"},{"name":"\n      Les Tablettes de Jean-Louis Nomicos    ","address":"16 avenue Bugeaud","zipcode":"75116","city":"Paris 16","description":"\n          Cuisine Moderne, Créative; Gastronomique; Traditionnel, Classique        ","chef":"Jean-Louis Nomicos","url":"https://restaurant.michelin.fr/2fdwgd3/les-tablettes-de-jean-louis-nomicos-paris-16"},{"name":"\n      Le 39V    ","address":"39 Avenue George V","zipcode":"75008","city":"Paris 08","description":"\n          Cuisine Moderne, Créative; Traditionnel, Classique; Gastronomique        ","chef":"Frédéric Vardon","url":"https://restaurant.michelin.fr/2fd19do/le-39v-paris-08"},{"name":"\n      Le Jardin des Remparts    ","address":"10 rue Hôtel-Dieu","zipcode":"21200","city":"Beaune","description":"\n          Cuisine Moderne, Créative; Végétarien; Végétalien        ","chef":"Christophe Bocquillon","url":"https://restaurant.michelin.fr/28u6ql7/le-jardin-des-remparts-beaune"},{"name":"\n      Fanny Rey & Jonathan Wahid    ","address":"12, boulevard Mirabeau","zipcode":"13210","city":"SAINT REMY DE PROVENCE","description":"\n          Cuisine Moderne, Créative; Gastronomique; Végétarien; Végétalien; Provençal        ","chef":"Fanny Rey & Jonathan Wahid","url":"https://restaurant.michelin.fr/389tiwsv/fanny-rey-jonathan-wahid-saint-remy-de-provence"},{"name":"\n      Les Tablettes de Jean-Louis Nomicos    ","address":"16 avenue Bugeaud","zipcode":"75116","city":"Paris 16","description":"\n          Cuisine Moderne, Créative; Gastronomique; Traditionnel, Classique        ","chef":"Jean-Louis Nomicos","url":"https://restaurant.michelin.fr/2fdwgd3/les-tablettes-de-jean-louis-nomicos-paris-16"},{"name":"\n      Agapé    ","address":"51 rue Jouffroy-d'Abbans","zipcode":"75017","city":"Paris 17","description":"\n          Cuisine Moderne, Créative; Gastronomique        ","chef":"Yoshitaka Takayanagi","url":"https://restaurant.michelin.fr/2eo1t6h/agape-paris-17"},{"name":"\n      Paul Bocuse    ","address":"40 Rue de la Plage","zipcode":"69660","city":"Collonges-au-Mont-d'Or","description":"\n          Traditionnel, Classique; Gastronomique; Lyonnais; Végétarien; Végétalien        ","chef":"Paul BOCUSE","url":"https://restaurant.michelin.fr/29tbf1t/paul-bocuse-collonges-au-mont-dor"},{"name":"\n      Frédéric Doucet    ","address":"2 avenue de la Libération","zipcode":"71120","city":"Charolles","description":"\n          Cuisine Moderne, Créative; Gastronomique; Cuisine Régionale Française; Végétarien        ","chef":"Frédéric Doucet","url":"https://restaurant.michelin.fr/295q5w8/frederic-doucet-charolles"},{"name":"\n      Les Pêcheurs    ","address":"10 boulevard du Maréchal-Juin","zipcode":"06600","city":"Antibes","description":"\n          Méditerranéen; Poissons, Fruits de Mer; Gastronomique; Végétarien; Végétalien; Traditionnel, Classique        ","chef":"Nicolas RONDELLI","url":"https://restaurant.michelin.fr/29ol879/les-pecheurs-antibes"},{"name":"\n      JY'S    ","address":"17 r. de la Poissonnerie","zipcode":"68000","city":"Colmar","description":"\n          Cuisine Moderne, Créative; Gastronomique        ","chef":"Jean-Yves Schillinger","url":"https://restaurant.michelin.fr/298563e/jys-colmar"},{"name":"\n      Fanny Rey & Jonathan Wahid    ","address":"12, boulevard Mirabeau","zipcode":"13210","city":"SAINT REMY DE PROVENCE","description":"\n          Cuisine Moderne, Créative; Gastronomique; Végétarien; Végétalien; Provençal        ","chef":"Fanny Rey & Jonathan Wahid","url":"https://restaurant.michelin.fr/389tiwsv/fanny-rey-jonathan-wahid-saint-remy-de-provence"},{"name":"\n      Auberge de l'Île Barbe    ","address":"1 Place Notre-Dame","zipcode":"69009","city":"Lyon 09","description":"\n          Traditionnel, Classique; Cuisine Moderne, Créative; Gastronomique        ","chef":"Jean-Christophe Ansanay-Alex","url":"https://restaurant.michelin.fr/29tj1pj/auberge-de-lile-barbe-lyon-09"},{"name":"\n      Les Tablettes de Jean-Louis Nomicos    ","address":"16 avenue Bugeaud","zipcode":"75116","city":"Paris 16","description":"\n          Cuisine Moderne, Créative; Gastronomique; Traditionnel, Classique        ","chef":"Jean-Louis Nomicos","url":"https://restaurant.michelin.fr/2fdwgd3/les-tablettes-de-jean-louis-nomicos-paris-16"},{"name":"\n      Fanny Rey & Jonathan Wahid    ","address":"12, boulevard Mirabeau","zipcode":"13210","city":"SAINT REMY DE PROVENCE","description":"\n          Cuisine Moderne, Créative; Gastronomique; Végétarien; Végétalien; Provençal        ","chef":"Fanny Rey & Jonathan Wahid","url":"https://restaurant.michelin.fr/389tiwsv/fanny-rey-jonathan-wahid-saint-remy-de-provence"},{"name":"\n      La Tour des Vents    ","address":"Le Moulin de Malfourat","zipcode":"24240","city":"Monbazillac","description":"\n          Cuisine Moderne, Créative; Traditionnel, Classique; Végétarien; Végétalien        ","chef":"Damien Fagette","url":"https://restaurant.michelin.fr/28vws7k/la-tour-des-vents-monbazillac"},{"name":"\n      Emporio Armani Caffè    ","address":"149 bd St-Germain","zipcode":"75006","city":"Paris 06","description":"\n          Italien; Gastronomique        ","chef":"Massimo Mori","url":"https://restaurant.michelin.fr/2a9obdn/emporio-armani-caffe-paris-06"},{"name":"\n      Emporio Armani Caffè    ","address":"149 bd St-Germain","zipcode":"75006","city":"Paris 06","description":"\n          Italien; Gastronomique        ","chef":"Massimo Mori","url":"https://restaurant.michelin.fr/2a9obdn/emporio-armani-caffe-paris-06"},{"name":"\n      Paul Bocuse    ","address":"40 Rue de la Plage","zipcode":"69660","city":"Collonges-au-Mont-d'Or","description":"\n          Traditionnel, Classique; Gastronomique; Lyonnais; Végétarien; Végétalien        ","chef":"Paul BOCUSE","url":"https://restaurant.michelin.fr/29tbf1t/paul-bocuse-collonges-au-mont-dor"},{"name":"\n      Les Tablettes de Jean-Louis Nomicos    ","address":"16 avenue Bugeaud","zipcode":"75116","city":"Paris 16","description":"\n          Cuisine Moderne, Créative; Gastronomique; Traditionnel, Classique        ","chef":"Jean-Louis Nomicos","url":"https://restaurant.michelin.fr/2fdwgd3/les-tablettes-de-jean-louis-nomicos-paris-16"},{"name":"\n      Paul Bocuse    ","address":"40 Rue de la Plage","zipcode":"69660","city":"Collonges-au-Mont-d'Or","description":"\n          Traditionnel, Classique; Gastronomique; Lyonnais; Végétarien; Végétalien        ","chef":"Paul BOCUSE","url":"https://restaurant.michelin.fr/29tbf1t/paul-bocuse-collonges-au-mont-dor"},{"name":"\n      Le Pré Catelan    ","address":"Route de Suresnes","zipcode":"75016","city":"Paris","description":"\n          Cuisine Moderne, Créative        ","chef":"Chef Frédéric Anton","url":"https://restaurant.michelin.fr/2af46v7/le-pre-catelan-paris-16"},{"name":"\n      Le Saint-Estève    ","address":"2250 route cézanne D17","zipcode":"13100","city":"Le Tholonet","description":"\n          Cuisine Moderne, Créative; Gastronomique; Végétarien; Végétalien        ","chef":"Mathias Dandine","url":"https://restaurant.michelin.fr/2x1lce26/le-saint-esteve-le-tholonet"},{"name":"\n      Le Jardin des Remparts    ","address":"10 rue Hôtel-Dieu","zipcode":"21200","city":"Beaune","description":"\n          Cuisine Moderne, Créative; Végétarien; Végétalien        ","chef":"Christophe Bocquillon","url":"https://restaurant.michelin.fr/28u6ql7/le-jardin-des-remparts-beaune"},{"name":"\n      Christophe Bacquié    ","address":"Hotel du Castellet Route des Hauts du Camp","zipcode":"83330","city":"Le Castellet","description":"\n          Cuisine Moderne, Créative; Gastronomique; Provençal        ","chef":"Christophe Bacquié","url":"https://restaurant.michelin.fr/2bmu0gi/christophe-bacquie-le-castellet"},{"name":"\n      Le Restaurant    ","address":"13 rue des Beaux-Arts","zipcode":"75006","city":"Paris 06","description":"\n          Cuisine Moderne, Créative; Gastronomique        ","chef":"Julien Montbabut","url":"https://restaurant.michelin.fr/2cfem9h/le-restaurant-paris-06"},{"name":"\n      Agapé    ","address":"51 rue Jouffroy-d'Abbans","zipcode":"75017","city":"Paris 17","description":"\n          Cuisine Moderne, Créative; Gastronomique        ","chef":"Yoshitaka Takayanagi","url":"https://restaurant.michelin.fr/2eo1t6h/agape-paris-17"},{"name":"\n      Les Tablettes de Jean-Louis Nomicos    ","address":"16 avenue Bugeaud","zipcode":"75116","city":"Paris 16","description":"\n          Cuisine Moderne, Créative; Gastronomique; Traditionnel, Classique        ","chef":"Jean-Louis Nomicos","url":"https://restaurant.michelin.fr/2fdwgd3/les-tablettes-de-jean-louis-nomicos-paris-16"},{"name":"\n      Agapé    ","address":"51 rue Jouffroy-d'Abbans","zipcode":"75017","city":"Paris 17","description":"\n          Cuisine Moderne, Créative; Gastronomique        ","chef":"Yoshitaka Takayanagi","url":"https://restaurant.michelin.fr/2eo1t6h/agape-paris-17"},{"name":"\n      La Tour des Vents    ","address":"Le Moulin de Malfourat","zipcode":"24240","city":"Monbazillac","description":"\n          Cuisine Moderne, Créative; Traditionnel, Classique; Végétarien; Végétalien        ","chef":"Damien Fagette","url":"https://restaurant.michelin.fr/28vws7k/la-tour-des-vents-monbazillac"},{"name":"\n      La Tour des Vents    ","address":"Le Moulin de Malfourat","zipcode":"24240","city":"Monbazillac","description":"\n          Cuisine Moderne, Créative; Traditionnel, Classique; Végétarien; Végétalien        ","chef":"Damien Fagette","url":"https://restaurant.michelin.fr/28vws7k/la-tour-des-vents-monbazillac"},{"name":"\n      Le Pré Catelan    ","address":"Route de Suresnes","zipcode":"75016","city":"Paris","description":"\n          Cuisine Moderne, Créative        ","chef":"Chef Frédéric Anton","url":"https://restaurant.michelin.fr/2af46v7/le-pre-catelan-paris-16"},{"name":"\n      Le Restaurant    ","address":"13 rue des Beaux-Arts","zipcode":"75006","city":"Paris 06","description":"\n          Cuisine Moderne, Créative; Gastronomique        ","chef":"Julien Montbabut","url":"https://restaurant.michelin.fr/2cfem9h/le-restaurant-paris-06"},{"name":"\n      Le Saint-Estève    ","address":"2250 route cézanne D17","zipcode":"13100","city":"Le Tholonet","description":"\n          Cuisine Moderne, Créative; Gastronomique; Végétarien; Végétalien        ","chef":"Mathias Dandine","url":"https://restaurant.michelin.fr/2x1lce26/le-saint-esteve-le-tholonet"},{"name":"\n      Le Saint-Estève    ","address":"2250 route cézanne D17","zipcode":"13100","city":"Le Tholonet","description":"\n          Cuisine Moderne, Créative; Gastronomique; Végétarien; Végétalien        ","chef":"Mathias Dandine","url":"https://restaurant.michelin.fr/2x1lce26/le-saint-esteve-le-tholonet"},{"name":"\n      Agapé    ","address":"51 rue Jouffroy-d'Abbans","zipcode":"75017","city":"Paris 17","description":"\n          Cuisine Moderne, Créative; Gastronomique        ","chef":"Yoshitaka Takayanagi","url":"https://restaurant.michelin.fr/2eo1t6h/agape-paris-17"},{"name":"\n      La Tour des Vents    ","address":"Le Moulin de Malfourat","zipcode":"24240","city":"Monbazillac","description":"\n          Cuisine Moderne, Créative; Traditionnel, Classique; Végétarien; Végétalien        ","chef":"Damien Fagette","url":"https://restaurant.michelin.fr/28vws7k/la-tour-des-vents-monbazillac"},{"name":"\n      Auberge de l'Île Barbe    ","address":"1 Place Notre-Dame","zipcode":"69009","city":"Lyon 09","description":"\n          Traditionnel, Classique; Cuisine Moderne, Créative; Gastronomique        ","chef":"Jean-Christophe Ansanay-Alex","url":"https://restaurant.michelin.fr/29tj1pj/auberge-de-lile-barbe-lyon-09"},{"name":"\n      Les Tablettes de Jean-Louis Nomicos    ","address":"16 avenue Bugeaud","zipcode":"75116","city":"Paris 16","description":"\n          Cuisine Moderne, Créative; Gastronomique; Traditionnel, Classique        ","chef":"Jean-Louis Nomicos","url":"https://restaurant.michelin.fr/2fdwgd3/les-tablettes-de-jean-louis-nomicos-paris-16"},{"name":"\n      La Tour des Vents    ","address":"Le Moulin de Malfourat","zipcode":"24240","city":"Monbazillac","description":"\n          Cuisine Moderne, Créative; Traditionnel, Classique; Végétarien; Végétalien        ","chef":"Damien Fagette","url":"https://restaurant.michelin.fr/28vws7k/la-tour-des-vents-monbazillac"},{"name":"\n      Agapé    ","address":"51 rue Jouffroy-d'Abbans","zipcode":"75017","city":"Paris 17","description":"\n          Cuisine Moderne, Créative; Gastronomique        ","chef":"Yoshitaka Takayanagi","url":"https://restaurant.michelin.fr/2eo1t6h/agape-paris-17"},{"name":"\n      Christophe Bacquié    ","address":"Hotel du Castellet Route des Hauts du Camp","zipcode":"83330","city":"Le Castellet","description":"\n          Cuisine Moderne, Créative; Gastronomique; Provençal        ","chef":"Christophe Bacquié","url":"https://restaurant.michelin.fr/2bmu0gi/christophe-bacquie-le-castellet"},{"name":"\n      Auberge de l'Île Barbe    ","address":"1 Place Notre-Dame","zipcode":"69009","city":"Lyon 09","description":"\n          Traditionnel, Classique; Cuisine Moderne, Créative; Gastronomique        ","chef":"Jean-Christophe Ansanay-Alex","url":"https://restaurant.michelin.fr/29tj1pj/auberge-de-lile-barbe-lyon-09"},{"name":"\n      La Table de Franck Putelat    ","address":"80 chemin des Anglais","zipcode":"11000","city":"Carcassonne","description":"\n          Cuisine Moderne, Créative; Gastronomique; Végétarien; Végétalien        ","chef":"Mr Franck PUTELAT","url":"https://restaurant.michelin.fr/2e06z2s/la-table-de-franck-putelat-carcassonne"},{"name":"\n      Auberge de l'Île Barbe    ","address":"1 Place Notre-Dame","zipcode":"69009","city":"Lyon 09","description":"\n          Traditionnel, Classique; Cuisine Moderne, Créative; Gastronomique        ","chef":"Jean-Christophe Ansanay-Alex","url":"https://restaurant.michelin.fr/29tj1pj/auberge-de-lile-barbe-lyon-09"},{"name":"\n      Paul Bocuse    ","address":"40 Rue de la Plage","zipcode":"69660","city":"Collonges-au-Mont-d'Or","description":"\n          Traditionnel, Classique; Gastronomique; Lyonnais; Végétarien; Végétalien        ","chef":"Paul BOCUSE","url":"https://restaurant.michelin.fr/29tbf1t/paul-bocuse-collonges-au-mont-dor"},{"name":"\n      Agapé    ","address":"51 rue Jouffroy-d'Abbans","zipcode":"75017","city":"Paris 17","description":"\n          Cuisine Moderne, Créative; Gastronomique        ","chef":"Yoshitaka Takayanagi","url":"https://restaurant.michelin.fr/2eo1t6h/agape-paris-17"},{"name":"\n      La Tour des Vents    ","address":"Le Moulin de Malfourat","zipcode":"24240","city":"Monbazillac","description":"\n          Cuisine Moderne, Créative; Traditionnel, Classique; Végétarien; Végétalien        ","chef":"Damien Fagette","url":"https://restaurant.michelin.fr/28vws7k/la-tour-des-vents-monbazillac"},{"name":"\n      Frédéric Doucet    ","address":"2 avenue de la Libération","zipcode":"71120","city":"Charolles","description":"\n          Cuisine Moderne, Créative; Gastronomique; Cuisine Régionale Française; Végétarien        ","chef":"Frédéric Doucet","url":"https://restaurant.michelin.fr/295q5w8/frederic-doucet-charolles"},{"name":"\n      La Liégeoise    ","address":"digue de mer","zipcode":"62930","city":"Wimereux","description":"\n          Cuisine Moderne, Créative        ","chef":"Benjamin Delpierre","url":"https://restaurant.michelin.fr/2fa1zgi202/la-liegeoise-wimereux"},{"name":"\n      Les Pêcheurs    ","address":"10 boulevard du Maréchal-Juin","zipcode":"06600","city":"Antibes","description":"\n          Méditerranéen; Poissons, Fruits de Mer; Gastronomique; Végétarien; Végétalien; Traditionnel, Classique        ","chef":"Nicolas RONDELLI","url":"https://restaurant.michelin.fr/29ol879/les-pecheurs-antibes"},{"name":"\n      Frédéric Doucet    ","address":"2 avenue de la Libération","zipcode":"71120","city":"Charolles","description":"\n          Cuisine Moderne, Créative; Gastronomique; Cuisine Régionale Française; Végétarien        ","chef":"Frédéric Doucet","url":"https://restaurant.michelin.fr/295q5w8/frederic-doucet-charolles"},{"name":"\n      Le Jardin des Remparts    ","address":"10 rue Hôtel-Dieu","zipcode":"21200","city":"Beaune","description":"\n          Cuisine Moderne, Créative; Végétarien; Végétalien        ","chef":"Christophe Bocquillon","url":"https://restaurant.michelin.fr/28u6ql7/le-jardin-des-remparts-beaune"},{"name":"\n      Emporio Armani Caffè    ","address":"149 bd St-Germain","zipcode":"75006","city":"Paris 06","description":"\n          Italien; Gastronomique        ","chef":"Massimo Mori","url":"https://restaurant.michelin.fr/2a9obdn/emporio-armani-caffe-paris-06"},{"name":"\n      JY'S    ","address":"17 r. de la Poissonnerie","zipcode":"68000","city":"Colmar","description":"\n          Cuisine Moderne, Créative; Gastronomique        ","chef":"Jean-Yves Schillinger","url":"https://restaurant.michelin.fr/298563e/jys-colmar"},{"name":"\n      Paul Bocuse    ","address":"40 Rue de la Plage","zipcode":"69660","city":"Collonges-au-Mont-d'Or","description":"\n          Traditionnel, Classique; Gastronomique; Lyonnais; Végétarien; Végétalien        ","chef":"Paul BOCUSE","url":"https://restaurant.michelin.fr/29tbf1t/paul-bocuse-collonges-au-mont-dor"},{"name":"\n      Le 39V    ","address":"39 Avenue George V","zipcode":"75008","city":"Paris 08","description":"\n          Cuisine Moderne, Créative; Traditionnel, Classique; Gastronomique        ","chef":"Frédéric Vardon","url":"https://restaurant.michelin.fr/2fd19do/le-39v-paris-08"},{"name":"\n      Agapé    ","address":"51 rue Jouffroy-d'Abbans","zipcode":"75017","city":"Paris 17","description":"\n          Cuisine Moderne, Créative; Gastronomique        ","chef":"Yoshitaka Takayanagi","url":"https://restaurant.michelin.fr/2eo1t6h/agape-paris-17"},{"name":"\n      Auberge de l'Île Barbe    ","address":"1 Place Notre-Dame","zipcode":"69009","city":"Lyon 09","description":"\n          Traditionnel, Classique; Cuisine Moderne, Créative; Gastronomique        ","chef":"Jean-Christophe Ansanay-Alex","url":"https://restaurant.michelin.fr/29tj1pj/auberge-de-lile-barbe-lyon-09"},{"name":"\n      La Table de Franck Putelat    ","address":"80 chemin des Anglais","zipcode":"11000","city":"Carcassonne","description":"\n          Cuisine Moderne, Créative; Gastronomique; Végétarien; Végétalien        ","chef":"Mr Franck PUTELAT","url":"https://restaurant.michelin.fr/2e06z2s/la-table-de-franck-putelat-carcassonne"},{"name":"\n      La Table de Franck Putelat    ","address":"80 chemin des Anglais","zipcode":"11000","city":"Carcassonne","description":"\n          Cuisine Moderne, Créative; Gastronomique; Végétarien; Végétalien        ","chef":"Mr Franck PUTELAT","url":"https://restaurant.michelin.fr/2e06z2s/la-table-de-franck-putelat-carcassonne"},{"name":"\n      Le Saint-Estève    ","address":"2250 route cézanne D17","zipcode":"13100","city":"Le Tholonet","description":"\n          Cuisine Moderne, Créative; Gastronomique; Végétarien; Végétalien        ","chef":"Mathias Dandine","url":"https://restaurant.michelin.fr/2x1lce26/le-saint-esteve-le-tholonet"},{"name":"\n      Le 39V    ","address":"39 Avenue George V","zipcode":"75008","city":"Paris 08","description":"\n          Cuisine Moderne, Créative; Traditionnel, Classique; Gastronomique        ","chef":"Frédéric Vardon","url":"https://restaurant.michelin.fr/2fd19do/le-39v-paris-08"},{"name":"\n      Agapé    ","address":"51 rue Jouffroy-d'Abbans","zipcode":"75017","city":"Paris 17","description":"\n          Cuisine Moderne, Créative; Gastronomique        ","chef":"Yoshitaka Takayanagi","url":"https://restaurant.michelin.fr/2eo1t6h/agape-paris-17"},{"name":"\n      Emporio Armani Caffè    ","address":"149 bd St-Germain","zipcode":"75006","city":"Paris 06","description":"\n          Italien; Gastronomique        ","chef":"Massimo Mori","url":"https://restaurant.michelin.fr/2a9obdn/emporio-armani-caffe-paris-06"},{"name":"\n      Frédéric Doucet    ","address":"2 avenue de la Libération","zipcode":"71120","city":"Charolles","description":"\n          Cuisine Moderne, Créative; Gastronomique; Cuisine Régionale Française; Végétarien        ","chef":"Frédéric Doucet","url":"https://restaurant.michelin.fr/295q5w8/frederic-doucet-charolles"},{"name":"\n      Emporio Armani Caffè    ","address":"149 bd St-Germain","zipcode":"75006","city":"Paris 06","description":"\n          Italien; Gastronomique        ","chef":"Massimo Mori","url":"https://restaurant.michelin.fr/2a9obdn/emporio-armani-caffe-paris-06"},{"name":"\n      La Liégeoise    ","address":"digue de mer","zipcode":"62930","city":"Wimereux","description":"\n          Cuisine Moderne, Créative        ","chef":"Benjamin Delpierre","url":"https://restaurant.michelin.fr/2fa1zgi202/la-liegeoise-wimereux"},{"name":"\n      Les Tablettes de Jean-Louis Nomicos    ","address":"16 avenue Bugeaud","zipcode":"75116","city":"Paris 16","description":"\n          Cuisine Moderne, Créative; Gastronomique; Traditionnel, Classique        ","chef":"Jean-Louis Nomicos","url":"https://restaurant.michelin.fr/2fdwgd3/les-tablettes-de-jean-louis-nomicos-paris-16"},{"name":"\n      Fanny Rey & Jonathan Wahid    ","address":"12, boulevard Mirabeau","zipcode":"13210","city":"SAINT REMY DE PROVENCE","description":"\n          Cuisine Moderne, Créative; Gastronomique; Végétarien; Végétalien; Provençal        ","chef":"Fanny Rey & Jonathan Wahid","url":"https://restaurant.michelin.fr/389tiwsv/fanny-rey-jonathan-wahid-saint-remy-de-provence"},{"name":"\n      Christophe Bacquié    ","address":"Hotel du Castellet Route des Hauts du Camp","zipcode":"83330","city":"Le Castellet","description":"\n          Cuisine Moderne, Créative; Gastronomique; Provençal        ","chef":"Christophe Bacquié","url":"https://restaurant.michelin.fr/2bmu0gi/christophe-bacquie-le-castellet"},{"name":"\n      Frédéric Doucet    ","address":"2 avenue de la Libération","zipcode":"71120","city":"Charolles","description":"\n          Cuisine Moderne, Créative; Gastronomique; Cuisine Régionale Française; Végétarien        ","chef":"Frédéric Doucet","url":"https://restaurant.michelin.fr/295q5w8/frederic-doucet-charolles"},{"name":"\n      Le 39V    ","address":"39 Avenue George V","zipcode":"75008","city":"Paris 08","description":"\n          Cuisine Moderne, Créative; Traditionnel, Classique; Gastronomique        ","chef":"Frédéric Vardon","url":"https://restaurant.michelin.fr/2fd19do/le-39v-paris-08"},{"name":"\n      Fanny Rey & Jonathan Wahid    ","address":"12, boulevard Mirabeau","zipcode":"13210","city":"SAINT REMY DE PROVENCE","description":"\n          Cuisine Moderne, Créative; Gastronomique; Végétarien; Végétalien; Provençal        ","chef":"Fanny Rey & Jonathan Wahid","url":"https://restaurant.michelin.fr/389tiwsv/fanny-rey-jonathan-wahid-saint-remy-de-provence"},{"name":"\n      Les Tablettes de Jean-Louis Nomicos    ","address":"16 avenue Bugeaud","zipcode":"75116","city":"Paris 16","description":"\n          Cuisine Moderne, Créative; Gastronomique; Traditionnel, Classique        ","chef":"Jean-Louis Nomicos","url":"https://restaurant.michelin.fr/2fdwgd3/les-tablettes-de-jean-louis-nomicos-paris-16"},{"name":"\n      Paul Bocuse    ","address":"40 Rue de la Plage","zipcode":"69660","city":"Collonges-au-Mont-d'Or","description":"\n          Traditionnel, Classique; Gastronomique; Lyonnais; Végétarien; Végétalien        ","chef":"Paul BOCUSE","url":"https://restaurant.michelin.fr/29tbf1t/paul-bocuse-collonges-au-mont-dor"},{"name":"\n      La Liégeoise    ","address":"digue de mer","zipcode":"62930","city":"Wimereux","description":"\n          Cuisine Moderne, Créative        ","chef":"Benjamin Delpierre","url":"https://restaurant.michelin.fr/2fa1zgi202/la-liegeoise-wimereux"},{"name":"\n      Frédéric Doucet    ","address":"2 avenue de la Libération","zipcode":"71120","city":"Charolles","description":"\n          Cuisine Moderne, Créative; Gastronomique; Cuisine Régionale Française; Végétarien        ","chef":"Frédéric Doucet","url":"https://restaurant.michelin.fr/295q5w8/frederic-doucet-charolles"},{"name":"\n      Christophe Bacquié    ","address":"Hotel du Castellet Route des Hauts du Camp","zipcode":"83330","city":"Le Castellet","description":"\n          Cuisine Moderne, Créative; Gastronomique; Provençal        ","chef":"Christophe Bacquié","url":"https://restaurant.michelin.fr/2bmu0gi/christophe-bacquie-le-castellet"},{"name":"\n      Le 39V    ","address":"39 Avenue George V","zipcode":"75008","city":"Paris 08","description":"","chef":"","url":"https://restaurant.michelin.fr/2fd19do/le-39v-paris-08"},{"name":"\n      Agapé    ","address":"51 rue Jouffroy-d'Abbans","zipcode":"75017","city":"Paris 17","description":"\n          Cuisine Moderne, Créative; Gastronomique        ","chef":"Yoshitaka Takayanagi","url":"https://restaurant.michelin.fr/2eo1t6h/agape-paris-17"},{"name":"\n      Le Restaurant    ","address":"13 rue des Beaux-Arts","zipcode":"75006","city":"Paris 06","description":"\n          Cuisine Moderne, Créative; Gastronomique        ","chef":"Julien Montbabut","url":"https://restaurant.michelin.fr/2cfem9h/le-restaurant-paris-06"},{"name":"\n      Les Tablettes de Jean-Louis Nomicos    ","address":"16 avenue Bugeaud","zipcode":"75116","city":"Paris 16","description":"\n          Cuisine Moderne, Créative; Gastronomique; Traditionnel, Classique        ","chef":"Jean-Louis Nomicos","url":"https://restaurant.michelin.fr/2fdwgd3/les-tablettes-de-jean-louis-nomicos-paris-16"},{"name":"\n      La Tour des Vents    ","address":"Le Moulin de Malfourat","zipcode":"24240","city":"Monbazillac","description":"\n          Cuisine Moderne, Créative; Traditionnel, Classique; Végétarien; Végétalien        ","chef":"Damien Fagette","url":"https://restaurant.michelin.fr/28vws7k/la-tour-des-vents-monbazillac"},{"name":"\n      Paul Bocuse    ","address":"40 Rue de la Plage","zipcode":"69660","city":"Collonges-au-Mont-d'Or","description":"\n          Traditionnel, Classique; Gastronomique; Lyonnais; Végétarien; Végétalien        ","chef":"Paul BOCUSE","url":"https://restaurant.michelin.fr/29tbf1t/paul-bocuse-collonges-au-mont-dor"},{"name":"\n      Christophe Bacquié    ","address":"Hotel du Castellet Route des Hauts du Camp","zipcode":"83330","city":"Le Castellet","description":"\n          Cuisine Moderne, Créative; Gastronomique; Provençal        ","chef":"Christophe Bacquié","url":"https://restaurant.michelin.fr/2bmu0gi/christophe-bacquie-le-castellet"},{"name":"\n      Les Tablettes de Jean-Louis Nomicos    ","address":"16 avenue Bugeaud","zipcode":"75116","city":"Paris 16","description":"\n          Cuisine Moderne, Créative; Gastronomique; Traditionnel, Classique        ","chef":"Jean-Louis Nomicos","url":"https://restaurant.michelin.fr/2fdwgd3/les-tablettes-de-jean-louis-nomicos-paris-16"},{"name":"\n      Christophe Bacquié    ","address":"Hotel du Castellet Route des Hauts du Camp","zipcode":"83330","city":"Le Castellet","description":"\n          Cuisine Moderne, Créative; Gastronomique; Provençal        ","chef":"Christophe Bacquié","url":"https://restaurant.michelin.fr/2bmu0gi/christophe-bacquie-le-castellet"},{"name":"\n      Le 39V    ","address":"39 Avenue George V","zipcode":"75008","city":"Paris 08","description":"\n          Cuisine Moderne, Créative; Traditionnel, Classique; Gastronomique        ","chef":"Frédéric Vardon","url":"https://restaurant.michelin.fr/2fd19do/le-39v-paris-08"},{"name":"\n      JY'S    ","address":"17 r. de la Poissonnerie","zipcode":"68000","city":"Colmar","description":"\n          Cuisine Moderne, Créative; Gastronomique        ","chef":"Jean-Yves Schillinger","url":"https://restaurant.michelin.fr/298563e/jys-colmar"},{"name":"\n      Les Pêcheurs    ","address":"10 boulevard du Maréchal-Juin","zipcode":"06600","city":"Antibes","description":"\n          Méditerranéen; Poissons, Fruits de Mer; Gastronomique; Végétarien; Végétalien; Traditionnel, Classique        ","chef":"Nicolas RONDELLI","url":"https://restaurant.michelin.fr/29ol879/les-pecheurs-antibes"},{"name":"\n      Le Saint-Estève    ","address":"2250 route cézanne D17","zipcode":"13100","city":"Le Tholonet","description":"\n          Cuisine Moderne, Créative; Gastronomique; Végétarien; Végétalien        ","chef":"Mathias Dandine","url":"https://restaurant.michelin.fr/2x1lce26/le-saint-esteve-le-tholonet"},{"name":"\n      Fanny Rey & Jonathan Wahid    ","address":"12, boulevard Mirabeau","zipcode":"13210","city":"SAINT REMY DE PROVENCE","description":"\n          Cuisine Moderne, Créative; Gastronomique; Végétarien; Végétalien; Provençal        ","chef":"Fanny Rey & Jonathan Wahid","url":"https://restaurant.michelin.fr/389tiwsv/fanny-rey-jonathan-wahid-saint-remy-de-provence"},{"name":"\n      Les Pêcheurs    ","address":"10 boulevard du Maréchal-Juin","zipcode":"06600","city":"Antibes","description":"\n          Méditerranéen; Poissons, Fruits de Mer; Gastronomique; Végétarien; Végétalien; Traditionnel, Classique        ","chef":"Nicolas RONDELLI","url":"https://restaurant.michelin.fr/29ol879/les-pecheurs-antibes"},{"name":"\n      Le Restaurant    ","address":"13 rue des Beaux-Arts","zipcode":"75006","city":"Paris 06","description":"\n          Cuisine Moderne, Créative; Gastronomique        ","chef":"Julien Montbabut","url":"https://restaurant.michelin.fr/2cfem9h/le-restaurant-paris-06"},{"name":"\n      Le Saint-Estève    ","address":"2250 route cézanne D17","zipcode":"13100","city":"Le Tholonet","description":"\n          Cuisine Moderne, Créative; Gastronomique; Végétarien; Végétalien        ","chef":"Mathias Dandine","url":"https://restaurant.michelin.fr/2x1lce26/le-saint-esteve-le-tholonet"},{"name":"\n      Agapé    ","address":"51 rue Jouffroy-d'Abbans","zipcode":"75017","city":"Paris 17","description":"\n          Cuisine Moderne, Créative; Gastronomique        ","chef":"Yoshitaka Takayanagi","url":"https://restaurant.michelin.fr/2eo1t6h/agape-paris-17"},{"name":"\n      Paul Bocuse    ","address":"40 Rue de la Plage","zipcode":"69660","city":"Collonges-au-Mont-d'Or","description":"\n          Traditionnel, Classique; Gastronomique; Lyonnais; Végétarien; Végétalien        ","chef":"Paul BOCUSE","url":"https://restaurant.michelin.fr/29tbf1t/paul-bocuse-collonges-au-mont-dor"},{"name":"\n      Le Pré Catelan    ","address":"Route de Suresnes","zipcode":"75016","city":"Paris","description":"\n          Cuisine Moderne, Créative        ","chef":"Chef Frédéric Anton","url":"https://restaurant.michelin.fr/2af46v7/le-pre-catelan-paris-16"},{"name":"\n      La Liégeoise    ","address":"digue de mer","zipcode":"62930","city":"Wimereux","description":"\n          Cuisine Moderne, Créative        ","chef":"Benjamin Delpierre","url":"https://restaurant.michelin.fr/2fa1zgi202/la-liegeoise-wimereux"},{"name":"\n      Le Restaurant    ","address":"13 rue des Beaux-Arts","zipcode":"75006","city":"Paris 06","description":"","chef":"","url":"https://restaurant.michelin.fr/2cfem9h/le-restaurant-paris-06"},{"name":"\n      Le 39V    ","address":"39 Avenue George V","zipcode":"75008","city":"Paris 08","description":"","chef":"","url":"https://restaurant.michelin.fr/2fd19do/le-39v-paris-08"},{"name":"\n      Fanny Rey & Jonathan Wahid    ","address":"12, boulevard Mirabeau","zipcode":"13210","city":"SAINT REMY DE PROVENCE","description":"","chef":"","url":"https://restaurant.michelin.fr/389tiwsv/fanny-rey-jonathan-wahid-saint-remy-de-provence"},{"name":"\n      Paul Bocuse    ","address":"40 Rue de la Plage","zipcode":"69660","city":"Collonges-au-Mont-d'Or","description":"","chef":"","url":"https://restaurant.michelin.fr/29tbf1t/paul-bocuse-collonges-au-mont-dor"},{"name":"\n      La Table de Franck Putelat    ","address":"80 chemin des Anglais","zipcode":"11000","city":"Carcassonne","description":"","chef":"","url":"https://restaurant.michelin.fr/2e06z2s/la-table-de-franck-putelat-carcassonne"},{"name":"\n      Le Restaurant    ","address":"13 rue des Beaux-Arts","zipcode":"75006","city":"Paris 06","description":"","chef":"","url":"https://restaurant.michelin.fr/2cfem9h/le-restaurant-paris-06"},{"name":"\n      Le Saint-Estève    ","address":"2250 route cézanne D17","zipcode":"13100","city":"Le Tholonet","description":"","chef":"","url":"https://restaurant.michelin.fr/2x1lce26/le-saint-esteve-le-tholonet"},{"name":"\n      La Table de Franck Putelat    ","address":"80 chemin des Anglais","zipcode":"11000","city":"Carcassonne","description":"","chef":"","url":"https://restaurant.michelin.fr/2e06z2s/la-table-de-franck-putelat-carcassonne"},{"name":"\n      JY'S    ","address":"17 r. de la Poissonnerie","zipcode":"68000","city":"Colmar","description":"","chef":"","url":"https://restaurant.michelin.fr/298563e/jys-colmar"},{"name":"\n      JY'S    ","address":"17 r. de la Poissonnerie","zipcode":"68000","city":"Colmar","description":"","chef":"","url":"https://restaurant.michelin.fr/298563e/jys-colmar"},{"name":"\n      Les Tablettes de Jean-Louis Nomicos    ","address":"16 avenue Bugeaud","zipcode":"75116","city":"Paris 16","description":"\n          Cuisine Moderne, Créative; Gastronomique; Traditionnel, Classique        ","chef":"Jean-Louis Nomicos","url":"https://restaurant.michelin.fr/2fdwgd3/les-tablettes-de-jean-louis-nomicos-paris-16"},{"name":"\n      La Liégeoise    ","address":"digue de mer","zipcode":"62930","city":"Wimereux","description":"","chef":"","url":"https://restaurant.michelin.fr/2fa1zgi202/la-liegeoise-wimereux"},{"name":"\n      Les Pêcheurs    ","address":"10 boulevard du Maréchal-Juin","zipcode":"06600","city":"Antibes","description":"\n          Méditerranéen; Poissons, Fruits de Mer; Gastronomique; Végétarien; Végétalien; Traditionnel, Classique        ","chef":"Nicolas RONDELLI","url":"https://restaurant.michelin.fr/29ol879/les-pecheurs-antibes"},{"name":"\n      Le 39V    ","address":"39 Avenue George V","zipcode":"75008","city":"Paris 08","description":"\n          Cuisine Moderne, Créative; Traditionnel, Classique; Gastronomique        ","chef":"Frédéric Vardon","url":"https://restaurant.michelin.fr/2fd19do/le-39v-paris-08"},{"name":"\n      Emporio Armani Caffè    ","address":"149 bd St-Germain","zipcode":"75006","city":"Paris 06","description":"\n          Italien; Gastronomique        ","chef":"Massimo Mori","url":"https://restaurant.michelin.fr/2a9obdn/emporio-armani-caffe-paris-06"},{"name":"\n      Agapé    ","address":"51 rue Jouffroy-d'Abbans","zipcode":"75017","city":"Paris 17","description":"\n          Cuisine Moderne, Créative; Gastronomique        ","chef":"Yoshitaka Takayanagi","url":"https://restaurant.michelin.fr/2eo1t6h/agape-paris-17"},{"name":"\n      La Liégeoise    ","address":"digue de mer","zipcode":"62930","city":"Wimereux","description":"\n          Cuisine Moderne, Créative        ","chef":"Benjamin Delpierre","url":"https://restaurant.michelin.fr/2fa1zgi202/la-liegeoise-wimereux"},{"name":"\n      Le Restaurant    ","address":"13 rue des Beaux-Arts","zipcode":"75006","city":"Paris 06","description":"\n          Cuisine Moderne, Créative; Gastronomique        ","chef":"Julien Montbabut","url":"https://restaurant.michelin.fr/2cfem9h/le-restaurant-paris-06"},{"name":"\n      La Table de Franck Putelat    ","address":"80 chemin des Anglais","zipcode":"11000","city":"Carcassonne","description":"\n          Cuisine Moderne, Créative; Gastronomique; Végétarien; Végétalien        ","chef":"Mr Franck PUTELAT","url":"https://restaurant.michelin.fr/2e06z2s/la-table-de-franck-putelat-carcassonne"},{"name":"\n      Le 39V    ","address":"39 Avenue George V","zipcode":"75008","city":"Paris 08","description":"\n          Cuisine Moderne, Créative; Traditionnel, Classique; Gastronomique        ","chef":"Frédéric Vardon","url":"https://restaurant.michelin.fr/2fd19do/le-39v-paris-08"},{"name":"\n      Emporio Armani Caffè    ","address":"149 bd St-Germain","zipcode":"75006","city":"Paris 06","description":"\n          Italien; Gastronomique        ","chef":"Massimo Mori","url":"https://restaurant.michelin.fr/2a9obdn/emporio-armani-caffe-paris-06"},{"name":"\n      La Table de Franck Putelat    ","address":"80 chemin des Anglais","zipcode":"11000","city":"Carcassonne","description":"\n          Cuisine Moderne, Créative; Gastronomique; Végétarien; Végétalien        ","chef":"Mr Franck PUTELAT","url":"https://restaurant.michelin.fr/2e06z2s/la-table-de-franck-putelat-carcassonne"},{"name":"\n      Paul Bocuse    ","address":"40 Rue de la Plage","zipcode":"69660","city":"Collonges-au-Mont-d'Or","description":"\n          Traditionnel, Classique; Gastronomique; Lyonnais; Végétarien; Végétalien        ","chef":"Paul BOCUSE","url":"https://restaurant.michelin.fr/29tbf1t/paul-bocuse-collonges-au-mont-dor"},{"name":"\n      Fanny Rey & Jonathan Wahid    ","address":"12, boulevard Mirabeau","zipcode":"13210","city":"SAINT REMY DE PROVENCE","description":"\n          Cuisine Moderne, Créative; Gastronomique; Végétarien; Végétalien; Provençal        ","chef":"Fanny Rey & Jonathan Wahid","url":"https://restaurant.michelin.fr/389tiwsv/fanny-rey-jonathan-wahid-saint-remy-de-provence"},{"name":"\n      Le Restaurant    ","address":"13 rue des Beaux-Arts","zipcode":"75006","city":"Paris 06","description":"\n          Cuisine Moderne, Créative; Gastronomique        ","chef":"Julien Montbabut","url":"https://restaurant.michelin.fr/2cfem9h/le-restaurant-paris-06"},{"name":"\n      Frédéric Doucet    ","address":"2 avenue de la Libération","zipcode":"71120","city":"Charolles","description":"\n          Cuisine Moderne, Créative; Gastronomique; Cuisine Régionale Française; Végétarien        ","chef":"Frédéric Doucet","url":"https://restaurant.michelin.fr/295q5w8/frederic-doucet-charolles"},{"name":"\n      Emporio Armani Caffè    ","address":"149 bd St-Germain","zipcode":"75006","city":"Paris 06","description":"","chef":"","url":"https://restaurant.michelin.fr/2a9obdn/emporio-armani-caffe-paris-06"},{"name":"\n      La Liégeoise    ","address":"digue de mer","zipcode":"62930","city":"Wimereux","description":"","chef":"","url":"https://restaurant.michelin.fr/2fa1zgi202/la-liegeoise-wimereux"},{"name":"\n      Emporio Armani Caffè    ","address":"149 bd St-Germain","zipcode":"75006","city":"Paris 06","description":"\n          Italien; Gastronomique        ","chef":"Massimo Mori","url":"https://restaurant.michelin.fr/2a9obdn/emporio-armani-caffe-paris-06"},{"name":"\n      Les Pêcheurs    ","address":"10 boulevard du Maréchal-Juin","zipcode":"06600","city":"Antibes","description":"\n          Méditerranéen; Poissons, Fruits de Mer; Gastronomique; Végétarien; Végétalien; Traditionnel, Classique        ","chef":"Nicolas RONDELLI","url":"https://restaurant.michelin.fr/29ol879/les-pecheurs-antibes"},{"name":"\n      Le Pré Catelan    ","address":"Route de Suresnes","zipcode":"75016","city":"Paris","description":"\n          Cuisine Moderne, Créative        ","chef":"Chef Frédéric Anton","url":"https://restaurant.michelin.fr/2af46v7/le-pre-catelan-paris-16"},{"name":"\n      Les Pêcheurs    ","address":"10 boulevard du Maréchal-Juin","zipcode":"06600","city":"Antibes","description":"\n          Méditerranéen; Poissons, Fruits de Mer; Gastronomique; Végétarien; Végétalien; Traditionnel, Classique        ","chef":"Nicolas RONDELLI","url":"https://restaurant.michelin.fr/29ol879/les-pecheurs-antibes"},{"name":"\n      Christophe Bacquié    ","address":"Hotel du Castellet Route des Hauts du Camp","zipcode":"83330","city":"Le Castellet","description":"","chef":"","url":"https://restaurant.michelin.fr/2bmu0gi/christophe-bacquie-le-castellet"},{"name":"\n      Le Saint-Estève    ","address":"2250 route cézanne D17","zipcode":"13100","city":"Le Tholonet","description":"","chef":"","url":"https://restaurant.michelin.fr/2x1lce26/le-saint-esteve-le-tholonet"},{"name":"\n      Auberge de l'Île Barbe    ","address":"1 Place Notre-Dame","zipcode":"69009","city":"Lyon 09","description":"\n          Traditionnel, Classique; Cuisine Moderne, Créative; Gastronomique        ","chef":"Jean-Christophe Ansanay-Alex","url":"https://restaurant.michelin.fr/29tj1pj/auberge-de-lile-barbe-lyon-09"},{"name":"\n      Frédéric Doucet    ","address":"2 avenue de la Libération","zipcode":"71120","city":"Charolles","description":"","chef":"","url":"https://restaurant.michelin.fr/295q5w8/frederic-doucet-charolles"},{"name":"\n      Agapé    ","address":"51 rue Jouffroy-d'Abbans","zipcode":"75017","city":"Paris 17","description":"","chef":"","url":"https://restaurant.michelin.fr/2eo1t6h/agape-paris-17"},{"name":"\n      Les Tablettes de Jean-Louis Nomicos    ","address":"16 avenue Bugeaud","zipcode":"75116","city":"Paris 16","description":"","chef":"","url":"https://restaurant.michelin.fr/2fdwgd3/les-tablettes-de-jean-louis-nomicos-paris-16"},{"name":"\n      La Tour des Vents    ","address":"Le Moulin de Malfourat","zipcode":"24240","city":"Monbazillac","description":"\n          Cuisine Moderne, Créative; Traditionnel, Classique; Végétarien; Végétalien        ","chef":"Damien Fagette","url":"https://restaurant.michelin.fr/28vws7k/la-tour-des-vents-monbazillac"},{"name":"\n      Le Restaurant    ","address":"13 rue des Beaux-Arts","zipcode":"75006","city":"Paris 06","description":"\n          Cuisine Moderne, Créative; Gastronomique        ","chef":"Julien Montbabut","url":"https://restaurant.michelin.fr/2cfem9h/le-restaurant-paris-06"},{"name":"\n      Le Pré Catelan    ","address":"Route de Suresnes","zipcode":"75016","city":"Paris","description":"\n          Cuisine Moderne, Créative        ","chef":"Chef Frédéric Anton","url":"https://restaurant.michelin.fr/2af46v7/le-pre-catelan-paris-16"},{"name":"\n      Le Saint-Estève    ","address":"2250 route cézanne D17","zipcode":"13100","city":"Le Tholonet","description":"","chef":"","url":"https://restaurant.michelin.fr/2x1lce26/le-saint-esteve-le-tholonet"},{"name":"\n      JY'S    ","address":"17 r. de la Poissonnerie","zipcode":"68000","city":"Colmar","description":"","chef":"","url":"https://restaurant.michelin.fr/298563e/jys-colmar"},{"name":"\n      Fanny Rey & Jonathan Wahid    ","address":"12, boulevard Mirabeau","zipcode":"13210","city":"SAINT REMY DE PROVENCE","description":"\n          Cuisine Moderne, Créative; Gastronomique; Végétarien; Végétalien; Provençal        ","chef":"Fanny Rey & Jonathan Wahid","url":"https://restaurant.michelin.fr/389tiwsv/fanny-rey-jonathan-wahid-saint-remy-de-provence"},{"name":"\n      Le 39V    ","address":"39 Avenue George V","zipcode":"75008","city":"Paris 08","description":"\n          Cuisine Moderne, Créative; Traditionnel, Classique; Gastronomique        ","chef":"Frédéric Vardon","url":"https://restaurant.michelin.fr/2fd19do/le-39v-paris-08"},{"name":"\n      La Tour des Vents    ","address":"Le Moulin de Malfourat","zipcode":"24240","city":"Monbazillac","description":"\n          Cuisine Moderne, Créative; Traditionnel, Classique; Végétarien; Végétalien        ","chef":"Damien Fagette","url":"https://restaurant.michelin.fr/28vws7k/la-tour-des-vents-monbazillac"},{"name":"\n      Les Pêcheurs    ","address":"10 boulevard du Maréchal-Juin","zipcode":"06600","city":"Antibes","description":"\n          Méditerranéen; Poissons, Fruits de Mer; Gastronomique; Végétarien; Végétalien; Traditionnel, Classique        ","chef":"Nicolas RONDELLI","url":"https://restaurant.michelin.fr/29ol879/les-pecheurs-antibes"},{"name":"\n      Frédéric Doucet    ","address":"2 avenue de la Libération","zipcode":"71120","city":"Charolles","description":"\n          Cuisine Moderne, Créative; Gastronomique; Cuisine Régionale Française; Végétarien        ","chef":"Frédéric Doucet","url":"https://restaurant.michelin.fr/295q5w8/frederic-doucet-charolles"},{"name":"\n      Les Tablettes de Jean-Louis Nomicos    ","address":"16 avenue Bugeaud","zipcode":"75116","city":"Paris 16","description":"","chef":"","url":"https://restaurant.michelin.fr/2fdwgd3/les-tablettes-de-jean-louis-nomicos-paris-16"},{"name":"\n      Fanny Rey & Jonathan Wahid    ","address":"12, boulevard Mirabeau","zipcode":"13210","city":"SAINT REMY DE PROVENCE","description":"","chef":"","url":"https://restaurant.michelin.fr/389tiwsv/fanny-rey-jonathan-wahid-saint-remy-de-provence"},{"name":"\n      Fanny Rey & Jonathan Wahid    ","address":"12, boulevard Mirabeau","zipcode":"13210","city":"SAINT REMY DE PROVENCE","description":"","chef":"","url":"https://restaurant.michelin.fr/389tiwsv/fanny-rey-jonathan-wahid-saint-remy-de-provence"},{"name":"\n      Le Jardin des Remparts    ","address":"10 rue Hôtel-Dieu","zipcode":"21200","city":"Beaune","description":"","chef":"","url":"https://restaurant.michelin.fr/28u6ql7/le-jardin-des-remparts-beaune"},{"name":"\n      Paul Bocuse    ","address":"40 Rue de la Plage","zipcode":"69660","city":"Collonges-au-Mont-d'Or","description":"","chef":"","url":"https://restaurant.michelin.fr/29tbf1t/paul-bocuse-collonges-au-mont-dor"},{"name":"\n      Frédéric Doucet    ","address":"2 avenue de la Libération","zipcode":"71120","city":"Charolles","description":"","chef":"","url":"https://restaurant.michelin.fr/295q5w8/frederic-doucet-charolles"},{"name":"\n      Les Tablettes de Jean-Louis Nomicos    ","address":"16 avenue Bugeaud","zipcode":"75116","city":"Paris 16","description":"","chef":"","url":"https://restaurant.michelin.fr/2fdwgd3/les-tablettes-de-jean-louis-nomicos-paris-16"},{"name":"\n      Le Saint-Estève    ","address":"2250 route cézanne D17","zipcode":"13100","city":"Le Tholonet","description":"\n          Cuisine Moderne, Créative; Gastronomique; Végétarien; Végétalien        ","chef":"Mathias Dandine","url":"https://restaurant.michelin.fr/2x1lce26/le-saint-esteve-le-tholonet"},{"name":"\n      La Table de Franck Putelat    ","address":"80 chemin des Anglais","zipcode":"11000","city":"Carcassonne","description":"","chef":"","url":"https://restaurant.michelin.fr/2e06z2s/la-table-de-franck-putelat-carcassonne"},{"name":"\n      Christophe Bacquié    ","address":"Hotel du Castellet Route des Hauts du Camp","zipcode":"83330","city":"Le Castellet","description":"","chef":"","url":"https://restaurant.michelin.fr/2bmu0gi/christophe-bacquie-le-castellet"},{"name":"\n      Le Saint-Estève    ","address":"2250 route cézanne D17","zipcode":"13100","city":"Le Tholonet","description":"","chef":"","url":"https://restaurant.michelin.fr/2x1lce26/le-saint-esteve-le-tholonet"},{"name":"\n      Auberge de l'Île Barbe    ","address":"1 Place Notre-Dame","zipcode":"69009","city":"Lyon 09","description":"\n          Traditionnel, Classique; Cuisine Moderne, Créative; Gastronomique        ","chef":"Jean-Christophe Ansanay-Alex","url":"https://restaurant.michelin.fr/29tj1pj/auberge-de-lile-barbe-lyon-09"},{"name":"\n      JY'S    ","address":"17 r. de la Poissonnerie","zipcode":"68000","city":"Colmar","description":"\n          Cuisine Moderne, Créative; Gastronomique        ","chef":"Jean-Yves Schillinger","url":"https://restaurant.michelin.fr/298563e/jys-colmar"},{"name":"\n      Le Pré Catelan    ","address":"Route de Suresnes","zipcode":"75016","city":"Paris","description":"","chef":"","url":"https://restaurant.michelin.fr/2af46v7/le-pre-catelan-paris-16"},{"name":"\n      Le Saint-Estève    ","address":"2250 route cézanne D17","zipcode":"13100","city":"Le Tholonet","description":"","chef":"","url":"https://restaurant.michelin.fr/2x1lce26/le-saint-esteve-le-tholonet"},{"name":"\n      JY'S    ","address":"17 r. de la Poissonnerie","zipcode":"68000","city":"Colmar","description":"","chef":"","url":"https://restaurant.michelin.fr/298563e/jys-colmar"},{"name":"\n      Auberge de l'Île Barbe    ","address":"1 Place Notre-Dame","zipcode":"69009","city":"Lyon 09","description":"","chef":"","url":"https://restaurant.michelin.fr/29tj1pj/auberge-de-lile-barbe-lyon-09"},{"name":"\n      Christophe Bacquié    ","address":"Hotel du Castellet Route des Hauts du Camp","zipcode":"83330","city":"Le Castellet","description":"","chef":"","url":"https://restaurant.michelin.fr/2bmu0gi/christophe-bacquie-le-castellet"},{"name":"\n      Frédéric Doucet    ","address":"2 avenue de la Libération","zipcode":"71120","city":"Charolles","description":"","chef":"","url":"https://restaurant.michelin.fr/295q5w8/frederic-doucet-charolles"},{"name":"\n      La Liégeoise    ","address":"digue de mer","zipcode":"62930","city":"Wimereux","description":"","chef":"","url":"https://restaurant.michelin.fr/2fa1zgi202/la-liegeoise-wimereux"},{"name":"\n      Les Tablettes de Jean-Louis Nomicos    ","address":"16 avenue Bugeaud","zipcode":"75116","city":"Paris 16","description":"","chef":"","url":"https://restaurant.michelin.fr/2fdwgd3/les-tablettes-de-jean-louis-nomicos-paris-16"},{"name":"\n      La Liégeoise    ","address":"digue de mer","zipcode":"62930","city":"Wimereux","description":"\n          Cuisine Moderne, Créative        ","chef":"Benjamin Delpierre","url":"https://restaurant.michelin.fr/2fa1zgi202/la-liegeoise-wimereux"},{"name":"\n      Le Pré Catelan    ","address":"Route de Suresnes","zipcode":"75016","city":"Paris","description":"","chef":"","url":"https://restaurant.michelin.fr/2af46v7/le-pre-catelan-paris-16"},{"name":"\n      Frédéric Doucet    ","address":"2 avenue de la Libération","zipcode":"71120","city":"Charolles","description":"\n          Cuisine Moderne, Créative; Gastronomique; Cuisine Régionale Française; Végétarien        ","chef":"","url":"https://restaurant.michelin.fr/295q5w8/frederic-doucet-charolles"},{"name":"\n      Emporio Armani Caffè    ","address":"149 bd St-Germain","zipcode":"75006","city":"Paris 06","description":"\n          Italien; Gastronomique        ","chef":"Massimo Mori","url":"https://restaurant.michelin.fr/2a9obdn/emporio-armani-caffe-paris-06"},{"name":"\n      Auberge de l'Île Barbe    ","address":"1 Place Notre-Dame","zipcode":"69009","city":"Lyon 09","description":"","chef":"","url":"https://restaurant.michelin.fr/29tj1pj/auberge-de-lile-barbe-lyon-09"},{"name":"\n      Le Jardin des Remparts    ","address":"10 rue Hôtel-Dieu","zipcode":"21200","city":"Beaune","description":"","chef":"","url":"https://restaurant.michelin.fr/28u6ql7/le-jardin-des-remparts-beaune"},{"name":"\n      Fanny Rey & Jonathan Wahid    ","address":"12, boulevard Mirabeau","zipcode":"13210","city":"SAINT REMY DE PROVENCE","description":"\n          Cuisine Moderne, Créative; Gastronomique; Végétarien; Végétalien; Provençal        ","chef":"Fanny Rey & Jonathan Wahid","url":"https://restaurant.michelin.fr/389tiwsv/fanny-rey-jonathan-wahid-saint-remy-de-provence"},{"name":"\n      Emporio Armani Caffè    ","address":"149 bd St-Germain","zipcode":"75006","city":"Paris 06","description":"","chef":"","url":"https://restaurant.michelin.fr/2a9obdn/emporio-armani-caffe-paris-06"},{"name":"\n      Le Restaurant    ","address":"13 rue des Beaux-Arts","zipcode":"75006","city":"Paris 06","description":"","chef":"","url":"https://restaurant.michelin.fr/2cfem9h/le-restaurant-paris-06"},{"name":"\n      Le 39V    ","address":"39 Avenue George V","zipcode":"75008","city":"Paris 08","description":"\n          Cuisine Moderne, Créative; Traditionnel, Classique; Gastronomique        ","chef":"Frédéric Vardon","url":"https://restaurant.michelin.fr/2fd19do/le-39v-paris-08"},{"name":"\n      Le 39V    ","address":"39 Avenue George V","zipcode":"75008","city":"Paris 08","description":"","chef":"","url":"https://restaurant.michelin.fr/2fd19do/le-39v-paris-08"},{"name":"\n      La Liégeoise    ","address":"digue de mer","zipcode":"62930","city":"Wimereux","description":"\n          Cuisine Moderne, Créative        ","chef":"Benjamin Delpierre","url":"https://restaurant.michelin.fr/2fa1zgi202/la-liegeoise-wimereux"},{"name":"\n      Le Restaurant    ","address":"13 rue des Beaux-Arts","zipcode":"75006","city":"Paris 06","description":"","chef":"","url":"https://restaurant.michelin.fr/2cfem9h/le-restaurant-paris-06"},{"name":"\n      Auberge de l'Île Barbe    ","address":"1 Place Notre-Dame","zipcode":"69009","city":"Lyon 09","description":"","chef":"","url":"https://restaurant.michelin.fr/29tj1pj/auberge-de-lile-barbe-lyon-09"},{"name":"\n      JY'S    ","address":"17 r. de la Poissonnerie","zipcode":"68000","city":"Colmar","description":"","chef":"","url":"https://restaurant.michelin.fr/298563e/jys-colmar"},{"name":"\n      La Liégeoise    ","address":"digue de mer","zipcode":"62930","city":"Wimereux","description":"\n          Cuisine Moderne, Créative        ","chef":"Benjamin Delpierre","url":"https://restaurant.michelin.fr/2fa1zgi202/la-liegeoise-wimereux"},{"name":"\n      Auberge de l'Île Barbe    ","address":"1 Place Notre-Dame","zipcode":"69009","city":"Lyon 09","description":"","chef":"","url":"https://restaurant.michelin.fr/29tj1pj/auberge-de-lile-barbe-lyon-09"},{"name":"\n      Auberge de l'Île Barbe    ","address":"1 Place Notre-Dame","zipcode":"69009","city":"Lyon 09","description":"\n          Traditionnel, Classique; Cuisine Moderne, Créative; Gastronomique        ","chef":"Jean-Christophe Ansanay-Alex","url":"https://restaurant.michelin.fr/29tj1pj/auberge-de-lile-barbe-lyon-09"},{"name":"\n      Agapé    ","address":"51 rue Jouffroy-d'Abbans","zipcode":"75017","city":"Paris 17","description":"\n          Cuisine Moderne, Créative; Gastronomique        ","chef":"Yoshitaka Takayanagi","url":"https://restaurant.michelin.fr/2eo1t6h/agape-paris-17"},{"name":"\n      Agapé    ","address":"51 rue Jouffroy-d'Abbans","zipcode":"75017","city":"Paris 17","description":"","chef":"","url":"https://restaurant.michelin.fr/2eo1t6h/agape-paris-17"},{"name":"\n      Le 39V    ","address":"39 Avenue George V","zipcode":"75008","city":"Paris 08","description":"","chef":"","url":"https://restaurant.michelin.fr/2fd19do/le-39v-paris-08"},{"name":"\n      La Liégeoise    ","address":"digue de mer","zipcode":"62930","city":"Wimereux","description":"","chef":"","url":"https://restaurant.michelin.fr/2fa1zgi202/la-liegeoise-wimereux"},{"name":"\n      Auberge de l'Île Barbe    ","address":"1 Place Notre-Dame","zipcode":"69009","city":"Lyon 09","description":"\n          Traditionnel, Classique; Cuisine Moderne, Créative; Gastronomique        ","chef":"Jean-Christophe Ansanay-Alex","url":"https://restaurant.michelin.fr/29tj1pj/auberge-de-lile-barbe-lyon-09"},{"name":"\n      Emporio Armani Caffè    ","address":"149 bd St-Germain","zipcode":"75006","city":"Paris 06","description":"","chef":"","url":"https://restaurant.michelin.fr/2a9obdn/emporio-armani-caffe-paris-06"},{"name":"\n      Le Restaurant    ","address":"13 rue des Beaux-Arts","zipcode":"75006","city":"Paris 06","description":"\n          Cuisine Moderne, Créative; Gastronomique        ","chef":"Julien Montbabut","url":"https://restaurant.michelin.fr/2cfem9h/le-restaurant-paris-06"},{"name":"\n      Le Pré Catelan    ","address":"Route de Suresnes","zipcode":"75016","city":"Paris","description":"","chef":"","url":"https://restaurant.michelin.fr/2af46v7/le-pre-catelan-paris-16"},{"name":"\n      Les Pêcheurs    ","address":"10 boulevard du Maréchal-Juin","zipcode":"06600","city":"Antibes","description":"","chef":"","url":"https://restaurant.michelin.fr/29ol879/les-pecheurs-antibes"},{"name":"\n      Le Restaurant    ","address":"13 rue des Beaux-Arts","zipcode":"75006","city":"Paris 06","description":"","chef":"","url":"https://restaurant.michelin.fr/2cfem9h/le-restaurant-paris-06"},{"name":"\n      Le Jardin des Remparts    ","address":"10 rue Hôtel-Dieu","zipcode":"21200","city":"Beaune","description":"","chef":"","url":"https://restaurant.michelin.fr/28u6ql7/le-jardin-des-remparts-beaune"},{"name":"\n      Christophe Bacquié    ","address":"Hotel du Castellet Route des Hauts du Camp","zipcode":"83330","city":"Le Castellet","description":"","chef":"","url":"https://restaurant.michelin.fr/2bmu0gi/christophe-bacquie-le-castellet"},{"name":"\n      Fanny Rey & Jonathan Wahid    ","address":"12, boulevard Mirabeau","zipcode":"13210","city":"SAINT REMY DE PROVENCE","description":"","chef":"","url":"https://restaurant.michelin.fr/389tiwsv/fanny-rey-jonathan-wahid-saint-remy-de-provence"},{"name":"\n      La Tour des Vents    ","address":"Le Moulin de Malfourat","zipcode":"24240","city":"Monbazillac","description":"\n          Cuisine Moderne, Créative; Traditionnel, Classique; Végétarien; Végétalien        ","chef":"Damien Fagette","url":"https://restaurant.michelin.fr/28vws7k/la-tour-des-vents-monbazillac"},{"name":"\n      Paul Bocuse    ","address":"40 Rue de la Plage","zipcode":"69660","city":"Collonges-au-Mont-d'Or","description":"","chef":"","url":"https://restaurant.michelin.fr/29tbf1t/paul-bocuse-collonges-au-mont-dor"},{"name":"\n      Christophe Bacquié    ","address":"Hotel du Castellet Route des Hauts du Camp","zipcode":"83330","city":"Le Castellet","description":"","chef":"","url":"https://restaurant.michelin.fr/2bmu0gi/christophe-bacquie-le-castellet"},{"name":"\n      La Table de Franck Putelat    ","address":"80 chemin des Anglais","zipcode":"11000","city":"Carcassonne","description":"\n          Cuisine Moderne, Créative; Gastronomique; Végétarien; Végétalien        ","chef":"Mr Franck PUTELAT","url":"https://restaurant.michelin.fr/2e06z2s/la-table-de-franck-putelat-carcassonne"},{"name":"\n      Les Pêcheurs    ","address":"10 boulevard du Maréchal-Juin","zipcode":"06600","city":"Antibes","description":"","chef":"","url":"https://restaurant.michelin.fr/29ol879/les-pecheurs-antibes"},{"name":"\n      JY'S    ","address":"17 r. de la Poissonnerie","zipcode":"68000","city":"Colmar","description":"","chef":"","url":"https://restaurant.michelin.fr/298563e/jys-colmar"},{"name":"\n      Les Pêcheurs    ","address":"10 boulevard du Maréchal-Juin","zipcode":"06600","city":"Antibes","description":"","chef":"","url":"https://restaurant.michelin.fr/29ol879/les-pecheurs-antibes"},{"name":"\n      Agapé    ","address":"51 rue Jouffroy-d'Abbans","zipcode":"75017","city":"Paris 17","description":"\n          Cuisine Moderne, Créative; Gastronomique        ","chef":"Yoshitaka Takayanagi","url":"https://restaurant.michelin.fr/2eo1t6h/agape-paris-17"},{"name":"\n      Le Saint-Estève    ","address":"2250 route cézanne D17","zipcode":"13100","city":"Le Tholonet","description":"\n          Cuisine Moderne, Créative; Gastronomique; Végétarien; Végétalien        ","chef":"Mathias Dandine","url":"https://restaurant.michelin.fr/2x1lce26/le-saint-esteve-le-tholonet"},{"name":"\n      La Tour des Vents    ","address":"Le Moulin de Malfourat","zipcode":"24240","city":"Monbazillac","description":"","chef":"","url":"https://restaurant.michelin.fr/28vws7k/la-tour-des-vents-monbazillac"},{"name":"\n      Le Restaurant    ","address":"13 rue des Beaux-Arts","zipcode":"75006","city":"Paris 06","description":"","chef":"","url":"https://restaurant.michelin.fr/2cfem9h/le-restaurant-paris-06"},{"name":"\n      Frédéric Doucet    ","address":"2 avenue de la Libération","zipcode":"71120","city":"Charolles","description":"","chef":"","url":"https://restaurant.michelin.fr/295q5w8/frederic-doucet-charolles"},{"name":"\n      Frédéric Doucet    ","address":"2 avenue de la Libération","zipcode":"71120","city":"Charolles","description":"","chef":"","url":"https://restaurant.michelin.fr/295q5w8/frederic-doucet-charolles"},{"name":"\n      Christophe Bacquié    ","address":"Hotel du Castellet Route des Hauts du Camp","zipcode":"83330","city":"Le Castellet","description":"","chef":"","url":"https://restaurant.michelin.fr/2bmu0gi/christophe-bacquie-le-castellet"},{"name":"\n      Paul Bocuse    ","address":"40 Rue de la Plage","zipcode":"69660","city":"Collonges-au-Mont-d'Or","description":"","chef":"","url":"https://restaurant.michelin.fr/29tbf1t/paul-bocuse-collonges-au-mont-dor"},{"name":"\n      Le 39V    ","address":"39 Avenue George V","zipcode":"75008","city":"Paris 08","description":"","chef":"","url":"https://restaurant.michelin.fr/2fd19do/le-39v-paris-08"},{"name":"\n      Le Saint-Estève    ","address":"2250 route cézanne D17","zipcode":"13100","city":"Le Tholonet","description":"\n          Cuisine Moderne, Créative; Gastronomique; Végétarien; Végétalien        ","chef":"Mathias Dandine","url":"https://restaurant.michelin.fr/2x1lce26/le-saint-esteve-le-tholonet"},{"name":"\n      Le Saint-Estève    ","address":"2250 route cézanne D17","zipcode":"13100","city":"Le Tholonet","description":"","chef":"","url":"https://restaurant.michelin.fr/2x1lce26/le-saint-esteve-le-tholonet"},{"name":"\n      La Liégeoise    ","address":"digue de mer","zipcode":"62930","city":"Wimereux","description":"\n          Cuisine Moderne, Créative        ","chef":"Benjamin Delpierre","url":"https://restaurant.michelin.fr/2fa1zgi202/la-liegeoise-wimereux"},{"name":"\n      Frédéric Doucet    ","address":"2 avenue de la Libération","zipcode":"71120","city":"Charolles","description":"","chef":"","url":"https://restaurant.michelin.fr/295q5w8/frederic-doucet-charolles"},{"name":"\n      Les Pêcheurs    ","address":"10 boulevard du Maréchal-Juin","zipcode":"06600","city":"Antibes","description":"\n          Méditerranéen; Poissons, Fruits de Mer; Gastronomique; Végétarien; Végétalien; Traditionnel, Classique        ","chef":"Nicolas RONDELLI","url":"https://restaurant.michelin.fr/29ol879/les-pecheurs-antibes"},{"name":"\n      Paul Bocuse    ","address":"40 Rue de la Plage","zipcode":"69660","city":"Collonges-au-Mont-d'Or","description":"\n          Traditionnel, Classique; Gastronomique; Lyonnais; Végétarien; Végétalien        ","chef":"Paul BOCUSE","url":"https://restaurant.michelin.fr/29tbf1t/paul-bocuse-collonges-au-mont-dor"},{"name":"\n      Emporio Armani Caffè    ","address":"149 bd St-Germain","zipcode":"75006","city":"Paris 06","description":"","chef":"","url":"https://restaurant.michelin.fr/2a9obdn/emporio-armani-caffe-paris-06"},{"name":"\n      Le Jardin des Remparts    ","address":"10 rue Hôtel-Dieu","zipcode":"21200","city":"Beaune","description":"","chef":"","url":"https://restaurant.michelin.fr/28u6ql7/le-jardin-des-remparts-beaune"},{"name":"\n      Auberge de l'Île Barbe    ","address":"1 Place Notre-Dame","zipcode":"69009","city":"Lyon 09","description":"","chef":"","url":"https://restaurant.michelin.fr/29tj1pj/auberge-de-lile-barbe-lyon-09"},{"name":"\n      Fanny Rey & Jonathan Wahid    ","address":"12, boulevard Mirabeau","zipcode":"13210","city":"SAINT REMY DE PROVENCE","description":"\n          Cuisine Moderne, Créative; Gastronomique; Végétarien; Végétalien; Provençal        ","chef":"Fanny Rey & Jonathan Wahid","url":"https://restaurant.michelin.fr/389tiwsv/fanny-rey-jonathan-wahid-saint-remy-de-provence"},{"name":"\n      Christophe Bacquié    ","address":"Hotel du Castellet Route des Hauts du Camp","zipcode":"83330","city":"Le Castellet","description":"\n          Cuisine Moderne, Créative; Gastronomique; Provençal        ","chef":"Christophe Bacquié","url":"https://restaurant.michelin.fr/2bmu0gi/christophe-bacquie-le-castellet"},{"name":"\n      Le Jardin des Remparts    ","address":"10 rue Hôtel-Dieu","zipcode":"21200","city":"Beaune","description":"","chef":"","url":"https://restaurant.michelin.fr/28u6ql7/le-jardin-des-remparts-beaune"},{"name":"\n      Le Restaurant    ","address":"13 rue des Beaux-Arts","zipcode":"75006","city":"Paris 06","description":"","chef":"","url":"https://restaurant.michelin.fr/2cfem9h/le-restaurant-paris-06"},{"name":"\n      La Liégeoise    ","address":"digue de mer","zipcode":"62930","city":"Wimereux","description":"","chef":"","url":"https://restaurant.michelin.fr/2fa1zgi202/la-liegeoise-wimereux"},{"name":"\n      Fanny Rey & Jonathan Wahid    ","address":"12, boulevard Mirabeau","zipcode":"13210","city":"SAINT REMY DE PROVENCE","description":"\n          Cuisine Moderne, Créative; Gastronomique; Végétarien; Végétalien; Provençal        ","chef":"Fanny Rey & Jonathan Wahid","url":"https://restaurant.michelin.fr/389tiwsv/fanny-rey-jonathan-wahid-saint-remy-de-provence"},{"name":"\n      Les Pêcheurs    ","address":"10 boulevard du Maréchal-Juin","zipcode":"06600","city":"Antibes","description":"","chef":"","url":"https://restaurant.michelin.fr/29ol879/les-pecheurs-antibes"},{"name":"\n      Frédéric Doucet    ","address":"2 avenue de la Libération","zipcode":"71120","city":"Charolles","description":"\n          Cuisine Moderne, Créative; Gastronomique; Cuisine Régionale Française; Végétarien        ","chef":"Frédéric Doucet","url":"https://restaurant.michelin.fr/295q5w8/frederic-doucet-charolles"},{"name":"\n      La Liégeoise    ","address":"digue de mer","zipcode":"62930","city":"Wimereux","description":"","chef":"","url":"https://restaurant.michelin.fr/2fa1zgi202/la-liegeoise-wimereux"},{"name":"\n      Le Pré Catelan    ","address":"Route de Suresnes","zipcode":"75016","city":"Paris","description":"\n          Cuisine Moderne, Créative        ","chef":"Chef Frédéric Anton","url":"https://restaurant.michelin.fr/2af46v7/le-pre-catelan-paris-16"},{"name":"\n      Agapé    ","address":"51 rue Jouffroy-d'Abbans","zipcode":"75017","city":"Paris 17","description":"\n          Cuisine Moderne, Créative; Gastronomique        ","chef":"Yoshitaka Takayanagi","url":"https://restaurant.michelin.fr/2eo1t6h/agape-paris-17"},{"name":"\n      Paul Bocuse    ","address":"40 Rue de la Plage","zipcode":"69660","city":"Collonges-au-Mont-d'Or","description":"","chef":"","url":"https://restaurant.michelin.fr/29tbf1t/paul-bocuse-collonges-au-mont-dor"},{"name":"\n      Les Tablettes de Jean-Louis Nomicos    ","address":"16 avenue Bugeaud","zipcode":"75116","city":"Paris 16","description":"\n          Cuisine Moderne, Créative; Gastronomique; Traditionnel, Classique        ","chef":"Jean-Louis Nomicos","url":"https://restaurant.michelin.fr/2fdwgd3/les-tablettes-de-jean-louis-nomicos-paris-16"},{"name":"\n      Fanny Rey & Jonathan Wahid    ","address":"12, boulevard Mirabeau","zipcode":"13210","city":"SAINT REMY DE PROVENCE","description":"\n          Cuisine Moderne, Créative; Gastronomique; Végétarien; Végétalien; Provençal        ","chef":"Fanny Rey & Jonathan Wahid","url":"https://restaurant.michelin.fr/389tiwsv/fanny-rey-jonathan-wahid-saint-remy-de-provence"},{"name":"\n      Christophe Bacquié    ","address":"Hotel du Castellet Route des Hauts du Camp","zipcode":"83330","city":"Le Castellet","description":"\n          Cuisine Moderne, Créative; Gastronomique; Provençal        ","chef":"Christophe Bacquié","url":"https://restaurant.michelin.fr/2bmu0gi/christophe-bacquie-le-castellet"},{"name":"\n      Les Tablettes de Jean-Louis Nomicos    ","address":"16 avenue Bugeaud","zipcode":"75116","city":"Paris 16","description":"\n          Cuisine Moderne, Créative; Gastronomique; Traditionnel, Classique        ","chef":"Jean-Louis Nomicos","url":"https://restaurant.michelin.fr/2fdwgd3/les-tablettes-de-jean-louis-nomicos-paris-16"},{"name":"\n      La Tour des Vents    ","address":"Le Moulin de Malfourat","zipcode":"24240","city":"Monbazillac","description":"\n          Cuisine Moderne, Créative; Traditionnel, Classique; Végétarien; Végétalien        ","chef":"Damien Fagette","url":"https://restaurant.michelin.fr/28vws7k/la-tour-des-vents-monbazillac"},{"name":"\n      Frédéric Doucet    ","address":"2 avenue de la Libération","zipcode":"71120","city":"Charolles","description":"\n          Cuisine Moderne, Créative; Gastronomique; Cuisine Régionale Française; Végétarien        ","chef":"Frédéric Doucet","url":"https://restaurant.michelin.fr/295q5w8/frederic-doucet-charolles"},{"name":"\n      Le Pré Catelan    ","address":"Route de Suresnes","zipcode":"75016","city":"Paris","description":"","chef":"","url":"https://restaurant.michelin.fr/2af46v7/le-pre-catelan-paris-16"},{"name":"\n      La Table de Franck Putelat    ","address":"80 chemin des Anglais","zipcode":"11000","city":"Carcassonne","description":"\n          Cuisine Moderne, Créative; Gastronomique; Végétarien; Végétalien        ","chef":"Mr Franck PUTELAT","url":"https://restaurant.michelin.fr/2e06z2s/la-table-de-franck-putelat-carcassonne"},{"name":"\n      La Tour des Vents    ","address":"Le Moulin de Malfourat","zipcode":"24240","city":"Monbazillac","description":"\n          Cuisine Moderne, Créative; Traditionnel, Classique; Végétarien; Végétalien        ","chef":"Damien Fagette","url":"https://restaurant.michelin.fr/28vws7k/la-tour-des-vents-monbazillac"},{"name":"\n      Le Pré Catelan    ","address":"Route de Suresnes","zipcode":"75016","city":"Paris","description":"\n          Cuisine Moderne, Créative        ","chef":"Chef Frédéric Anton","url":"https://restaurant.michelin.fr/2af46v7/le-pre-catelan-paris-16"},{"name":"\n      Le 39V    ","address":"39 Avenue George V","zipcode":"75008","city":"Paris 08","description":"","chef":"","url":"https://restaurant.michelin.fr/2fd19do/le-39v-paris-08"},{"name":"\n      Emporio Armani Caffè    ","address":"149 bd St-Germain","zipcode":"75006","city":"Paris 06","description":"\n          Italien; Gastronomique        ","chef":"Massimo Mori","url":"https://restaurant.michelin.fr/2a9obdn/emporio-armani-caffe-paris-06"},{"name":"\n      Frédéric Doucet    ","address":"2 avenue de la Libération","zipcode":"71120","city":"Charolles","description":"","chef":"","url":"https://restaurant.michelin.fr/295q5w8/frederic-doucet-charolles"},{"name":"\n      Frédéric Doucet    ","address":"2 avenue de la Libération","zipcode":"71120","city":"Charolles","description":"\n          Cuisine Moderne, Créative; Gastronomique; Cuisine Régionale Française; Végétarien        ","chef":"Frédéric Doucet","url":"https://restaurant.michelin.fr/295q5w8/frederic-doucet-charolles"},{"name":"\n      JY'S    ","address":"17 r. de la Poissonnerie","zipcode":"68000","city":"Colmar","description":"\n          Cuisine Moderne, Créative; Gastronomique        ","chef":"Jean-Yves Schillinger","url":"https://restaurant.michelin.fr/298563e/jys-colmar"},{"name":"\n      Le 39V    ","address":"39 Avenue George V","zipcode":"75008","city":"Paris 08","description":"","chef":"","url":"https://restaurant.michelin.fr/2fd19do/le-39v-paris-08"},{"name":"\n      Agapé    ","address":"51 rue Jouffroy-d'Abbans","zipcode":"75017","city":"Paris 17","description":"\n          Cuisine Moderne, Créative; Gastronomique        ","chef":"Yoshitaka Takayanagi","url":"https://restaurant.michelin.fr/2eo1t6h/agape-paris-17"},{"name":"\n      Fanny Rey & Jonathan Wahid    ","address":"12, boulevard Mirabeau","zipcode":"13210","city":"SAINT REMY DE PROVENCE","description":"","chef":"","url":"https://restaurant.michelin.fr/389tiwsv/fanny-rey-jonathan-wahid-saint-remy-de-provence"},{"name":"\n      Le Jardin des Remparts    ","address":"10 rue Hôtel-Dieu","zipcode":"21200","city":"Beaune","description":"\n          Cuisine Moderne, Créative; Végétarien; Végétalien        ","chef":"Christophe Bocquillon","url":"https://restaurant.michelin.fr/28u6ql7/le-jardin-des-remparts-beaune"},{"name":"\n      Emporio Armani Caffè    ","address":"149 bd St-Germain","zipcode":"75006","city":"Paris 06","description":"","chef":"","url":"https://restaurant.michelin.fr/2a9obdn/emporio-armani-caffe-paris-06"},{"name":"\n      Emporio Armani Caffè    ","address":"149 bd St-Germain","zipcode":"75006","city":"Paris 06","description":"","chef":"","url":"https://restaurant.michelin.fr/2a9obdn/emporio-armani-caffe-paris-06"},{"name":"\n      Agapé    ","address":"51 rue Jouffroy-d'Abbans","zipcode":"75017","city":"Paris 17","description":"\n          Cuisine Moderne, Créative; Gastronomique        ","chef":"Yoshitaka Takayanagi","url":"https://restaurant.michelin.fr/2eo1t6h/agape-paris-17"},{"name":"\n      La Liégeoise    ","address":"digue de mer","zipcode":"62930","city":"Wimereux","description":"\n          Cuisine Moderne, Créative        ","chef":"Benjamin Delpierre","url":"https://restaurant.michelin.fr/2fa1zgi202/la-liegeoise-wimereux"},{"name":"\n      Le 39V    ","address":"39 Avenue George V","zipcode":"75008","city":"Paris 08","description":"","chef":"","url":"https://restaurant.michelin.fr/2fd19do/le-39v-paris-08"},{"name":"\n      Fanny Rey & Jonathan Wahid    ","address":"12, boulevard Mirabeau","zipcode":"13210","city":"SAINT REMY DE PROVENCE","description":"\n          Cuisine Moderne, Créative; Gastronomique; Végétarien; Végétalien; Provençal        ","chef":"Fanny Rey & Jonathan Wahid","url":"https://restaurant.michelin.fr/389tiwsv/fanny-rey-jonathan-wahid-saint-remy-de-provence"},{"name":"\n      La Tour des Vents    ","address":"Le Moulin de Malfourat","zipcode":"24240","city":"Monbazillac","description":"\n          Cuisine Moderne, Créative; Traditionnel, Classique; Végétarien; Végétalien        ","chef":"Damien Fagette","url":"https://restaurant.michelin.fr/28vws7k/la-tour-des-vents-monbazillac"},{"name":"\n      Le Restaurant    ","address":"13 rue des Beaux-Arts","zipcode":"75006","city":"Paris 06","description":"\n          Cuisine Moderne, Créative; Gastronomique        ","chef":"Julien Montbabut","url":"https://restaurant.michelin.fr/2cfem9h/le-restaurant-paris-06"},{"name":"\n      Frédéric Doucet    ","address":"2 avenue de la Libération","zipcode":"71120","city":"Charolles","description":"","chef":"","url":"https://restaurant.michelin.fr/295q5w8/frederic-doucet-charolles"},{"name":"\n      Fanny Rey & Jonathan Wahid    ","address":"12, boulevard Mirabeau","zipcode":"13210","city":"SAINT REMY DE PROVENCE","description":"\n          Cuisine Moderne, Créative; Gastronomique; Végétarien; Végétalien; Provençal        ","chef":"Fanny Rey & Jonathan Wahid","url":"https://restaurant.michelin.fr/389tiwsv/fanny-rey-jonathan-wahid-saint-remy-de-provence"},{"name":"\n      Le 39V    ","address":"39 Avenue George V","zipcode":"75008","city":"Paris 08","description":"","chef":"","url":"https://restaurant.michelin.fr/2fd19do/le-39v-paris-08"},{"name":"\n      Les Pêcheurs    ","address":"10 boulevard du Maréchal-Juin","zipcode":"06600","city":"Antibes","description":"","chef":"","url":"https://restaurant.michelin.fr/29ol879/les-pecheurs-antibes"},{"name":"\n      Emporio Armani Caffè    ","address":"149 bd St-Germain","zipcode":"75006","city":"Paris 06","description":"","chef":"","url":"https://restaurant.michelin.fr/2a9obdn/emporio-armani-caffe-paris-06"},{"name":"\n      Le 39V    ","address":"39 Avenue George V","zipcode":"75008","city":"Paris 08","description":"","chef":"","url":"https://restaurant.michelin.fr/2fd19do/le-39v-paris-08"},{"name":"\n      Le Saint-Estève    ","address":"2250 route cézanne D17","zipcode":"13100","city":"Le Tholonet","description":"","chef":"","url":"https://restaurant.michelin.fr/2x1lce26/le-saint-esteve-le-tholonet"},{"name":"\n      Auberge de l'Île Barbe    ","address":"1 Place Notre-Dame","zipcode":"69009","city":"Lyon 09","description":"\n          Traditionnel, Classique; Cuisine Moderne, Créative; Gastronomique        ","chef":"Jean-Christophe Ansanay-Alex","url":"https://restaurant.michelin.fr/29tj1pj/auberge-de-lile-barbe-lyon-09"},{"name":"\n      Les Tablettes de Jean-Louis Nomicos    ","address":"16 avenue Bugeaud","zipcode":"75116","city":"Paris 16","description":"","chef":"","url":"https://restaurant.michelin.fr/2fdwgd3/les-tablettes-de-jean-louis-nomicos-paris-16"},{"name":"\n      La Tour des Vents    ","address":"Le Moulin de Malfourat","zipcode":"24240","city":"Monbazillac","description":"","chef":"","url":"https://restaurant.michelin.fr/28vws7k/la-tour-des-vents-monbazillac"},{"name":"\n      Le Restaurant    ","address":"13 rue des Beaux-Arts","zipcode":"75006","city":"Paris 06","description":"\n          Cuisine Moderne, Créative; Gastronomique        ","chef":"Julien Montbabut","url":"https://restaurant.michelin.fr/2cfem9h/le-restaurant-paris-06"},{"name":"\n      Le 39V    ","address":"39 Avenue George V","zipcode":"75008","city":"Paris 08","description":"","chef":"","url":"https://restaurant.michelin.fr/2fd19do/le-39v-paris-08"},{"name":"\n      JY'S    ","address":"17 r. de la Poissonnerie","zipcode":"68000","city":"Colmar","description":"","chef":"","url":"https://restaurant.michelin.fr/298563e/jys-colmar"},{"name":"\n      Le Pré Catelan    ","address":"Route de Suresnes","zipcode":"75016","city":"Paris","description":"\n          Cuisine Moderne, Créative        ","chef":"Chef Frédéric Anton","url":"https://restaurant.michelin.fr/2af46v7/le-pre-catelan-paris-16"},{"name":"\n      Les Pêcheurs    ","address":"10 boulevard du Maréchal-Juin","zipcode":"06600","city":"Antibes","description":"\n          Méditerranéen; Poissons, Fruits de Mer; Gastronomique; Végétarien; Végétalien; Traditionnel, Classique        ","chef":"Nicolas RONDELLI","url":"https://restaurant.michelin.fr/29ol879/les-pecheurs-antibes"},{"name":"\n      Le Jardin des Remparts    ","address":"10 rue Hôtel-Dieu","zipcode":"21200","city":"Beaune","description":"","chef":"","url":"https://restaurant.michelin.fr/28u6ql7/le-jardin-des-remparts-beaune"},{"name":"\n      JY'S    ","address":"17 r. de la Poissonnerie","zipcode":"68000","city":"Colmar","description":"","chef":"","url":"https://restaurant.michelin.fr/298563e/jys-colmar"},{"name":"\n      La Tour des Vents    ","address":"Le Moulin de Malfourat","zipcode":"24240","city":"Monbazillac","description":"\n          Cuisine Moderne, Créative; Traditionnel, Classique; Végétarien; Végétalien        ","chef":"Damien Fagette","url":"https://restaurant.michelin.fr/28vws7k/la-tour-des-vents-monbazillac"},{"name":"\n      Auberge de l'Île Barbe    ","address":"1 Place Notre-Dame","zipcode":"69009","city":"Lyon 09","description":"","chef":"","url":"https://restaurant.michelin.fr/29tj1pj/auberge-de-lile-barbe-lyon-09"},{"name":"\n      La Table de Franck Putelat    ","address":"80 chemin des Anglais","zipcode":"11000","city":"Carcassonne","description":"\n          Cuisine Moderne, Créative; Gastronomique; Végétarien; Végétalien        ","chef":"Mr Franck PUTELAT","url":"https://restaurant.michelin.fr/2e06z2s/la-table-de-franck-putelat-carcassonne"},{"name":"\n      Christophe Bacquié    ","address":"Hotel du Castellet Route des Hauts du Camp","zipcode":"83330","city":"Le Castellet","description":"","chef":"","url":"https://restaurant.michelin.fr/2bmu0gi/christophe-bacquie-le-castellet"},{"name":"\n      Les Tablettes de Jean-Louis Nomicos    ","address":"16 avenue Bugeaud","zipcode":"75116","city":"Paris 16","description":"","chef":"","url":"https://restaurant.michelin.fr/2fdwgd3/les-tablettes-de-jean-louis-nomicos-paris-16"},{"name":"\n      Christophe Bacquié    ","address":"Hotel du Castellet Route des Hauts du Camp","zipcode":"83330","city":"Le Castellet","description":"","chef":"","url":"https://restaurant.michelin.fr/2bmu0gi/christophe-bacquie-le-castellet"},{"name":"\n      Emporio Armani Caffè    ","address":"149 bd St-Germain","zipcode":"75006","city":"Paris 06","description":"","chef":"","url":"https://restaurant.michelin.fr/2a9obdn/emporio-armani-caffe-paris-06"},{"name":"\n      Le Saint-Estève    ","address":"2250 route cézanne D17","zipcode":"13100","city":"Le Tholonet","description":"","chef":"","url":"https://restaurant.michelin.fr/2x1lce26/le-saint-esteve-le-tholonet"},{"name":"\n      La Tour des Vents    ","address":"Le Moulin de Malfourat","zipcode":"24240","city":"Monbazillac","description":"","chef":"","url":"https://restaurant.michelin.fr/28vws7k/la-tour-des-vents-monbazillac"},{"name":"\n      La Table de Franck Putelat    ","address":"80 chemin des Anglais","zipcode":"11000","city":"Carcassonne","description":"","chef":"","url":"https://restaurant.michelin.fr/2e06z2s/la-table-de-franck-putelat-carcassonne"},{"name":"\n      Agapé    ","address":"51 rue Jouffroy-d'Abbans","zipcode":"75017","city":"Paris 17","description":"","chef":"","url":"https://restaurant.michelin.fr/2eo1t6h/agape-paris-17"},{"name":"\n      Paul Bocuse    ","address":"40 Rue de la Plage","zipcode":"69660","city":"Collonges-au-Mont-d'Or","description":"\n          Traditionnel, Classique; Gastronomique; Lyonnais; Végétarien; Végétalien        ","chef":"Paul BOCUSE","url":"https://restaurant.michelin.fr/29tbf1t/paul-bocuse-collonges-au-mont-dor"},{"name":"\n      Auberge de l'Île Barbe    ","address":"1 Place Notre-Dame","zipcode":"69009","city":"Lyon 09","description":"","chef":"","url":"https://restaurant.michelin.fr/29tj1pj/auberge-de-lile-barbe-lyon-09"},{"name":"\n      La Tour des Vents    ","address":"Le Moulin de Malfourat","zipcode":"24240","city":"Monbazillac","description":"","chef":"","url":"https://restaurant.michelin.fr/28vws7k/la-tour-des-vents-monbazillac"},{"name":"\n      Agapé    ","address":"51 rue Jouffroy-d'Abbans","zipcode":"75017","city":"Paris 17","description":"","chef":"","url":"https://restaurant.michelin.fr/2eo1t6h/agape-paris-17"},{"name":"\n      Le Pré Catelan    ","address":"Route de Suresnes","zipcode":"75016","city":"Paris","description":"","chef":"","url":"https://restaurant.michelin.fr/2af46v7/le-pre-catelan-paris-16"},{"name":"\n      Christophe Bacquié    ","address":"Hotel du Castellet Route des Hauts du Camp","zipcode":"83330","city":"Le Castellet","description":"\n          Cuisine Moderne, Créative; Gastronomique; Provençal        ","chef":"Christophe Bacquié","url":"https://restaurant.michelin.fr/2bmu0gi/christophe-bacquie-le-castellet"},{"name":"\n      Le Pré Catelan    ","address":"Route de Suresnes","zipcode":"75016","city":"Paris","description":"","chef":"","url":"https://restaurant.michelin.fr/2af46v7/le-pre-catelan-paris-16"},{"name":"\n      Le Saint-Estève    ","address":"2250 route cézanne D17","zipcode":"13100","city":"Le Tholonet","description":"","chef":"","url":"https://restaurant.michelin.fr/2x1lce26/le-saint-esteve-le-tholonet"},{"name":"\n      La Liégeoise    ","address":"digue de mer","zipcode":"62930","city":"Wimereux","description":"","chef":"","url":"https://restaurant.michelin.fr/2fa1zgi202/la-liegeoise-wimereux"},{"name":"\n      JY'S    ","address":"17 r. de la Poissonnerie","zipcode":"68000","city":"Colmar","description":"\n          Cuisine Moderne, Créative; Gastronomique        ","chef":"Jean-Yves Schillinger","url":"https://restaurant.michelin.fr/298563e/jys-colmar"},{"name":"\n      JY'S    ","address":"17 r. de la Poissonnerie","zipcode":"68000","city":"Colmar","description":"\n          Cuisine Moderne, Créative; Gastronomique        ","chef":"Jean-Yves Schillinger","url":"https://restaurant.michelin.fr/298563e/jys-colmar"},{"name":"\n      Les Tablettes de Jean-Louis Nomicos    ","address":"16 avenue Bugeaud","zipcode":"75116","city":"Paris 16","description":"","chef":"","url":"https://restaurant.michelin.fr/2fdwgd3/les-tablettes-de-jean-louis-nomicos-paris-16"},{"name":"\n      JY'S    ","address":"17 r. de la Poissonnerie","zipcode":"68000","city":"Colmar","description":"","chef":"","url":"https://restaurant.michelin.fr/298563e/jys-colmar"},{"name":"\n      Le Restaurant    ","address":"13 rue des Beaux-Arts","zipcode":"75006","city":"Paris 06","description":"","chef":"","url":"https://restaurant.michelin.fr/2cfem9h/le-restaurant-paris-06"},{"name":"\n      JY'S    ","address":"17 r. de la Poissonnerie","zipcode":"68000","city":"Colmar","description":"","chef":"","url":"https://restaurant.michelin.fr/298563e/jys-colmar"},{"name":"\n      La Liégeoise    ","address":"digue de mer","zipcode":"62930","city":"Wimereux","description":"","chef":"","url":"https://restaurant.michelin.fr/2fa1zgi202/la-liegeoise-wimereux"},{"name":"\n      JY'S    ","address":"17 r. de la Poissonnerie","zipcode":"68000","city":"Colmar","description":"\n          Cuisine Moderne, Créative; Gastronomique        ","chef":"Jean-Yves Schillinger","url":"https://restaurant.michelin.fr/298563e/jys-colmar"},{"name":"\n      Le Restaurant    ","address":"13 rue des Beaux-Arts","zipcode":"75006","city":"Paris 06","description":"","chef":"","url":"https://restaurant.michelin.fr/2cfem9h/le-restaurant-paris-06"},{"name":"\n      Auberge de l'Île Barbe    ","address":"1 Place Notre-Dame","zipcode":"69009","city":"Lyon 09","description":"","chef":"","url":"https://restaurant.michelin.fr/29tj1pj/auberge-de-lile-barbe-lyon-09"},{"name":"\n      Les Tablettes de Jean-Louis Nomicos    ","address":"16 avenue Bugeaud","zipcode":"75116","city":"Paris 16","description":"","chef":"","url":"https://restaurant.michelin.fr/2fdwgd3/les-tablettes-de-jean-louis-nomicos-paris-16"},{"name":"\n      Le Jardin des Remparts    ","address":"10 rue Hôtel-Dieu","zipcode":"21200","city":"Beaune","description":"","chef":"","url":"https://restaurant.michelin.fr/28u6ql7/le-jardin-des-remparts-beaune"},{"name":"\n      Le Pré Catelan    ","address":"Route de Suresnes","zipcode":"75016","city":"Paris","description":"\n          Cuisine Moderne, Créative        ","chef":"Chef Frédéric Anton","url":"https://restaurant.michelin.fr/2af46v7/le-pre-catelan-paris-16"},{"name":"\n      JY'S    ","address":"17 r. de la Poissonnerie","zipcode":"68000","city":"Colmar","description":"","chef":"","url":"https://restaurant.michelin.fr/298563e/jys-colmar"},{"name":"\n      Paul Bocuse    ","address":"40 Rue de la Plage","zipcode":"69660","city":"Collonges-au-Mont-d'Or","description":"","chef":"","url":"https://restaurant.michelin.fr/29tbf1t/paul-bocuse-collonges-au-mont-dor"},{"name":"\n      Le Pré Catelan    ","address":"Route de Suresnes","zipcode":"75016","city":"Paris","description":"","chef":"","url":"https://restaurant.michelin.fr/2af46v7/le-pre-catelan-paris-16"},{"name":"\n      Emporio Armani Caffè    ","address":"149 bd St-Germain","zipcode":"75006","city":"Paris 06","description":"","chef":"","url":"https://restaurant.michelin.fr/2a9obdn/emporio-armani-caffe-paris-06"},{"name":"\n      Christophe Bacquié    ","address":"Hotel du Castellet Route des Hauts du Camp","zipcode":"83330","city":"Le Castellet","description":"","chef":"","url":"https://restaurant.michelin.fr/2bmu0gi/christophe-bacquie-le-castellet"},{"name":"\n      Les Pêcheurs    ","address":"10 boulevard du Maréchal-Juin","zipcode":"06600","city":"Antibes","description":"","chef":"","url":"https://restaurant.michelin.fr/29ol879/les-pecheurs-antibes"}]}